,hour_updated,p01m,valid,tmpf,dwpf,ice_accretion_1hr,mslp,drct,sped,alti,relh,sknt,feel,vsby,gust,skyc1,peak_wind_gust,snowdepth,station_id,index,datetime,cfs,height,sensing_time,base_url
245913,2023-07-06 16:00:00+00:00,0.0,2023-07-06 15:56,85.0,67.0,,1013.3,,3.45,29.95,54.89,3.0,87.59,,,M,,,GNR,1051610,2023-07-06 16:00:00+00:00,773.0,2.31,2023-07-06 16:00:00+00:00,gs://gcp-public-data-sentinel-2/tiles/19/T/DL/S2B_MSIL1C_20230706T153819_N0509_R011_T19TDL_20230706T173854.SAFE
245914,2023-07-06 17:00:00+00:00,0.0,2023-07-06 16:56,86.0,66.0,,1013.2,,4.6,29.94,51.37,4.0,88.28,,,M,,,GNR,1051614,2023-07-06 17:00:00+00:00,5440.0,5.01,,
245915,2023-07-06 18:00:00+00:00,0.0,2023-07-06 17:56,88.0,65.0,,1012.6,,4.6,29.93,46.39,4.0,89.8,,,M,,,GNR,1051618,2023-07-06 18:00:00+00:00,5460.0,5.02,,
245916,2023-07-06 19:00:00+00:00,0.0,2023-07-06 18:56,87.0,62.0,,1012.1,,,29.91,43.27,,87.58,,,M,,,GNR,1051622,2023-07-06 19:00:00+00:00,7160.0,5.72,,
245917,2023-07-06 20:00:00+00:00,0.0,2023-07-06 19:56,88.0,63.0,,1011.6,,3.45,29.9,43.4,3.0,88.86,,,M,,,GNR,1051626,2023-07-06 20:00:00+00:00,7940.0,6.04,,
245918,2023-07-06 21:00:00+00:00,0.0,2023-07-06 20:56,87.0,64.0,,1011.2,,,29.89,46.26,,88.42,,,M,,,GNR,1051630,2023-07-06 21:00:00+00:00,7940.0,6.04,,
245919,2023-07-06 22:00:00+00:00,0.0,2023-07-06 21:56,85.0,65.0,,1011.0,,4.6,29.88,51.21,4.0,86.62,,,M,,,GNR,1051634,2023-07-06 22:00:00+00:00,7970.0,6.05,,
245920,2023-07-06 23:00:00+00:00,0.0,2023-07-06 22:56,83.0,66.0,,1011.3,0.0,0.0,29.89,56.75,0.0,85.07,,,M,,,GNR,1051638,2023-07-06 23:00:00+00:00,7990.0,6.06,,
245921,2023-07-07 00:00:00+00:00,0.0,2023-07-06 23:56,80.0,66.0,,1011.1,190.0,4.6,29.88,62.17,4.0,82.17,,,M,,,GNR,1051642,2023-07-07 00:00:00+00:00,8020.0,6.07,,
245922,2023-07-07 01:00:00+00:00,0.0,2023-07-07 00:56,78.0,65.0,,1011.4,0.0,0.0,29.89,63.9,0.0,78.1,,,M,,,GNR,1051646,2023-07-07 01:00:00+00:00,8040.0,6.08,,
245923,2023-07-07 02:00:00+00:00,0.0,2023-07-07 01:56,77.0,66.0,,1011.7,190.0,4.6,29.9,68.85,4.0,77.0,,,M,,,GNR,1051650,2023-07-07 02:00:00+00:00,8040.0,6.08,,
245924,2023-07-07 03:00:00+00:00,0.0,2023-07-07 02:56,75.0,67.0,,1011.7,190.0,3.45,29.9,75.92,3.0,75.0,,,M,,,GNR,1051654,2023-07-07 03:00:00+00:00,8040.0,6.08,,
245925,2023-07-07 04:00:00+00:00,0.0,2023-07-07 03:56,74.0,67.0,,1011.2,0.0,0.0,29.89,78.77,0.0,73.9,,,M,,,GNR,1051658,2023-07-07 04:00:00+00:00,8040.0,6.08,,
245926,2023-07-07 05:00:00+00:00,0.0,2023-07-07 04:56,71.0,67.0,,1011.1,140.0,3.45,29.88,86.59,3.0,71.1,,,M,,,GNR,1051662,2023-07-07 05:00:00+00:00,8040.0,6.08,,
245927,2023-07-07 06:00:00+00:00,0.0,2023-07-07 05:56,70.0,67.0,,1010.9,130.0,4.6,29.88,89.9,4.0,70.0,,,M,,,GNR,1051666,2023-07-07 06:00:00+00:00,4170.0,4.43,,
245928,2023-07-07 07:00:00+00:00,0.0,2023-07-07 06:56,69.0,67.0,,1010.7,140.0,4.6,29.87,92.71,4.0,69.1,,,M,,,GNR,1051670,2023-07-07 07:00:00+00:00,1720.0,3.09,,
245929,2023-07-07 08:00:00+00:00,0.0,2023-07-07 07:56,68.0,67.0,,1010.7,120.0,4.6,29.87,96.28,4.0,68.0,,,M,,,GNR,1051674,2023-07-07 08:00:00+00:00,1040.0,2.56,,
245930,2023-07-07 09:00:00+00:00,0.0,2023-07-07 08:56,69.0,67.0,,1011.0,0.0,0.0,29.88,92.71,0.0,69.1,,,M,,,GNR,1051678,2023-07-07 09:00:00+00:00,803.0,2.34,,
245931,2023-07-07 10:00:00+00:00,0.0,2023-07-07 09:56,69.0,67.0,,1010.8,0.0,0.0,29.87,92.71,0.0,69.1,,,M,,,GNR,1051682,2023-07-07 10:00:00+00:00,763.0,2.3,,
245932,2023-07-07 11:00:00+00:00,0.0,2023-07-07 10:56,73.0,69.0,,1010.9,0.0,0.0,29.88,87.59,0.0,73.0,,,M,,,GNR,1051686,2023-07-07 11:00:00+00:00,753.0,2.29,,
245933,2023-07-07 12:00:00+00:00,0.0,2023-07-07 11:56,75.0,70.0,,1011.1,0.0,0.0,29.88,84.46,0.0,75.0,,,M,,,GNR,1051690,2023-07-07 12:00:00+00:00,744.0,2.28,,
245934,2023-07-07 13:00:00+00:00,0.0,2023-07-07 12:56,78.0,71.0,,1010.8,0.0,0.0,29.88,79.1,0.0,78.1,,,M,,,GNR,1051694,2023-07-07 13:00:00+00:00,734.0,2.27,,
245935,2023-07-07 14:00:00+00:00,0.0,2023-07-07 13:56,82.0,72.0,,1010.6,190.0,4.6,29.87,71.78,4.0,86.83,,,M,,,GNR,1051698,2023-07-07 14:00:00+00:00,734.0,2.27,,
245936,2023-07-07 15:00:00+00:00,0.0,2023-07-07 14:56,84.0,71.0,,1010.6,180.0,4.6,29.87,65.26,4.0,89.01,,,M,,,GNR,1051702,2023-07-07 15:00:00+00:00,734.0,2.27,,
245937,2023-07-07 16:00:00+00:00,0.0,2023-07-07 15:56,85.0,72.0,,1010.0,,5.75,29.85,65.36,5.0,90.82,,,M,,,GNR,1051706,2023-07-07 16:00:00+00:00,724.0,2.26,,
245938,2023-07-07 17:00:00+00:00,0.0,2023-07-07 16:56,85.0,71.0,,1009.5,160.0,8.05,29.83,63.4,7.0,90.16,,15.0,M,,,GNR,1051710,2023-07-07 17:00:00+00:00,5550.0,5.06,,
245939,2023-07-07 18:00:00+00:00,0.0,2023-07-07 17:56,87.0,70.0,,1008.8,,4.6,29.81,56.92,4.0,92.04,,14.0,M,,,GNR,1051714,2023-07-07 18:00:00+00:00,5580.0,5.07,,
245940,2023-07-07 19:00:00+00:00,0.0,2023-07-07 18:56,87.0,68.0,,1008.4,,,29.8,53.15,,90.64,,,M,,,GNR,1051718,2023-07-07 19:00:00+00:00,7470.0,5.85,,
245941,2023-07-07 20:00:00+00:00,0.0,2023-07-07 19:56,76.0,63.0,,1009.5,,4.6,29.83,64.31,4.0,75.9,,,M,,,GNR,1051722,2023-07-07 20:00:00+00:00,8040.0,6.08,,
245942,2023-07-07 21:00:00+00:00,1.27,2023-07-07 20:56,70.0,66.0,,1010.9,10.0,6.9,29.87,87.14,6.0,70.0,,,M,,,GNR,1051726,2023-07-07 21:00:00+00:00,8070.0,6.09,,
245943,2023-07-07 22:00:00+00:00,2.29,2023-07-07 21:56,68.0,67.0,,1011.8,0.0,0.0,29.89,96.28,0.0,68.0,,,M,,,GNR,1051730,2023-07-07 22:00:00+00:00,8090.0,6.1,,
245944,2023-07-07 23:00:00+00:00,4.83,2023-07-07 22:56,68.0,66.0,,1012.3,0.0,0.0,29.91,93.32,0.0,68.0,,,M,,,GNR,1051734,2023-07-07 23:00:00+00:00,8140.0,6.12,,
245945,2023-07-08 00:00:00+00:00,1.52,2023-07-07 23:56,69.0,66.0,,1011.9,10.0,5.75,29.9,89.86,5.0,69.1,,,M,,,GNR,1051738,2023-07-08 00:00:00+00:00,8220.0,6.15,,
245946,2023-07-08 01:00:00+00:00,0.0,2023-07-08 00:56,68.0,67.0,,1011.8,0.0,0.0,29.9,96.28,0.0,68.0,,,M,,,GNR,1051742,2023-07-08 01:00:00+00:00,8340.0,6.2,,
245947,2023-07-08 02:00:00+00:00,0.0,2023-07-08 01:56,67.0,66.0,,1011.6,0.0,0.0,29.89,96.93,0.0,66.9,,,M,,,GNR,1051746,2023-07-08 02:00:00+00:00,8420.0,6.23,,
245948,2023-07-08 03:00:00+00:00,0.0,2023-07-08 02:56,68.0,66.0,,1010.8,120.0,4.6,29.87,93.32,4.0,68.0,,,M,,,GNR,1051750,2023-07-08 03:00:00+00:00,6050.0,5.27,,
245949,2023-07-08 04:00:00+00:00,0.0,2023-07-08 03:56,66.0,66.0,,1010.9,,3.45,29.87,100.0,3.0,66.0,,,M,,,GNR,1051754,2023-07-08 04:00:00+00:00,2400.0,3.52,,
245950,2023-07-08 05:00:00+00:00,0.0,2023-07-08 04:56,66.0,66.0,,1011.1,120.0,4.6,29.88,100.0,4.0,66.0,,,M,,,GNR,1051758,2023-07-08 05:00:00+00:00,1490.0,2.92,,
245951,2023-07-08 06:00:00+00:00,0.0,2023-07-08 05:56,66.0,66.0,,1011.1,0.0,0.0,29.88,100.0,0.0,66.0,,,M,,,GNR,1051762,2023-07-08 06:00:00+00:00,1200.0,2.7,,
245952,2023-07-08 07:00:00+00:00,0.0,2023-07-08 06:56,66.0,66.0,,1011.4,0.0,0.0,29.89,100.0,0.0,66.0,,,M,,,GNR,1051766,2023-07-08 07:00:00+00:00,1170.0,2.67,,
245953,2023-07-08 08:00:00+00:00,0.0,2023-07-08 07:56,65.0,64.0,,1011.6,0.0,0.0,29.89,96.9,0.0,64.9,,,M,,,GNR,1051770,2023-07-08 08:00:00+00:00,1170.0,2.67,,
245954,2023-07-08 09:00:00+00:00,0.0,2023-07-08 08:56,65.0,64.0,,1012.1,0.0,0.0,29.9,96.9,0.0,64.9,,,M,,,GNR,1051774,2023-07-08 09:00:00+00:00,1180.0,2.68,,
245955,2023-07-08 10:00:00+00:00,0.0,2023-07-08 09:56,66.0,64.0,,1012.3,0.0,0.0,29.9,93.26,0.0,66.0,,,M,,,GNR,1051778,2023-07-08 10:00:00+00:00,1190.0,2.69,,
245956,2023-07-08 11:00:00+00:00,0.0,2023-07-08 10:56,68.0,66.0,,1012.5,0.0,0.0,29.91,93.32,0.0,68.0,,,M,,,GNR,1051782,2023-07-08 11:00:00+00:00,1200.0,2.7,,
245957,2023-07-08 12:00:00+00:00,0.0,2023-07-08 11:56,71.0,66.0,,1012.5,50.0,4.6,29.91,83.93,4.0,71.1,,,M,,,GNR,1051786,2023-07-08 12:00:00+00:00,1230.0,2.72,,
245958,2023-07-08 13:00:00+00:00,0.0,2023-07-08 12:56,74.0,67.0,,1012.4,0.0,0.0,29.91,78.77,0.0,73.9,,,M,,,GNR,1051790,2023-07-08 13:00:00+00:00,1240.0,2.73,,
245959,2023-07-08 14:00:00+00:00,0.0,2023-07-08 13:56,76.0,69.0,,1012.1,330.0,4.6,29.9,79.47,4.0,75.9,,,M,,,GNR,1051794,2023-07-08 14:00:00+00:00,1250.0,2.74,,
245960,2023-07-08 15:00:00+00:00,0.0,2023-07-08 14:56,79.0,67.0,,1012.0,50.0,3.45,29.9,66.49,3.0,79.0,,,M,,,GNR,1051798,2023-07-08 15:00:00+00:00,1280.0,2.76,,
245961,2023-07-08 16:00:00+00:00,0.0,2023-07-08 15:56,79.0,68.0,,1011.8,0.0,0.0,29.9,69.07,0.0,79.0,,,M,,,GNR,1051802,2023-07-08 16:00:00+00:00,1650.0,3.04,2023-07-08 16:00:00+00:00,gs://gcp-public-data-sentinel-2/tiles/19/T/DL/S2A_MSIL1C_20230708T153601_N0509_R111_T19TDL_20230708T204831.SAFE
245962,2023-07-08 17:00:00+00:00,0.0,2023-07-08 16:56,80.0,68.0,,1011.5,,6.9,29.89,66.62,6.0,82.7,,,M,,,GNR,1051806,2023-07-08 17:00:00+00:00,6100.0,5.29,,
245963,2023-07-08 18:00:00+00:00,0.0,2023-07-08 17:56,82.0,67.0,,1011.5,190.0,6.9,29.89,60.28,6.0,84.48,,,M,,,GNR,1051810,2023-07-08 18:00:00+00:00,6100.0,5.29,,
245964,2023-07-08 19:00:00+00:00,0.0,2023-07-08 18:56,82.0,67.0,,1011.2,,,29.88,60.28,,84.48,,,M,,,GNR,1051814,2023-07-08 19:00:00+00:00,5910.0,5.21,,
245965,2023-07-08 20:00:00+00:00,0.0,2023-07-08 19:56,81.0,66.0,,1010.8,160.0,6.9,29.87,60.37,6.0,83.11,,,M,,,GNR,1051818,2023-07-08 20:00:00+00:00,5760.0,5.15,,
245966,2023-07-08 21:00:00+00:00,0.0,2023-07-08 20:56,80.0,69.0,,1010.7,,3.45,29.87,69.18,3.0,83.01,,,M,,,GNR,1051822,2023-07-08 21:00:00+00:00,5790.0,5.16,,
245967,2023-07-08 22:00:00+00:00,0.0,2023-07-08 21:56,79.0,69.0,,1010.5,,3.45,29.86,71.72,3.0,79.0,,,M,,,GNR,1051826,2023-07-08 22:00:00+00:00,4380.0,4.53,,
245968,2023-07-08 23:00:00+00:00,0.0,2023-07-08 22:56,78.0,69.0,,1010.6,,3.45,29.86,73.88,3.0,78.1,,,M,,,GNR,1051830,2023-07-08 23:00:00+00:00,2140.0,3.36,,
245969,2023-07-09 00:00:00+00:00,0.0,2023-07-08 23:56,73.0,68.0,,1011.0,,4.6,29.87,84.34,4.0,73.0,,,M,,,GNR,1051834,2023-07-09 00:00:00+00:00,1490.0,2.92,,
245970,2023-07-09 01:00:00+00:00,0.0,2023-07-09 00:56,71.0,68.0,,1011.7,190.0,4.6,29.89,89.94,4.0,71.1,,,M,,,GNR,1051838,2023-07-09 01:00:00+00:00,1340.0,2.81,,
245971,2023-07-09 02:00:00+00:00,0.0,2023-07-09 01:56,70.0,68.0,,1011.8,,3.45,29.9,93.37,3.0,70.0,,,M,,,GNR,1051842,2023-07-09 02:00:00+00:00,1320.0,2.79,,
245972,2023-07-09 03:00:00+00:00,0.0,2023-07-09 02:56,70.0,68.0,,1011.5,,3.45,29.89,93.37,3.0,70.0,,,M,,,GNR,1051846,2023-07-09 03:00:00+00:00,1300.0,2.78,,
245973,2023-07-09 04:00:00+00:00,0.0,2023-07-09 03:56,70.0,68.0,,1011.4,150.0,6.9,29.89,93.37,6.0,70.0,,,M,,,GNR,1051850,2023-07-09 04:00:00+00:00,1280.0,2.76,,
245974,2023-07-09 05:00:00+00:00,0.0,2023-07-09 04:56,68.0,67.0,,1011.0,150.0,6.9,29.87,96.28,6.0,68.0,,,M,,,GNR,1051854,2023-07-09 05:00:00+00:00,1270.0,2.75,,
245975,2023-07-09 06:00:00+00:00,0.0,2023-07-09 05:56,67.0,67.0,,1011.8,,3.45,29.9,100.0,3.0,66.9,,,M,,,GNR,1051858,2023-07-09 06:00:00+00:00,1250.0,2.74,,
245976,2023-07-09 07:00:00+00:00,0.0,2023-07-09 06:56,67.0,66.0,,1011.6,140.0,6.9,29.89,96.93,6.0,66.9,,,M,,,GNR,1051862,2023-07-09 07:00:00+00:00,1250.0,2.74,,
245977,2023-07-09 08:00:00+00:00,0.0,2023-07-09 07:56,66.0,65.0,,1011.5,150.0,4.6,29.89,96.24,4.0,66.0,,,M,,,GNR,1051866,2023-07-09 08:00:00+00:00,1240.0,2.73,,
245978,2023-07-09 09:00:00+00:00,0.0,2023-07-09 08:56,66.0,65.0,,1011.8,,3.45,29.9,96.24,3.0,66.0,,,M,,,GNR,1051870,2023-07-09 09:00:00+00:00,1230.0,2.72,,
245979,2023-07-09 10:00:00+00:00,0.0,2023-07-09 09:56,66.0,65.0,,1012.0,150.0,3.45,29.9,96.24,3.0,66.0,,,M,,,GNR,1051874,2023-07-09 10:00:00+00:00,1220.0,2.71,,
245980,2023-07-09 11:00:00+00:00,0.0,2023-07-09 10:56,67.0,65.0,,1012.4,,4.6,29.91,93.29,4.0,66.9,,,M,,,GNR,1051878,2023-07-09 11:00:00+00:00,1220.0,2.71,,
245981,2023-07-09 12:00:00+00:00,0.0,2023-07-09 11:56,67.0,66.0,,1012.6,0.0,0.0,29.91,96.93,0.0,66.9,,,M,,,GNR,1051882,2023-07-09 12:00:00+00:00,1200.0,2.7,,
245982,2023-07-09 13:00:00+00:00,0.0,2023-07-09 12:56,69.0,66.0,,1012.6,150.0,4.6,29.91,89.86,4.0,69.1,,,M,,,GNR,1051886,2023-07-09 13:00:00+00:00,1190.0,2.69,,
245983,2023-07-09 14:00:00+00:00,0.0,2023-07-09 13:56,69.0,66.0,,1012.9,,3.45,29.92,89.86,3.0,69.1,,,M,,,GNR,1051890,2023-07-09 14:00:00+00:00,1190.0,2.69,,
245984,2023-07-09 15:00:00+00:00,0.0,2023-07-09 14:56,70.0,67.0,,1012.6,120.0,4.6,29.92,89.9,4.0,70.0,,,M,,,GNR,1051894,2023-07-09 15:00:00+00:00,1180.0,2.68,,
245985,2023-07-09 16:00:00+00:00,0.0,2023-07-09 15:56,71.0,67.0,,1012.5,120.0,6.9,29.92,86.59,6.0,71.1,,,M,,,GNR,1051898,2023-07-09 16:00:00+00:00,1200.0,2.7,,
245986,2023-07-09 17:00:00+00:00,0.0,2023-07-09 16:56,72.0,67.0,,1012.6,,3.45,29.92,83.99,3.0,72.0,,,M,,,GNR,1051902,2023-07-09 17:00:00+00:00,5980.0,5.24,,
245987,2023-07-09 18:00:00+00:00,0.0,2023-07-09 17:56,73.0,67.0,,1012.5,0.0,0.0,29.91,81.2,0.0,73.0,,,M,,,GNR,1051906,2023-07-09 18:00:00+00:00,6000.0,5.25,,
245988,2023-07-09 19:00:00+00:00,0.0,2023-07-09 18:56,74.0,68.0,,1012.0,130.0,6.9,29.9,81.82,6.0,73.9,,,M,,,GNR,1051910,2023-07-09 19:00:00+00:00,4660.0,4.66,,
245989,2023-07-09 20:00:00+00:00,0.0,2023-07-09 19:56,75.0,69.0,,1011.7,150.0,9.2,29.89,81.9,8.0,75.0,,,M,,,GNR,1051914,2023-07-09 20:00:00+00:00,2540.0,3.6,,
245990,2023-07-09 21:00:00+00:00,0.0,2023-07-09 20:56,74.0,69.0,,1011.8,120.0,10.35,29.89,84.97,9.0,73.9,,,M,,,GNR,1051918,2023-07-09 21:00:00+00:00,2350.0,3.49,,
245991,2023-07-09 22:00:00+00:00,0.0,2023-07-09 21:56,72.0,68.0,,1012.0,150.0,4.6,29.9,87.24,4.0,72.0,,,M,,,GNR,1051922,2023-07-09 22:00:00+00:00,2340.0,3.48,,
245992,2023-07-09 23:00:00+00:00,0.0,2023-07-09 22:56,72.0,68.0,,1012.2,,3.45,29.9,87.24,3.0,72.0,,,M,,,GNR,1051926,2023-07-09 23:00:00+00:00,5120.0,4.87,,
245993,2023-07-10 00:00:00+00:00,0.0,2023-07-09 23:56,71.0,67.0,,1012.4,0.0,0.0,29.91,86.59,0.0,71.1,,,M,,,GNR,1051930,2023-07-10 00:00:00+00:00,8340.0,6.2,,
245994,2023-07-10 01:00:00+00:00,0.0,2023-07-10 00:56,69.0,68.0,,1012.1,130.0,3.45,29.9,96.29,3.0,69.1,,,M,,,GNR,1051934,2023-07-10 01:00:00+00:00,4550.0,4.61,,
245995,2023-07-10 02:00:00+00:00,0.0,2023-07-10 01:56,69.0,68.0,,1012.7,150.0,3.45,29.92,96.29,3.0,69.1,,,M,,,GNR,1051938,2023-07-10 02:00:00+00:00,2090.0,3.33,,
245996,2023-07-10 03:00:00+00:00,0.0,2023-07-10 02:56,69.0,68.0,,1012.8,0.0,0.0,29.92,96.29,0.0,69.1,,,M,,,GNR,1051942,2023-07-10 03:00:00+00:00,1410.0,2.86,,
245997,2023-07-10 04:00:00+00:00,0.0,2023-07-10 03:56,68.0,67.0,,1012.6,140.0,4.6,29.92,96.28,4.0,68.0,,,M,,,GNR,1051946,2023-07-10 04:00:00+00:00,1220.0,2.71,,
245998,2023-07-10 05:00:00+00:00,0.0,2023-07-10 04:56,68.0,67.0,,1012.2,160.0,5.75,29.9,96.28,5.0,68.0,,,M,,,GNR,1051950,2023-07-10 05:00:00+00:00,1190.0,2.69,,
245999,2023-07-10 06:00:00+00:00,0.0,2023-07-10 05:56,68.0,67.0,,1011.6,,3.45,29.89,96.28,3.0,68.0,,,M,,,GNR,1051954,2023-07-10 06:00:00+00:00,1170.0,2.67,,
246000,2023-07-10 07:00:00+00:00,0.0,2023-07-10 06:56,67.0,66.0,,1011.6,,6.9,29.89,96.93,6.0,66.9,,,M,,,GNR,1051958,2023-07-10 07:00:00+00:00,1170.0,2.67,,
246001,2023-07-10 08:00:00+00:00,0.0,2023-07-10 07:56,67.0,66.0,,1011.3,,4.6,29.88,96.93,4.0,66.9,,,M,,,GNR,1051962,2023-07-10 08:00:00+00:00,1160.0,2.66,,
246002,2023-07-10 09:00:00+00:00,0.0,2023-07-10 08:56,67.0,66.0,,1011.5,150.0,6.9,29.89,96.93,6.0,66.9,,,M,,,GNR,1051966,2023-07-10 09:00:00+00:00,1150.0,2.65,,
246003,2023-07-10 10:00:00+00:00,0.0,2023-07-10 09:56,66.0,65.0,,1012.3,140.0,5.75,29.9,96.24,5.0,66.0,,,M,,,GNR,1051970,2023-07-10 10:00:00+00:00,1150.0,2.65,,
246004,2023-07-10 11:00:00+00:00,0.0,2023-07-10 10:56,67.0,65.0,,1012.4,130.0,5.75,29.91,93.29,5.0,66.9,,,M,,,GNR,1051974,2023-07-10 11:00:00+00:00,1130.0,2.64,,
246005,2023-07-10 12:00:00+00:00,0.0,2023-07-10 11:56,68.0,64.0,,1012.3,110.0,9.2,29.91,87.03,8.0,68.0,,,M,,,GNR,1051978,2023-07-10 12:00:00+00:00,1130.0,2.64,,
246006,2023-07-10 13:00:00+00:00,0.0,2023-07-10 12:56,68.0,64.0,,1012.6,,6.9,29.92,87.03,6.0,68.0,,,M,,,GNR,1051982,2023-07-10 13:00:00+00:00,1120.0,2.63,,
246007,2023-07-10 14:00:00+00:00,0.0,2023-07-10 13:56,68.0,65.0,,1012.4,110.0,8.05,29.91,89.81,7.0,68.0,,,M,,,GNR,1051986,2023-07-10 14:00:00+00:00,1120.0,2.63,,
246008,2023-07-10 15:00:00+00:00,2.79,2023-07-10 14:56,67.0,66.0,,1012.3,,3.45,29.9,96.93,3.0,66.9,,,M,,,GNR,1051990,2023-07-10 15:00:00+00:00,1110.0,2.62,,
246009,2023-07-10 16:00:00+00:00,4.32,2023-07-10 15:56,68.0,66.0,,1012.3,120.0,8.05,29.9,93.32,7.0,68.0,,,M,,,GNR,1051994,2023-07-10 16:00:00+00:00,1150.0,2.65,,
246010,2023-07-10 17:00:00+00:00,0.0,2023-07-10 16:56,68.0,66.0,,1011.8,110.0,10.35,29.89,93.32,9.0,68.0,,,M,,,GNR,1051998,2023-07-10 17:00:00+00:00,5810.0,5.17,,
246011,2023-07-10 18:00:00+00:00,0.0,2023-07-10 17:56,69.0,68.0,,1011.5,140.0,11.5,29.88,96.29,10.0,69.1,,17.0,M,,,GNR,1052002,2023-07-10 18:00:00+00:00,5810.0,5.17,,
246012,2023-07-10 19:00:00+00:00,0.25,2023-07-10 18:56,68.0,68.0,,1011.7,140.0,8.05,29.89,100.0,7.0,68.0,,,M,,,GNR,1052006,2023-07-10 19:00:00+00:00,4400.0,4.54,,
246013,2023-07-10 20:00:00+00:00,0.0,2023-07-10 19:56,69.0,68.0,,1011.4,,4.6,29.88,96.29,4.0,69.1,,,M,,,GNR,1052010,2023-07-10 20:00:00+00:00,2060.0,3.31,,
246014,2023-07-10 21:00:00+00:00,0.0,2023-07-10 20:56,69.0,68.0,,1010.9,140.0,5.75,29.86,96.29,5.0,69.1,,14.0,M,,,GNR,1052014,2023-07-10 21:00:00+00:00,1350.0,2.82,,
246015,2023-07-10 22:00:00+00:00,0.0,2023-07-10 21:56,68.0,67.0,,1011.0,130.0,6.9,29.86,96.28,6.0,68.0,,,M,,,GNR,1052018,2023-07-10 22:00:00+00:00,1150.0,2.65,,
246016,2023-07-10 23:00:00+00:00,0.0,2023-07-10 22:56,67.0,67.0,,1010.7,120.0,10.35,29.86,100.0,9.0,66.9,,17.0,M,,,GNR,1052022,2023-07-10 23:00:00+00:00,1740.0,3.1,,
246017,2023-07-11 00:00:00+00:00,0.76,2023-07-10 23:56,67.0,67.0,,1010.6,140.0,6.9,29.86,100.0,6.0,66.9,,16.0,M,,,GNR,1052026,2023-07-11 00:00:00+00:00,8220.0,6.15,,
246018,2023-07-11 01:00:00+00:00,0.76,2023-07-11 00:56,68.0,67.0,,1010.5,120.0,12.65,29.85,96.28,11.0,68.0,,,M,,,GNR,1052030,2023-07-11 01:00:00+00:00,8290.0,6.18,,
246019,2023-07-11 02:00:00+00:00,0.25,2023-07-11 01:56,68.0,67.0,,1010.2,120.0,9.2,29.84,96.28,8.0,68.0,,19.0,M,,,GNR,1052034,2023-07-11 02:00:00+00:00,4570.0,4.62,,
246020,2023-07-11 03:00:00+00:00,1.27,2023-07-11 02:56,68.0,67.0,,1009.7,120.0,12.65,29.83,96.28,11.0,68.0,,18.0,M,,,GNR,1052038,2023-07-11 03:00:00+00:00,2460.0,3.55,,
246021,2023-07-11 04:00:00+00:00,0.76,2023-07-11 03:56,67.0,67.0,,1009.2,130.0,11.5,29.81,100.0,10.0,66.9,,20.0,M,,,GNR,1052042,2023-07-11 04:00:00+00:00,2340.0,3.48,,
246022,2023-07-11 05:00:00+00:00,2.03,2023-07-11 04:56,67.0,66.0,,1008.6,130.0,11.5,29.79,96.93,10.0,66.9,,17.0,M,,,GNR,1052046,2023-07-11 05:00:00+00:00,2390.0,3.51,,
246023,2023-07-11 06:00:00+00:00,1.78,2023-07-11 05:56,67.0,66.0,,1007.6,110.0,10.35,29.77,96.93,9.0,66.9,,,M,,,GNR,1052050,2023-07-11 06:00:00+00:00,2390.0,3.51,,
246024,2023-07-11 07:00:00+00:00,1.78,2023-07-11 06:56,67.0,66.0,,1007.1,120.0,11.5,29.75,96.93,10.0,66.9,,17.0,M,,,GNR,1052054,2023-07-11 07:00:00+00:00,2400.0,3.52,,
246025,2023-07-11 08:00:00+00:00,1.02,2023-07-11 07:56,65.0,65.0,,1006.8,130.0,9.2,29.74,100.0,8.0,64.9,,14.0,M,,,GNR,1052058,2023-07-11 08:00:00+00:00,2460.0,3.55,,
246026,2023-07-11 09:00:00+00:00,6.1,2023-07-11 08:56,63.0,63.0,,1007.0,150.0,8.05,29.75,100.0,7.0,63.0,,,M,,,GNR,1052062,2023-07-11 09:00:00+00:00,2510.0,3.58,,
246027,2023-07-11 10:00:00+00:00,6.86,2023-07-11 09:56,63.0,62.0,,1007.2,140.0,6.9,29.75,96.88,6.0,63.0,,,M,,,GNR,1052066,2023-07-11 10:00:00+00:00,2610.0,3.64,,
246028,2023-07-11 11:00:00+00:00,2.79,2023-07-11 10:56,63.0,62.0,,1007.6,130.0,5.75,29.76,96.88,5.0,63.0,,,M,,,GNR,1052070,2023-07-11 11:00:00+00:00,2700.0,3.69,,
246029,2023-07-11 12:00:00+00:00,0.0,2023-07-11 11:56,64.0,63.0,,1007.8,130.0,6.9,29.77,96.55,6.0,64.0,,,M,,,GNR,1052074,2023-07-11 12:00:00+00:00,2790.0,3.74,,
246030,2023-07-11 13:00:00+00:00,0.25,2023-07-11 12:56,65.0,64.0,,1007.4,120.0,4.6,29.76,96.9,4.0,64.9,,,M,,,GNR,1052078,2023-07-11 13:00:00+00:00,2860.0,3.78,,
246031,2023-07-11 14:00:00+00:00,0.0,2023-07-11 13:56,66.0,65.0,,1007.6,,3.45,29.77,96.24,3.0,66.0,,,M,,,GNR,1052082,2023-07-11 14:00:00+00:00,2940.0,3.82,,
246032,2023-07-11 15:00:00+00:00,0.0,2023-07-11 14:56,70.0,65.0,,1007.1,,3.45,29.75,83.86,3.0,70.0,,,M,,,GNR,1052086,2023-07-11 15:00:00+00:00,2980.0,3.84,,
246033,2023-07-11 16:00:00+00:00,0.25,2023-07-11 15:56,69.0,67.0,,1007.2,350.0,3.45,29.75,92.71,3.0,69.1,,,M,,,GNR,1052090,2023-07-11 16:00:00+00:00,4450.0,4.56,2023-07-11 16:00:00+00:00,gs://gcp-public-data-sentinel-2/tiles/19/T/DL/S2A_MSIL1C_20230711T153821_N0509_R011_T19TDL_20230711T205855.SAFE
246034,2023-07-11 17:00:00+00:00,0.76,2023-07-11 16:56,69.0,66.0,,1007.5,,4.6,29.76,89.86,4.0,69.1,,,M,,,GNR,1052094,2023-07-11 17:00:00+00:00,6560.0,5.48,,
246035,2023-07-11 18:00:00+00:00,0.0,2023-07-11 17:56,72.0,65.0,,1007.2,300.0,8.05,29.76,78.35,7.0,72.0,,,M,,,GNR,1052098,2023-07-11 18:00:00+00:00,6630.0,5.51,,
246036,2023-07-11 19:00:00+00:00,0.0,2023-07-11 18:56,76.0,64.0,,1007.3,330.0,12.65,29.76,66.6,11.0,75.9,,17.0,M,,,GNR,1052102,2023-07-11 19:00:00+00:00,4960.0,4.8,,
246037,2023-07-11 20:00:00+00:00,0.0,2023-07-11 19:56,75.0,63.0,,1007.7,310.0,6.9,29.77,66.27,6.0,75.0,,,M,,,GNR,1052106,2023-07-11 20:00:00+00:00,2580.0,3.62,,
246038,2023-07-11 21:00:00+00:00,0.0,2023-07-11 20:56,76.0,61.0,,1008.0,330.0,10.35,29.78,59.92,9.0,75.9,,,M,,,GNR,1052110,2023-07-11 21:00:00+00:00,1920.0,3.22,,
246039,2023-07-11 22:00:00+00:00,0.0,2023-07-11 21:56,75.0,62.0,,1008.0,,4.6,29.78,64.2,4.0,75.0,,,M,,,GNR,1052114,2023-07-11 22:00:00+00:00,1780.0,3.13,,
246040,2023-07-11 23:00:00+00:00,0.0,2023-07-11 22:56,73.0,61.0,,1008.5,300.0,3.45,29.79,66.04,3.0,73.0,,,M,,,GNR,1052118,2023-07-11 23:00:00+00:00,7040.0,5.67,,
246041,2023-07-12 00:00:00+00:00,0.0,2023-07-11 23:56,70.0,61.0,,1009.2,300.0,3.45,29.81,73.11,3.0,70.0,,,M,,,GNR,1052122,2023-07-12 00:00:00+00:00,9870.0,6.8,,
246042,2023-07-12 01:00:00+00:00,0.0,2023-07-12 00:56,68.0,59.0,,1009.9,0.0,0.0,29.83,72.92,0.0,68.0,,,M,,,GNR,1052126,2023-07-12 01:00:00+00:00,9890.0,6.81,,
246043,2023-07-12 02:00:00+00:00,0.0,2023-07-12 01:56,67.0,60.0,,1010.3,0.0,0.0,29.85,78.77,0.0,66.9,,,M,,,GNR,1052130,2023-07-12 02:00:00+00:00,5190.0,4.9,,
246044,2023-07-12 03:00:00+00:00,0.0,2023-07-12 02:56,65.0,62.0,,1010.2,30.0,4.6,29.84,90.64,4.0,64.9,,,M,,,GNR,1052134,2023-07-12 03:00:00+00:00,2440.0,3.54,,
246045,2023-07-12 04:00:00+00:00,0.0,2023-07-12 03:56,66.0,60.0,,1010.3,0.0,0.0,29.85,81.27,0.0,66.0,,,M,,,GNR,1052138,2023-07-12 04:00:00+00:00,1800.0,3.14,,
246046,2023-07-12 05:00:00+00:00,0.0,2023-07-12 04:56,65.0,61.0,,1010.8,,4.6,29.86,87.18,4.0,64.9,,,M,,,GNR,1052142,2023-07-12 05:00:00+00:00,1660.0,3.05,,
246047,2023-07-12 06:00:00+00:00,0.0,2023-07-12 05:56,63.0,61.0,,1010.7,310.0,5.75,29.86,93.18,5.0,63.0,,,M,,,GNR,1052146,2023-07-12 06:00:00+00:00,1630.0,3.03,,
246048,2023-07-12 07:00:00+00:00,0.0,2023-07-12 06:56,62.0,60.0,,1010.4,0.0,0.0,29.85,93.16,0.0,62.1,,,M,,,GNR,1052150,2023-07-12 07:00:00+00:00,1610.0,3.01,,
246049,2023-07-12 08:00:00+00:00,0.0,2023-07-12 07:56,63.0,61.0,,1010.2,0.0,0.0,29.84,93.18,0.0,63.0,,,M,,,GNR,1052154,2023-07-12 08:00:00+00:00,1590.0,3.0,,
246050,2023-07-12 09:00:00+00:00,0.0,2023-07-12 08:56,61.0,60.0,,1011.0,310.0,3.45,29.87,96.85,3.0,61.0,,,M,,,GNR,1052158,2023-07-12 09:00:00+00:00,1570.0,2.98,,
246051,2023-07-12 10:00:00+00:00,0.0,2023-07-12 09:56,62.0,60.0,,1011.4,0.0,0.0,29.88,93.16,0.0,62.1,,,M,,,GNR,1052162,2023-07-12 10:00:00+00:00,1550.0,2.97,,
246052,2023-07-12 11:00:00+00:00,0.0,2023-07-12 10:56,68.0,63.0,,1011.6,0.0,0.0,29.89,84.03,0.0,68.0,,,M,,,GNR,1052166,2023-07-12 11:00:00+00:00,1540.0,2.96,,
246053,2023-07-12 12:00:00+00:00,0.0,2023-07-12 11:56,70.0,63.0,,1012.2,0.0,0.0,29.9,78.46,0.0,70.0,,,M,,,GNR,1052170,2023-07-12 12:00:00+00:00,1500.0,2.93,,
246054,2023-07-12 13:00:00+00:00,0.0,2023-07-12 12:56,73.0,63.0,,1012.0,0.0,0.0,29.9,70.87,0.0,73.0,,,M,,,GNR,1052174,2023-07-12 13:00:00+00:00,1490.0,2.92,,
246055,2023-07-12 14:00:00+00:00,0.0,2023-07-12 13:56,74.0,63.0,,1012.2,0.0,0.0,29.91,68.76,0.0,73.9,,,M,,,GNR,1052178,2023-07-12 14:00:00+00:00,1470.0,2.91,,
246056,2023-07-12 15:00:00+00:00,0.0,2023-07-12 14:56,77.0,63.0,,1011.7,,4.6,29.89,62.0,4.0,77.0,,,M,,,GNR,1052182,2023-07-12 15:00:00+00:00,1460.0,2.9,,
246057,2023-07-12 16:00:00+00:00,0.0,2023-07-12 15:56,79.0,62.0,,1011.2,,3.45,29.88,56.23,3.0,79.0,,,M,,,GNR,1052186,2023-07-12 16:00:00+00:00,2110.0,3.34,,
246058,2023-07-12 17:00:00+00:00,0.0,2023-07-12 16:56,78.0,62.0,,1011.2,0.0,0.0,29.88,57.92,0.0,78.1,,,M,,,GNR,1052190,2023-07-12 17:00:00+00:00,6140.0,5.31,,
246059,2023-07-12 18:00:00+00:00,0.0,2023-07-12 17:56,80.0,64.0,,1010.7,60.0,3.45,29.86,57.98,3.0,81.71,,,M,,,GNR,1052194,2023-07-12 18:00:00+00:00,6170.0,5.32,,
246060,2023-07-12 19:00:00+00:00,0.0,2023-07-12 18:56,79.0,61.0,,1010.4,190.0,5.75,29.85,54.08,5.0,79.0,,,M,,,GNR,1052198,2023-07-12 19:00:00+00:00,4590.0,4.63,,
246061,2023-07-12 20:00:00+00:00,4.57,2023-07-12 19:56,69.0,67.0,,1011.3,,3.45,29.87,92.71,3.0,69.1,,,M,,,GNR,1052202,2023-07-12 20:00:00+00:00,2250.0,3.43,,
246062,2023-07-12 21:00:00+00:00,0.0,2023-07-12 20:56,72.0,65.0,,1011.5,60.0,8.05,29.88,78.35,7.0,72.0,,,M,,,GNR,1052206,2023-07-12 21:00:00+00:00,1570.0,2.98,,
246063,2023-07-12 22:00:00+00:00,0.0,2023-07-12 21:56,74.0,67.0,,1011.9,50.0,4.6,29.89,78.77,4.0,73.9,,,M,,,GNR,1052210,2023-07-12 22:00:00+00:00,1410.0,2.86,,
246064,2023-07-12 23:00:00+00:00,0.0,2023-07-12 22:56,71.0,67.0,,1012.4,300.0,4.6,29.91,86.59,4.0,71.1,,,M,,,GNR,1052214,2023-07-12 23:00:00+00:00,4040.0,4.37,,
246065,2023-07-13 00:00:00+00:00,0.0,2023-07-12 23:56,71.0,64.0,,1012.6,350.0,3.45,29.92,78.28,3.0,71.1,,,M,,,GNR,1052218,2023-07-13 00:00:00+00:00,8550.0,6.28,,
246066,2023-07-13 01:00:00+00:00,0.0,2023-07-13 00:56,69.0,62.0,,1013.1,360.0,4.6,29.93,78.39,4.0,69.1,,,M,,,GNR,1052222,2023-07-13 01:00:00+00:00,8630.0,6.31,,
246067,2023-07-13 02:00:00+00:00,0.0,2023-07-13 01:56,66.0,63.0,,1014.1,0.0,0.0,29.96,90.05,0.0,66.0,,,M,,,GNR,1052226,2023-07-13 02:00:00+00:00,8630.0,6.31,,
246068,2023-07-13 03:00:00+00:00,0.0,2023-07-13 02:56,66.0,64.0,,1014.0,0.0,0.0,29.96,93.26,0.0,66.0,,,M,,,GNR,1052230,2023-07-13 03:00:00+00:00,4830.0,4.74,,
246069,2023-07-13 04:00:00+00:00,0.0,2023-07-13 03:56,66.0,61.0,,1014.0,330.0,3.45,29.96,83.91,3.0,66.0,,,M,,,GNR,1052234,2023-07-13 04:00:00+00:00,5230.0,4.92,,
246070,2023-07-13 05:00:00+00:00,0.0,2023-07-13 04:56,64.0,62.0,,1013.3,50.0,3.45,29.94,93.54,3.0,64.0,,,M,,,GNR,1052238,2023-07-13 05:00:00+00:00,5810.0,5.17,,
246071,2023-07-13 06:00:00+00:00,0.0,2023-07-13 05:56,65.0,57.0,,1013.2,10.0,8.05,29.94,75.56,7.0,64.9,,,M,,,GNR,1052242,2023-07-13 06:00:00+00:00,4230.0,4.46,,
246072,2023-07-13 07:00:00+00:00,0.0,2023-07-13 06:56,64.0,59.0,,1013.0,30.0,4.6,29.93,83.78,4.0,64.0,,,M,,,GNR,1052246,2023-07-13 07:00:00+00:00,2580.0,3.62,,
246073,2023-07-13 08:00:00+00:00,0.0,2023-07-13 07:56,63.0,59.0,,1013.5,20.0,4.6,29.94,86.77,4.0,63.0,,,M,,,GNR,1052250,2023-07-13 08:00:00+00:00,2470.0,3.56,,
246074,2023-07-13 09:00:00+00:00,0.0,2023-07-13 08:56,61.0,58.0,,1014.0,0.0,0.0,29.95,89.52,0.0,61.0,,,M,,,GNR,1052254,2023-07-13 09:00:00+00:00,2460.0,3.55,,
246075,2023-07-13 10:00:00+00:00,0.0,2023-07-13 09:56,61.0,59.0,,1014.0,360.0,3.45,29.95,93.12,3.0,61.0,,,M,,,GNR,1052258,2023-07-13 10:00:00+00:00,1950.0,3.24,,
246076,2023-07-13 11:00:00+00:00,0.0,2023-07-13 10:56,64.0,61.0,,1014.4,50.0,3.45,29.97,89.97,3.0,64.0,,,M,,,GNR,1052262,2023-07-13 11:00:00+00:00,1420.0,2.87,,
246077,2023-07-13 12:00:00+00:00,0.0,2023-07-13 11:56,68.0,61.0,,1014.3,0.0,0.0,29.97,78.3,0.0,68.0,,,M,,,GNR,1052266,2023-07-13 12:00:00+00:00,1280.0,2.76,,
246078,2023-07-13 13:00:00+00:00,0.0,2023-07-13 12:56,72.0,61.0,,1014.3,0.0,0.0,29.97,68.31,0.0,72.0,,,M,,,GNR,1052270,2023-07-13 13:00:00+00:00,1270.0,2.75,,
246079,2023-07-13 14:00:00+00:00,0.0,2023-07-13 13:56,73.0,61.0,,1014.1,130.0,8.05,29.96,66.04,7.0,73.0,,,M,,,GNR,1052274,2023-07-13 14:00:00+00:00,1250.0,2.74,,
246080,2023-07-13 15:00:00+00:00,0.0,2023-07-13 14:56,74.0,63.0,,1013.8,140.0,5.75,29.95,68.76,5.0,73.9,,,M,,,GNR,1052278,2023-07-13 15:00:00+00:00,1240.0,2.73,,
246081,2023-07-13 16:00:00+00:00,0.0,2023-07-13 15:56,74.0,65.0,,1013.5,120.0,8.05,29.94,73.49,7.0,73.9,,,M,,,GNR,1052282,2023-07-13 16:00:00+00:00,1280.0,2.76,2023-07-13 16:00:00+00:00,gs://gcp-public-data-sentinel-2/tiles/19/T/DL/S2B_MSIL1C_20230713T153559_N0509_R111_T19TDL_20230713T205012.SAFE
246082,2023-07-13 17:00:00+00:00,0.0,2023-07-13 16:56,74.0,65.0,,1013.3,130.0,6.9,29.94,73.49,6.0,73.9,,,M,,,GNR,1052286,2023-07-13 17:00:00+00:00,5980.0,5.24,,
246083,2023-07-13 18:00:00+00:00,0.0,2023-07-13 17:56,74.0,66.0,,1012.7,130.0,8.05,29.92,76.1,7.0,74.0,,,M,,,GNR,1052290,2023-07-13 18:00:00+00:00,5950.0,5.23,,
246084,2023-07-13 19:00:00+00:00,0.0,2023-07-13 18:56,76.0,68.0,,1012.4,130.0,6.9,29.91,76.27,6.0,76.0,,,M,,,GNR,1052294,2023-07-13 19:00:00+00:00,4640.0,4.65,,
246085,2023-07-13 20:00:00+00:00,0.0,2023-07-13 19:56,78.0,68.0,,1011.5,120.0,9.2,29.88,71.38,8.0,78.0,,,M,,,GNR,1052298,2023-07-13 20:00:00+00:00,2850.0,3.77,,
246086,2023-07-13 21:00:00+00:00,0.0,2023-07-13 20:56,78.0,67.0,,1010.9,150.0,6.9,29.87,68.96,6.0,78.0,,20.0,M,,,GNR,1052302,2023-07-13 21:00:00+00:00,1960.0,3.25,,
246087,2023-07-13 22:00:00+00:00,0.0,2023-07-13 21:56,78.0,67.0,,1011.0,160.0,6.9,29.87,68.96,6.0,78.0,,19.0,M,,,GNR,1052306,2023-07-13 22:00:00+00:00,4340.0,4.51,,
246088,2023-07-13 23:00:00+00:00,0.0,2023-07-13 22:56,77.0,67.0,,1011.1,,6.9,29.87,71.28,6.0,77.0,,,M,,,GNR,1052310,2023-07-13 23:00:00+00:00,8420.0,6.23,,
246089,2023-07-14 00:00:00+00:00,0.0,2023-07-13 23:56,74.0,65.0,,1010.7,160.0,8.05,29.86,73.5,7.0,74.0,,16.0,M,,,GNR,1052314,2023-07-14 00:00:00+00:00,8450.0,6.24,,
246090,2023-07-14 01:00:00+00:00,0.0,2023-07-14 00:56,71.0,65.0,,1011.2,150.0,6.9,29.88,81.34,6.0,71.0,,,M,,,GNR,1052318,2023-07-14 01:00:00+00:00,8470.0,6.25,,
246091,2023-07-14 02:00:00+00:00,0.0,2023-07-14 01:56,70.0,66.0,,1011.1,140.0,8.05,29.87,87.14,7.0,70.0,,15.0,M,,,GNR,1052322,2023-07-14 02:00:00+00:00,4450.0,4.56,,
246092,2023-07-14 03:00:00+00:00,0.0,2023-07-14 02:56,68.0,66.0,,1011.0,140.0,9.2,29.87,93.32,8.0,68.0,,,M,,,GNR,1052326,2023-07-14 03:00:00+00:00,2470.0,3.56,,
246093,2023-07-14 04:00:00+00:00,0.0,2023-07-14 03:56,68.0,66.0,,1010.9,150.0,9.2,29.87,93.32,8.0,68.0,,15.0,M,,,GNR,1052330,2023-07-14 04:00:00+00:00,2350.0,3.49,,
246094,2023-07-14 05:00:00+00:00,0.0,2023-07-14 04:56,67.0,66.0,,1010.2,130.0,8.05,29.85,96.59,7.0,67.0,,,M,,,GNR,1052334,2023-07-14 05:00:00+00:00,2340.0,3.48,,
246095,2023-07-14 06:00:00+00:00,0.0,2023-07-14 05:56,67.0,65.0,,1011.2,,5.75,29.88,93.29,5.0,67.0,,,M,,,GNR,1052338,2023-07-14 06:00:00+00:00,2320.0,3.47,,
246096,2023-07-14 07:00:00+00:00,0.0,2023-07-14 06:56,66.0,65.0,,1011.7,140.0,5.75,29.89,96.58,5.0,66.0,,,M,,,GNR,1052342,2023-07-14 07:00:00+00:00,2320.0,3.47,,
246097,2023-07-14 08:00:00+00:00,0.0,2023-07-14 07:56,65.0,65.0,,1011.5,130.0,5.75,29.88,100.0,5.0,65.0,,,M,,,GNR,1052346,2023-07-14 08:00:00+00:00,2320.0,3.47,,
246098,2023-07-14 09:00:00+00:00,0.0,2023-07-14 08:56,65.0,64.0,,1012.0,120.0,3.45,29.9,96.57,3.0,65.0,,,M,,,GNR,1052350,2023-07-14 09:00:00+00:00,2300.0,3.46,,
246099,2023-07-14 10:00:00+00:00,0.0,2023-07-14 09:56,65.0,64.0,,1012.8,,5.75,29.92,96.57,5.0,65.0,,,M,,,GNR,1052354,2023-07-14 10:00:00+00:00,1860.0,3.18,,
246100,2023-07-14 11:00:00+00:00,0.0,2023-07-14 10:56,66.0,64.0,,1013.2,0.0,0.0,29.93,93.26,0.0,66.0,,,M,,,GNR,1052358,2023-07-14 11:00:00+00:00,1320.0,2.79,,
246101,2023-07-14 12:00:00+00:00,0.0,2023-07-14 11:56,67.0,64.0,,1013.4,0.0,0.0,29.94,90.09,0.0,67.0,,,M,,,GNR,1052362,2023-07-14 12:00:00+00:00,1150.0,2.65,,
246102,2023-07-14 13:00:00+00:00,0.0,2023-07-14 12:56,69.0,64.0,,1014.1,0.0,0.0,29.96,84.09,0.0,69.0,,,M,,,GNR,1052366,2023-07-14 13:00:00+00:00,1110.0,2.62,,
246103,2023-07-14 14:00:00+00:00,0.0,2023-07-14 13:56,72.0,64.0,,1014.1,0.0,0.0,29.96,75.92,0.0,72.0,,,M,,,GNR,1052370,2023-07-14 14:00:00+00:00,1100.0,2.61,,
246104,2023-07-14 15:00:00+00:00,0.0,2023-07-14 14:56,73.0,63.0,,1013.9,60.0,5.75,29.96,70.87,5.0,73.0,,,M,,,GNR,1052374,2023-07-14 15:00:00+00:00,1100.0,2.61,,
246105,2023-07-14 16:00:00+00:00,0.0,2023-07-14 15:56,75.0,62.0,,1014.0,,3.45,29.96,63.97,3.0,75.0,,,M,,,GNR,1052378,2023-07-14 16:00:00+00:00,1160.0,2.66,,
246106,2023-07-14 17:00:00+00:00,0.0,2023-07-14 16:56,78.0,64.0,,1014.2,,3.45,29.97,62.12,3.0,78.0,,,M,,,GNR,1052382,2023-07-14 17:00:00+00:00,5740.0,5.14,,
246107,2023-07-14 18:00:00+00:00,0.0,2023-07-14 17:56,77.0,65.0,,1014.3,140.0,6.9,29.97,66.5,6.0,77.0,,,M,,,GNR,1052386,2023-07-14 18:00:00+00:00,5720.0,5.13,,
246108,2023-07-14 19:00:00+00:00,0.0,2023-07-14 18:56,79.0,65.0,,1014.2,,5.75,29.97,62.25,5.0,79.0,,16.0,M,,,GNR,1052390,2023-07-14 19:00:00+00:00,4420.0,4.55,,
246109,2023-07-14 20:00:00+00:00,0.0,2023-07-14 19:56,79.0,65.0,,1014.4,,5.75,29.97,62.25,5.0,79.0,,,M,,,GNR,1052394,2023-07-14 20:00:00+00:00,2860.0,3.78,,
246110,2023-07-14 21:00:00+00:00,0.0,2023-07-14 20:56,78.0,65.0,,1014.3,,5.75,29.97,64.33,5.0,78.0,,,M,,,GNR,1052398,2023-07-14 21:00:00+00:00,6860.0,5.6,,
246111,2023-07-14 22:00:00+00:00,0.0,2023-07-14 21:56,76.0,64.0,,1014.5,,,29.98,66.38,,76.0,,,M,,,GNR,1052402,2023-07-14 22:00:00+00:00,8140.0,6.12,,
246112,2023-07-14 23:00:00+00:00,0.0,2023-07-14 22:56,75.0,65.0,,1014.3,,,29.97,71.08,,75.0,,,M,,,GNR,1052406,2023-07-14 23:00:00+00:00,8120.0,6.11,,
246113,2023-07-15 00:00:00+00:00,0.0,2023-07-14 23:56,72.0,65.0,,1014.6,,3.45,29.97,78.62,3.0,72.0,,,M,,,GNR,1052410,2023-07-15 00:00:00+00:00,8120.0,6.11,,
246114,2023-07-15 01:00:00+00:00,0.0,2023-07-15 00:56,70.0,65.0,,1014.7,120.0,4.6,29.98,84.16,4.0,70.0,,,M,,,GNR,1052414,2023-07-15 01:00:00+00:00,4230.0,4.46,,
246115,2023-07-15 02:00:00+00:00,0.0,2023-07-15 01:56,69.0,66.0,,1015.2,,3.45,30.0,90.17,3.0,69.0,,,M,,,GNR,1052418,2023-07-15 02:00:00+00:00,1780.0,3.13,,
246116,2023-07-15 03:00:00+00:00,0.0,2023-07-15 02:56,68.0,64.0,,1015.2,140.0,5.75,29.99,87.03,5.0,68.0,,,M,,,GNR,1052422,2023-07-15 03:00:00+00:00,1080.0,2.59,,
246117,2023-07-15 04:00:00+00:00,0.0,2023-07-15 03:56,67.0,65.0,,1015.4,0.0,0.0,30.0,93.29,0.0,67.0,,,M,,,GNR,1052426,2023-07-15 04:00:00+00:00,855.0,2.39,,
246118,2023-07-15 05:00:00+00:00,0.0,2023-07-15 04:56,65.0,64.0,,1015.3,150.0,8.05,30.0,96.57,7.0,65.0,,,M,,,GNR,1052430,2023-07-15 05:00:00+00:00,813.0,2.35,,
246119,2023-07-15 06:00:00+00:00,0.0,2023-07-15 05:56,66.0,65.0,,1015.2,140.0,5.75,29.99,96.58,5.0,66.0,,,M,,,GNR,1052434,2023-07-15 06:00:00+00:00,793.0,2.33,,
246120,2023-07-15 07:00:00+00:00,0.0,2023-07-15 06:56,65.0,65.0,,1015.1,140.0,6.9,29.99,100.0,6.0,65.0,,,M,,,GNR,1052438,2023-07-15 07:00:00+00:00,783.0,2.32,,
246121,2023-07-15 08:00:00+00:00,0.0,2023-07-15 07:56,65.0,65.0,,1014.9,,3.45,29.98,100.0,3.0,65.0,,,M,,,GNR,1052442,2023-07-15 08:00:00+00:00,783.0,2.32,,
246122,2023-07-15 09:00:00+00:00,0.0,2023-07-15 08:56,65.0,65.0,,1014.7,,4.6,29.98,100.0,4.0,65.0,,,M,,,GNR,1052446,2023-07-15 09:00:00+00:00,773.0,2.31,,
246123,2023-07-15 10:00:00+00:00,0.0,2023-07-15 09:56,66.0,65.0,,1014.7,110.0,3.45,29.98,96.58,3.0,66.0,,,M,,,GNR,1052450,2023-07-15 10:00:00+00:00,773.0,2.31,,
246124,2023-07-15 11:00:00+00:00,0.0,2023-07-15 10:56,66.0,65.0,,1015.0,140.0,5.75,29.99,96.58,5.0,66.0,,,M,,,GNR,1052454,2023-07-15 11:00:00+00:00,763.0,2.3,,
246125,2023-07-15 12:00:00+00:00,0.0,2023-07-15 11:56,66.0,66.0,,1015.8,150.0,5.75,30.01,100.0,5.0,66.0,,,M,,,GNR,1052458,2023-07-15 12:00:00+00:00,763.0,2.3,,
246126,2023-07-15 13:00:00+00:00,0.25,2023-07-15 12:56,67.0,67.0,,1016.0,,,30.01,100.0,,67.0,,,M,,,GNR,1052462,2023-07-15 13:00:00+00:00,753.0,2.29,,
246127,2023-07-15 14:00:00+00:00,0.0,2023-07-15 13:56,68.0,67.0,,1015.9,,4.6,30.01,96.61,4.0,68.0,,,M,,,GNR,1052466,2023-07-15 14:00:00+00:00,753.0,2.29,,
246128,2023-07-15 15:00:00+00:00,0.25,2023-07-15 14:56,69.0,68.0,,1016.1,140.0,6.9,30.02,96.62,6.0,69.0,,,M,,,GNR,1052470,2023-07-15 15:00:00+00:00,753.0,2.29,,
246129,2023-07-15 16:00:00+00:00,0.0,2023-07-15 15:56,68.0,67.0,,1016.3,140.0,6.9,30.02,96.61,6.0,68.0,,,M,,,GNR,1052474,2023-07-15 16:00:00+00:00,763.0,2.3,,
246130,2023-07-15 17:00:00+00:00,0.0,2023-07-15 16:56,68.0,67.0,,1016.3,,6.9,30.02,96.61,6.0,68.0,,,M,,,GNR,1052478,2023-07-15 17:00:00+00:00,5530.0,5.05,,
246131,2023-07-15 18:00:00+00:00,0.0,2023-07-15 17:56,69.0,68.0,,1015.8,140.0,8.05,30.01,96.62,7.0,69.0,,,M,,,GNR,1052482,2023-07-15 18:00:00+00:00,5530.0,5.05,,
246132,2023-07-15 19:00:00+00:00,0.0,2023-07-15 18:56,72.0,68.0,,1015.2,140.0,9.2,29.99,87.24,8.0,72.0,,,M,,,GNR,1052486,2023-07-15 19:00:00+00:00,4360.0,4.52,,
246133,2023-07-15 20:00:00+00:00,0.0,2023-07-15 19:56,75.0,69.0,,1014.6,140.0,8.05,29.97,81.62,7.0,75.0,,15.0,M,,,GNR,1052490,2023-07-15 20:00:00+00:00,3030.0,3.87,,
246134,2023-07-15 21:00:00+00:00,0.0,2023-07-15 20:56,74.0,69.0,,1014.6,140.0,9.2,29.98,84.4,8.0,74.0,,,M,,,GNR,1052494,2023-07-15 21:00:00+00:00,3870.0,4.29,,
246135,2023-07-15 22:00:00+00:00,0.0,2023-07-15 21:56,73.0,69.0,,1014.6,130.0,9.2,29.97,87.29,8.0,73.0,,,M,,,GNR,1052498,2023-07-15 22:00:00+00:00,5210.0,4.91,,
246136,2023-07-15 23:00:00+00:00,0.0,2023-07-15 22:56,73.0,69.0,,1014.5,140.0,6.9,29.97,87.29,6.0,73.0,,,M,,,GNR,1052502,2023-07-15 23:00:00+00:00,5230.0,4.92,,
246137,2023-07-16 00:00:00+00:00,0.0,2023-07-15 23:56,72.0,70.0,,1014.4,140.0,6.9,29.97,93.43,6.0,72.0,,,M,,,GNR,1052506,2023-07-16 00:00:00+00:00,7870.0,6.01,,
246138,2023-07-16 01:00:00+00:00,0.0,2023-07-16 00:56,71.0,70.0,,1015.0,130.0,8.05,29.99,96.65,7.0,71.0,,,M,,,GNR,1052510,2023-07-16 01:00:00+00:00,9140.0,6.51,,
246139,2023-07-16 02:00:00+00:00,0.0,2023-07-16 01:56,71.0,70.0,,1015.5,140.0,5.75,30.0,96.65,5.0,71.0,,,M,,,GNR,1052514,2023-07-16 02:00:00+00:00,9190.0,6.53,,
246140,2023-07-16 03:00:00+00:00,0.0,2023-07-16 02:56,70.0,69.0,,1015.7,150.0,6.9,30.01,96.64,6.0,70.0,,,M,,,GNR,1052518,2023-07-16 03:00:00+00:00,9160.0,6.52,,
246141,2023-07-16 04:00:00+00:00,0.0,2023-07-16 03:56,70.0,68.0,,1015.6,130.0,4.6,30.0,93.37,4.0,70.0,,,M,,,GNR,1052522,2023-07-16 04:00:00+00:00,4170.0,4.43,,
246142,2023-07-16 05:00:00+00:00,0.0,2023-07-16 04:56,69.0,68.0,,1015.2,130.0,4.6,29.99,96.62,4.0,69.0,,,M,,,GNR,1052526,2023-07-16 05:00:00+00:00,1710.0,3.08,,
246143,2023-07-16 06:00:00+00:00,0.0,2023-07-16 05:56,69.0,68.0,,1014.9,,5.75,29.98,96.62,5.0,69.0,,,M,,,GNR,1052530,2023-07-16 06:00:00+00:00,1030.0,2.55,,
246144,2023-07-16 07:00:00+00:00,0.0,2023-07-16 06:56,69.0,68.0,,1014.7,140.0,4.6,29.98,96.62,4.0,69.0,,,M,,,GNR,1052534,2023-07-16 07:00:00+00:00,813.0,2.35,,
246145,2023-07-16 08:00:00+00:00,0.0,2023-07-16 07:56,68.0,68.0,,1014.4,150.0,4.6,29.97,100.0,4.0,68.0,,,M,,,GNR,1052538,2023-07-16 08:00:00+00:00,773.0,2.31,,
246146,2023-07-16 09:00:00+00:00,0.0,2023-07-16 08:56,68.0,68.0,,1014.0,120.0,8.05,29.96,100.0,7.0,68.0,,,M,,,GNR,1052542,2023-07-16 09:00:00+00:00,763.0,2.3,,
246147,2023-07-16 10:00:00+00:00,0.0,2023-07-16 09:56,68.0,68.0,,1014.2,,4.6,29.97,100.0,4.0,68.0,,,M,,,GNR,1052546,2023-07-16 10:00:00+00:00,753.0,2.29,,
246148,2023-07-16 11:00:00+00:00,0.0,2023-07-16 10:56,68.0,68.0,,1013.8,130.0,8.05,29.95,100.0,7.0,68.0,,,M,,,GNR,1052550,2023-07-16 11:00:00+00:00,753.0,2.29,,
246149,2023-07-16 12:00:00+00:00,0.0,2023-07-16 11:56,68.0,68.0,,1013.4,140.0,9.2,29.94,100.0,8.0,68.0,,,M,,,GNR,1052554,2023-07-16 12:00:00+00:00,734.0,2.27,,
246150,2023-07-16 13:00:00+00:00,0.0,2023-07-16 12:56,68.0,68.0,,1013.5,150.0,9.2,29.94,100.0,8.0,68.0,,,M,,,GNR,1052558,2023-07-16 13:00:00+00:00,724.0,2.26,,
246151,2023-07-16 14:00:00+00:00,0.76,2023-07-16 13:56,68.0,68.0,,1013.1,140.0,6.9,29.93,100.0,6.0,68.0,,,M,,,GNR,1052562,2023-07-16 14:00:00+00:00,724.0,2.26,,
246152,2023-07-16 15:00:00+00:00,0.76,2023-07-16 14:56,69.0,68.0,,1013.0,110.0,9.2,29.93,96.62,8.0,69.0,,,M,,,GNR,1052566,2023-07-16 15:00:00+00:00,734.0,2.27,,
246153,2023-07-16 16:00:00+00:00,14.22,2023-07-16 15:56,68.0,68.0,,1013.1,150.0,6.9,29.93,100.0,6.0,68.0,,17.0,M,,,GNR,1052570,2023-07-16 16:00:00+00:00,753.0,2.29,2023-07-16 16:00:00+00:00,gs://gcp-public-data-sentinel-2/tiles/19/T/DL/S2B_MSIL1C_20230716T153819_N0509_R011_T19TDL_20230716T174048.SAFE
246154,2023-07-16 17:00:00+00:00,4.57,2023-07-16 16:56,69.0,69.0,,1012.8,,,29.92,100.0,,69.0,,,M,,,GNR,1052574,2023-07-16 17:00:00+00:00,5530.0,5.05,,
246155,2023-07-16 18:00:00+00:00,0.25,2023-07-16 17:56,70.0,70.0,,1012.1,,5.75,29.9,100.0,5.0,70.0,,,M,,,GNR,1052578,2023-07-16 18:00:00+00:00,5550.0,5.06,,
246156,2023-07-16 19:00:00+00:00,1.52,2023-07-16 18:56,71.0,70.0,,1011.1,160.0,5.75,29.87,96.65,5.0,71.0,,,M,,,GNR,1052582,2023-07-16 19:00:00+00:00,4400.0,4.54,,
246157,2023-07-16 20:00:00+00:00,2.03,2023-07-16 19:56,70.0,69.0,,1010.3,,,29.85,96.64,,70.0,,,M,,,GNR,1052586,2023-07-16 20:00:00+00:00,3090.0,3.9,,
246158,2023-07-16 21:00:00+00:00,0.76,2023-07-16 20:56,69.0,68.0,,1009.4,150.0,9.2,29.82,96.62,8.0,69.0,,23.0,M,26.0,,GNR,1052590,2023-07-16 21:00:00+00:00,3600.0,4.16,,
246159,2023-07-16 22:00:00+00:00,1.78,2023-07-16 21:56,68.0,68.0,,1009.2,140.0,11.5,29.81,100.0,10.0,68.0,,20.0,M,26.0,,GNR,1052594,2023-07-16 22:00:00+00:00,5350.0,4.97,,
246160,2023-07-16 23:00:00+00:00,10.16,2023-07-16 22:56,69.0,69.0,,1008.9,,6.9,29.81,100.0,6.0,69.0,,20.0,M,,,GNR,1052598,2023-07-16 23:00:00+00:00,5420.0,5.0,,
246161,2023-07-17 00:00:00+00:00,1.78,2023-07-16 23:56,69.0,69.0,,1009.4,,6.9,29.82,100.0,6.0,69.0,,,M,,,GNR,1052602,2023-07-17 00:00:00+00:00,5480.0,5.03,,
246162,2023-07-17 01:00:00+00:00,0.25,2023-07-17 00:56,70.0,70.0,,1009.4,,,29.82,100.0,,70.0,,,M,,,GNR,1052606,2023-07-17 01:00:00+00:00,5510.0,5.04,,
246163,2023-07-17 02:00:00+00:00,0.0,2023-07-17 01:56,71.0,70.0,,1009.6,,5.75,29.83,96.65,5.0,71.0,,,M,,,GNR,1052610,2023-07-17 02:00:00+00:00,5530.0,5.05,,
246164,2023-07-17 03:00:00+00:00,0.0,2023-07-17 02:56,70.0,70.0,,1009.6,,,29.83,100.0,,70.0,,,M,,,GNR,1052614,2023-07-17 03:00:00+00:00,4190.0,4.44,,
246165,2023-07-17 04:00:00+00:00,0.0,2023-07-17 03:56,70.0,69.0,,1009.3,,6.9,29.82,96.64,6.0,70.0,,,M,,,GNR,1052618,2023-07-17 04:00:00+00:00,2320.0,3.47,,
246166,2023-07-17 05:00:00+00:00,0.0,2023-07-17 04:56,70.0,69.0,,1009.2,180.0,5.75,29.82,96.64,5.0,70.0,,,M,,,GNR,1052622,2023-07-17 05:00:00+00:00,2200.0,3.4,,
246167,2023-07-17 06:00:00+00:00,1.27,2023-07-17 05:56,69.0,68.0,,1008.9,,3.45,29.81,96.62,3.0,69.0,,,M,,,GNR,1052626,2023-07-17 06:00:00+00:00,2240.0,3.42,,
246168,2023-07-17 07:00:00+00:00,0.51,2023-07-17 06:56,69.0,68.0,,1008.6,160.0,4.6,29.8,96.62,4.0,69.0,,,M,,,GNR,1052630,2023-07-17 07:00:00+00:00,1710.0,3.08,,
246169,2023-07-17 08:00:00+00:00,0.0,2023-07-17 07:56,69.0,68.0,,1008.6,0.0,0.0,29.8,96.62,0.0,69.0,,,M,,,GNR,1052634,2023-07-17 08:00:00+00:00,1200.0,2.7,,
246170,2023-07-17 09:00:00+00:00,0.0,2023-07-17 08:56,69.0,69.0,,1009.1,0.0,0.0,29.81,100.0,0.0,69.0,,,M,,,GNR,1052638,2023-07-17 09:00:00+00:00,1080.0,2.59,,
246171,2023-07-17 10:00:00+00:00,0.51,2023-07-17 09:56,69.0,69.0,,1009.6,200.0,3.45,29.83,100.0,3.0,69.0,,,M,,,GNR,1052642,2023-07-17 10:00:00+00:00,1050.0,2.57,,
246172,2023-07-17 11:00:00+00:00,0.25,2023-07-17 10:56,69.0,69.0,,1010.4,0.0,0.0,29.85,100.0,0.0,69.0,,,M,,,GNR,1052646,2023-07-17 11:00:00+00:00,1050.0,2.57,,
246173,2023-07-17 12:00:00+00:00,0.0,2023-07-17 11:56,71.0,70.0,,1010.8,,3.45,29.86,96.65,3.0,71.0,,,M,,,GNR,1052650,2023-07-17 12:00:00+00:00,1050.0,2.57,,
246174,2023-07-17 13:00:00+00:00,0.0,2023-07-17 12:56,75.0,70.0,,1011.1,,3.45,29.88,84.46,3.0,75.0,,,M,,,GNR,1052654,2023-07-17 13:00:00+00:00,1050.0,2.57,,
246175,2023-07-17 14:00:00+00:00,0.0,2023-07-17 13:56,75.0,68.0,,1010.9,,3.45,29.87,78.86,3.0,75.0,,,M,,,GNR,1052658,2023-07-17 14:00:00+00:00,1050.0,2.57,,
246176,2023-07-17 15:00:00+00:00,0.0,2023-07-17 14:56,77.0,68.0,,1010.8,0.0,0.0,29.87,73.78,0.0,77.0,,,M,,,GNR,1052662,2023-07-17 15:00:00+00:00,1050.0,2.57,,
246177,2023-07-17 16:00:00+00:00,0.0,2023-07-17 15:56,79.0,69.0,,1011.0,200.0,5.75,29.88,71.48,5.0,79.0,,,M,,,GNR,1052666,2023-07-17 16:00:00+00:00,1110.0,2.62,,
246178,2023-07-17 17:00:00+00:00,0.0,2023-07-17 16:56,80.0,68.0,,1011.3,210.0,8.05,29.88,66.84,7.0,82.58,,,M,,,GNR,1052670,2023-07-17 17:00:00+00:00,5760.0,5.15,,
246179,2023-07-17 18:00:00+00:00,0.0,2023-07-17 17:56,82.0,69.0,,1011.1,180.0,5.75,29.88,64.8,5.0,85.35,,,M,,,GNR,1052674,2023-07-17 18:00:00+00:00,5810.0,5.17,,
246180,2023-07-17 19:00:00+00:00,0.0,2023-07-17 18:56,81.0,68.0,,1011.1,,5.75,29.88,64.69,5.0,83.76,,,M,,,GNR,1052678,2023-07-17 19:00:00+00:00,4340.0,4.51,,
246181,2023-07-17 20:00:00+00:00,0.0,2023-07-17 19:56,81.0,68.0,,1010.7,,3.45,29.87,64.69,3.0,83.76,,,M,,,GNR,1052682,2023-07-17 20:00:00+00:00,2010.0,3.28,,
246182,2023-07-17 21:00:00+00:00,0.0,2023-07-17 20:56,82.0,67.0,,1010.8,,5.75,29.87,60.49,5.0,84.52,,,M,,,GNR,1052686,2023-07-17 21:00:00+00:00,1300.0,2.78,,
246183,2023-07-17 22:00:00+00:00,0.0,2023-07-17 21:56,81.0,68.0,,1011.1,210.0,5.75,29.88,64.69,5.0,83.76,,,M,,,GNR,1052690,2023-07-17 22:00:00+00:00,1110.0,2.62,,
246184,2023-07-17 23:00:00+00:00,0.0,2023-07-17 22:56,79.0,69.0,,1011.8,,3.45,29.9,71.48,3.0,79.0,,,M,,,GNR,1052694,2023-07-17 23:00:00+00:00,4040.0,4.37,,
246185,2023-07-18 00:00:00+00:00,0.0,2023-07-17 23:56,75.0,69.0,,1012.2,0.0,0.0,29.91,81.62,0.0,75.0,,,M,,,GNR,1052698,2023-07-18 00:00:00+00:00,8550.0,6.28,,
246186,2023-07-18 01:00:00+00:00,0.0,2023-07-18 00:56,73.0,68.0,,1012.7,0.0,0.0,29.92,84.34,0.0,73.0,,,M,,,GNR,1052702,2023-07-18 01:00:00+00:00,8500.0,6.26,,
246187,2023-07-18 02:00:00+00:00,0.0,2023-07-18 01:56,72.0,68.0,,1013.3,0.0,0.0,29.94,87.24,0.0,72.0,,,M,,,GNR,1052706,2023-07-18 02:00:00+00:00,4510.0,4.59,,
246188,2023-07-18 03:00:00+00:00,0.0,2023-07-18 02:56,69.0,67.0,,1013.8,0.0,0.0,29.96,93.35,0.0,69.0,,,M,,,GNR,1052710,2023-07-18 03:00:00+00:00,1960.0,3.25,,
246189,2023-07-18 04:00:00+00:00,0.0,2023-07-18 03:56,67.0,64.0,,1014.1,0.0,0.0,29.96,90.09,0.0,67.0,,,M,,,GNR,1052714,2023-07-18 04:00:00+00:00,1280.0,2.76,,
246190,2023-07-18 05:00:00+00:00,0.0,2023-07-18 04:56,68.0,65.0,,1014.8,0.0,0.0,29.98,90.13,0.0,68.0,,,M,,,GNR,1052718,2023-07-18 05:00:00+00:00,1090.0,2.6,,
246191,2023-07-18 06:00:00+00:00,0.0,2023-07-18 05:56,65.0,61.0,,1014.8,0.0,0.0,29.99,86.88,0.0,65.0,,,M,,,GNR,1052722,2023-07-18 06:00:00+00:00,1060.0,2.58,,
246192,2023-07-18 07:00:00+00:00,0.0,2023-07-18 06:56,65.0,60.0,,1014.7,0.0,0.0,29.98,83.84,0.0,65.0,,,M,,,GNR,1052726,2023-07-18 07:00:00+00:00,1060.0,2.58,,
246193,2023-07-18 08:00:00+00:00,0.0,2023-07-18 07:56,65.0,62.0,,1014.6,40.0,3.45,29.98,90.01,3.0,65.0,,,M,,,GNR,1052730,2023-07-18 08:00:00+00:00,1050.0,2.57,,
246194,2023-07-18 09:00:00+00:00,0.0,2023-07-18 08:56,65.0,62.0,,1014.8,0.0,0.0,29.99,90.01,0.0,65.0,,,M,,,GNR,1052734,2023-07-18 09:00:00+00:00,1050.0,2.57,,
246195,2023-07-18 10:00:00+00:00,0.0,2023-07-18 09:56,67.0,62.0,,1015.0,130.0,6.9,29.99,83.97,6.0,67.0,,,M,,,GNR,1052738,2023-07-18 10:00:00+00:00,1040.0,2.56,,
246196,2023-07-18 11:00:00+00:00,0.0,2023-07-18 10:56,68.0,65.0,,1015.2,140.0,5.75,30.0,90.13,5.0,68.0,,,M,,,GNR,1052742,2023-07-18 11:00:00+00:00,1030.0,2.55,,
246197,2023-07-18 12:00:00+00:00,0.0,2023-07-18 11:56,69.0,65.0,,1015.1,120.0,6.9,29.99,87.08,6.0,69.0,,,M,,,GNR,1052746,2023-07-18 12:00:00+00:00,1030.0,2.55,,
246198,2023-07-18 13:00:00+00:00,0.0,2023-07-18 12:56,73.0,66.0,,1015.1,140.0,6.9,29.99,78.7,6.0,73.0,,,M,,,GNR,1052750,2023-07-18 13:00:00+00:00,1020.0,2.54,,
246199,2023-07-18 14:00:00+00:00,0.0,2023-07-18 13:56,76.0,66.0,,1014.7,140.0,8.05,29.98,71.18,7.0,76.0,,,M,,,GNR,1052754,2023-07-18 14:00:00+00:00,1020.0,2.54,,
246200,2023-07-18 15:00:00+00:00,0.0,2023-07-18 14:56,77.0,67.0,,1015.0,150.0,8.05,29.99,71.28,7.0,77.0,,15.0,M,,,GNR,1052758,2023-07-18 15:00:00+00:00,1020.0,2.54,,
246201,2023-07-18 16:00:00+00:00,0.0,2023-07-18 15:56,78.0,68.0,,1014.7,140.0,10.35,29.98,71.38,9.0,78.0,,17.0,M,,,GNR,1052762,2023-07-18 16:00:00+00:00,1030.0,2.55,2023-07-18 16:00:00+00:00,gs://gcp-public-data-sentinel-2/tiles/19/T/DL/S2A_MSIL1C_20230718T153601_N0509_R111_T19TDL_20230718T204752.SAFE
246202,2023-07-18 17:00:00+00:00,0.0,2023-07-18 16:56,79.0,69.0,,1013.9,,5.75,29.96,71.48,5.0,79.0,,,M,,,GNR,1052766,2023-07-18 17:00:00+00:00,5720.0,5.13,,
246203,2023-07-18 18:00:00+00:00,0.0,2023-07-18 17:56,79.0,69.0,,1013.9,,3.45,29.96,71.48,3.0,79.0,,,M,,,GNR,1052770,2023-07-18 18:00:00+00:00,5790.0,5.16,,
246204,2023-07-18 19:00:00+00:00,0.0,2023-07-18 18:56,78.0,69.0,,1013.4,,3.45,29.94,73.87,3.0,78.0,,,M,,,GNR,1052774,2023-07-18 19:00:00+00:00,4400.0,4.54,,
246205,2023-07-18 20:00:00+00:00,0.0,2023-07-18 19:56,77.0,68.0,,1013.3,200.0,6.9,29.94,73.78,6.0,77.0,,,M,,,GNR,1052778,2023-07-18 20:00:00+00:00,2090.0,3.33,,
246206,2023-07-18 21:00:00+00:00,0.0,2023-07-18 20:56,73.0,65.0,,1013.3,0.0,0.0,29.94,76.01,0.0,73.0,,,M,,,GNR,1052782,2023-07-18 21:00:00+00:00,1610.0,3.01,,
246207,2023-07-18 22:00:00+00:00,5.33,2023-07-18 21:56,66.0,65.0,,1013.9,,,29.95,96.58,,66.0,,,M,,,GNR,1052786,2023-07-18 22:00:00+00:00,6780.0,5.57,,
246208,2023-07-18 23:00:00+00:00,6.6,2023-07-18 22:56,69.0,66.0,,1013.2,70.0,4.6,29.93,90.17,4.0,69.0,,,M,,,GNR,1052790,2023-07-18 23:00:00+00:00,10400.0,7.01,,
246209,2023-07-19 00:00:00+00:00,0.0,2023-07-18 23:56,68.0,66.0,,1013.2,140.0,6.9,29.93,93.32,6.0,68.0,,,M,,,GNR,1052794,2023-07-19 00:00:00+00:00,10400.0,7.01,,
246210,2023-07-19 01:00:00+00:00,0.0,2023-07-19 00:56,68.0,66.0,,1013.1,130.0,3.45,29.93,93.32,3.0,68.0,,,M,,,GNR,1052798,2023-07-19 01:00:00+00:00,5760.0,5.15,,
246211,2023-07-19 02:00:00+00:00,0.0,2023-07-19 01:56,68.0,66.0,,1013.3,350.0,4.6,29.94,93.32,4.0,68.0,,,M,,,GNR,1052802,2023-07-19 02:00:00+00:00,2760.0,3.72,,
246212,2023-07-19 03:00:00+00:00,0.51,2023-07-19 02:56,68.0,67.0,,1013.0,0.0,0.0,29.93,96.61,0.0,68.0,,,M,,,GNR,1052806,2023-07-19 03:00:00+00:00,2320.0,3.47,,
246213,2023-07-19 04:00:00+00:00,4.32,2023-07-19 03:56,63.0,62.0,,1013.6,320.0,4.6,29.95,96.54,4.0,63.0,,,M,,,GNR,1052810,2023-07-19 04:00:00+00:00,2460.0,3.55,,
246214,2023-07-19 05:00:00+00:00,0.0,2023-07-19 04:56,64.0,62.0,,1013.0,50.0,4.6,29.93,93.21,4.0,64.0,,,M,,,GNR,1052814,2023-07-19 05:00:00+00:00,2580.0,3.62,,
246215,2023-07-19 06:00:00+00:00,0.0,2023-07-19 05:56,63.0,62.0,,1012.6,0.0,0.0,29.92,96.54,0.0,63.0,,,M,,,GNR,1052818,2023-07-19 06:00:00+00:00,2720.0,3.7,,
246216,2023-07-19 07:00:00+00:00,0.0,2023-07-19 06:56,63.0,62.0,,1013.3,0.0,0.0,29.94,96.54,0.0,63.0,,,M,,,GNR,1052822,2023-07-19 07:00:00+00:00,2770.0,3.73,,
246217,2023-07-19 08:00:00+00:00,0.0,2023-07-19 07:56,62.0,61.0,,1013.4,300.0,3.45,29.94,96.52,3.0,62.0,,,M,,,GNR,1052826,2023-07-19 08:00:00+00:00,2760.0,3.72,,
246218,2023-07-19 09:00:00+00:00,0.0,2023-07-19 08:56,63.0,62.0,,1013.4,0.0,0.0,29.94,96.54,0.0,63.0,,,M,,,GNR,1052830,2023-07-19 09:00:00+00:00,2700.0,3.69,,
246219,2023-07-19 10:00:00+00:00,0.0,2023-07-19 09:56,62.0,60.0,,1013.4,0.0,0.0,29.93,93.15,0.0,62.0,,,M,,,GNR,1052834,2023-07-19 10:00:00+00:00,2650.0,3.66,,
246220,2023-07-19 11:00:00+00:00,0.0,2023-07-19 10:56,63.0,62.0,,1013.9,320.0,3.45,29.95,96.54,3.0,63.0,,,M,,,GNR,1052838,2023-07-19 11:00:00+00:00,2560.0,3.61,,
246221,2023-07-19 12:00:00+00:00,0.0,2023-07-19 11:56,67.0,64.0,,1013.9,0.0,0.0,29.95,90.09,0.0,67.0,,,M,,,GNR,1052842,2023-07-19 12:00:00+00:00,2510.0,3.58,,
246222,2023-07-19 13:00:00+00:00,0.0,2023-07-19 12:56,69.0,62.0,,1014.2,330.0,6.9,29.96,78.38,6.0,69.0,,,M,,,GNR,1052846,2023-07-19 13:00:00+00:00,2460.0,3.55,,
246223,2023-07-19 14:00:00+00:00,0.0,2023-07-19 13:56,71.0,64.0,,1014.1,330.0,8.05,29.96,78.54,7.0,71.0,,,M,,,GNR,1052850,2023-07-19 14:00:00+00:00,2420.0,3.53,,
246224,2023-07-19 15:00:00+00:00,0.0,2023-07-19 14:56,74.0,65.0,,1014.1,,5.75,29.96,73.5,5.0,74.0,,,M,,,GNR,1052854,2023-07-19 15:00:00+00:00,2370.0,3.5,,
246225,2023-07-19 16:00:00+00:00,0.0,2023-07-19 15:56,74.0,64.0,,1014.1,330.0,8.05,29.96,70.97,7.0,74.0,,,M,,,GNR,1052858,2023-07-19 16:00:00+00:00,4400.0,4.54,,
246226,2023-07-19 17:00:00+00:00,0.0,2023-07-19 16:56,74.0,63.0,,1013.8,340.0,6.9,29.95,68.53,6.0,74.0,,,M,,,GNR,1052862,2023-07-19 17:00:00+00:00,7060.0,5.68,,
246227,2023-07-19 18:00:00+00:00,0.0,2023-07-19 17:56,77.0,62.0,,1013.5,,3.45,29.94,59.85,3.0,77.0,,,M,,,GNR,1052866,2023-07-19 18:00:00+00:00,7040.0,5.67,,
246228,2023-07-19 19:00:00+00:00,0.0,2023-07-19 18:56,,,,,0.0,0.0,29.94,,0.0,,,,M,,,GNR,1052870,2023-07-19 19:00:00+00:00,5320.0,4.96,,
246229,2023-07-19 20:00:00+00:00,0.0,2023-07-19 19:56,78.0,58.0,,1013.4,300.0,9.2,29.94,50.22,8.0,78.0,,,M,,,GNR,1052874,2023-07-19 20:00:00+00:00,2860.0,3.78,,
246230,2023-07-19 21:00:00+00:00,0.0,2023-07-19 20:56,79.0,59.0,,1013.7,310.0,9.2,29.95,50.36,8.0,79.0,,,M,,,GNR,1052878,2023-07-19 21:00:00+00:00,2240.0,3.42,,
246231,2023-07-19 22:00:00+00:00,0.0,2023-07-19 21:56,76.0,58.0,,1014.3,300.0,8.05,29.97,53.66,7.0,76.0,,,M,,,GNR,1052882,2023-07-19 22:00:00+00:00,6020.0,5.26,,
246232,2023-07-19 23:00:00+00:00,0.0,2023-07-19 22:56,74.0,59.0,,1014.7,310.0,8.05,29.98,59.46,7.0,74.0,,,M,,,GNR,1052886,2023-07-19 23:00:00+00:00,9340.0,6.59,,
246233,2023-07-20 00:00:00+00:00,0.0,2023-07-19 23:56,70.0,58.0,,1015.2,310.0,5.75,29.99,65.69,5.0,70.0,,,M,,,GNR,1052890,2023-07-20 00:00:00+00:00,9310.0,6.58,,
246234,2023-07-20 01:00:00+00:00,0.0,2023-07-20 00:56,68.0,57.0,,1015.8,310.0,4.6,30.01,67.86,4.0,68.0,,,M,,,GNR,1052894,2023-07-20 01:00:00+00:00,9290.0,6.57,,
246235,2023-07-20 02:00:00+00:00,0.0,2023-07-20 01:56,65.0,57.0,,1015.9,330.0,6.9,30.01,75.3,6.0,65.0,,,M,,,GNR,1052898,2023-07-20 02:00:00+00:00,10100.0,6.88,,
246236,2023-07-20 03:00:00+00:00,0.0,2023-07-20 02:56,65.0,56.0,,1016.1,330.0,5.75,30.02,72.62,5.0,65.0,,,M,,,GNR,1052902,2023-07-20 03:00:00+00:00,10200.0,6.92,,
246237,2023-07-20 04:00:00+00:00,0.0,2023-07-20 03:56,63.0,56.0,,1016.1,330.0,10.35,30.02,77.89,9.0,63.0,,,M,,,GNR,1052906,2023-07-20 04:00:00+00:00,6840.0,5.59,,
246238,2023-07-20 05:00:00+00:00,0.0,2023-07-20 04:56,63.0,56.0,,1016.2,340.0,9.2,30.02,77.89,8.0,63.0,,,M,,,GNR,1052910,2023-07-20 05:00:00+00:00,6290.0,5.37,,
246239,2023-07-20 06:00:00+00:00,0.0,2023-07-20 05:56,63.0,56.0,,1016.5,330.0,6.9,30.03,77.89,6.0,63.0,,,M,,,GNR,1052914,2023-07-20 06:00:00+00:00,6240.0,5.35,,
246240,2023-07-20 07:00:00+00:00,0.0,2023-07-20 06:56,63.0,56.0,,,360.0,5.75,30.01,77.89,5.0,63.0,,,M,,,GNR,1052918,2023-07-20 07:00:00+00:00,6240.0,5.35,,
246241,2023-07-20 08:00:00+00:00,0.0,2023-07-20 07:56,62.0,57.0,,1015.6,360.0,4.6,30.0,83.65,4.0,62.0,,,M,,,GNR,1052922,2023-07-20 08:00:00+00:00,6220.0,5.34,,
246242,2023-07-20 09:00:00+00:00,0.0,2023-07-20 08:56,61.0,57.0,,1016.4,310.0,4.6,30.03,86.67,4.0,61.0,,,M,,,GNR,1052926,2023-07-20 09:00:00+00:00,4490.0,4.58,,
246243,2023-07-20 10:00:00+00:00,0.0,2023-07-20 09:56,62.0,58.0,,1016.1,350.0,6.9,30.02,86.72,6.0,62.0,,,M,,,GNR,1052930,2023-07-20 10:00:00+00:00,2420.0,3.53,,
246244,2023-07-20 11:00:00+00:00,0.0,2023-07-20 10:56,64.0,58.0,,1016.7,310.0,3.45,30.04,80.83,3.0,64.0,,,M,,,GNR,1052934,2023-07-20 11:00:00+00:00,1860.0,3.18,,
246245,2023-07-20 12:00:00+00:00,0.0,2023-07-20 11:56,66.0,59.0,,1017.1,320.0,5.75,30.04,78.14,5.0,66.0,,,M,,,GNR,1052938,2023-07-20 12:00:00+00:00,1750.0,3.11,,
246246,2023-07-20 13:00:00+00:00,0.0,2023-07-20 12:56,69.0,61.0,,1017.0,0.0,0.0,30.04,75.66,0.0,69.0,,,M,,,GNR,1052942,2023-07-20 13:00:00+00:00,1740.0,3.1,,
246247,2023-07-20 14:00:00+00:00,0.0,2023-07-20 13:56,73.0,62.0,,1016.5,0.0,0.0,30.03,68.42,0.0,73.0,,,M,,,GNR,1052946,2023-07-20 14:00:00+00:00,1710.0,3.08,,
246248,2023-07-20 15:00:00+00:00,0.0,2023-07-20 14:56,74.0,56.0,,1016.5,,4.6,30.03,53.37,4.0,74.0,,,M,,,GNR,1052950,2023-07-20 15:00:00+00:00,1690.0,3.07,,
246249,2023-07-20 16:00:00+00:00,0.0,2023-07-20 15:56,76.0,57.0,,1016.2,,5.75,30.02,51.76,5.0,76.0,,,M,,,GNR,1052954,2023-07-20 16:00:00+00:00,2220.0,3.41,,
246250,2023-07-20 17:00:00+00:00,0.0,2023-07-20 16:56,77.0,53.0,,1015.9,,4.6,30.01,43.29,4.0,77.0,,,M,,,GNR,1052958,2023-07-20 17:00:00+00:00,6610.0,5.5,,
246251,2023-07-20 18:00:00+00:00,0.0,2023-07-20 17:56,77.0,54.0,,1015.2,310.0,5.75,29.99,44.9,5.0,77.0,,,M,,,GNR,1052962,2023-07-20 18:00:00+00:00,6710.0,5.54,,
246252,2023-07-20 19:00:00+00:00,0.0,2023-07-20 18:56,78.0,54.0,,1014.7,0.0,0.0,29.98,43.44,0.0,78.0,,,M,,,GNR,1052966,2023-07-20 19:00:00+00:00,5530.0,5.05,,
246253,2023-07-20 20:00:00+00:00,0.0,2023-07-20 19:56,80.0,54.0,,1014.4,0.0,0.0,29.97,40.67,0.0,79.98,,,M,,,GNR,1052970,2023-07-20 20:00:00+00:00,4490.0,4.58,,
246254,2023-07-20 21:00:00+00:00,0.0,2023-07-20 20:56,76.0,57.0,,1014.2,,3.45,29.96,51.76,3.0,76.0,,,M,,,GNR,1052974,2023-07-20 21:00:00+00:00,5280.0,4.94,,
246255,2023-07-20 22:00:00+00:00,0.0,2023-07-20 21:56,74.0,60.0,,1014.1,0.0,0.0,29.96,61.62,0.0,74.0,,,M,,,GNR,1052978,2023-07-20 22:00:00+00:00,8190.0,6.14,,
246256,2023-07-20 23:00:00+00:00,0.0,2023-07-20 22:56,71.0,59.0,,1014.1,0.0,0.0,29.96,65.81,0.0,71.0,,,M,,,GNR,1052982,2023-07-20 23:00:00+00:00,8700.0,6.34,,
246257,2023-07-21 00:00:00+00:00,0.0,2023-07-20 23:56,70.0,60.0,,1014.0,0.0,0.0,29.95,70.56,0.0,70.0,,,M,,,GNR,1052986,2023-07-21 00:00:00+00:00,8730.0,6.35,,
246258,2023-07-21 01:00:00+00:00,0.0,2023-07-21 00:56,67.0,60.0,,1013.9,90.0,3.45,29.95,78.22,3.0,67.0,,,M,,,GNR,1052990,2023-07-21 01:00:00+00:00,8700.0,6.34,,
246259,2023-07-21 02:00:00+00:00,0.0,2023-07-21 01:56,66.0,58.0,,1013.6,100.0,5.75,29.95,75.39,5.0,66.0,,,M,,,GNR,1052994,2023-07-21 02:00:00+00:00,8680.0,6.33,,
246260,2023-07-21 03:00:00+00:00,0.0,2023-07-21 02:56,67.0,57.0,,1013.6,130.0,5.75,29.95,70.24,5.0,67.0,,,M,,,GNR,1052998,2023-07-21 03:00:00+00:00,8730.0,6.35,,
246261,2023-07-21 04:00:00+00:00,0.0,2023-07-21 03:56,66.0,58.0,,1013.4,130.0,4.6,29.94,75.39,4.0,66.0,,,M,,,GNR,1053002,2023-07-21 04:00:00+00:00,8700.0,6.34,,
246262,2023-07-21 05:00:00+00:00,0.0,2023-07-21 04:56,65.0,58.0,,1012.8,150.0,3.45,29.93,78.06,3.0,65.0,,,M,,,GNR,1053006,2023-07-21 05:00:00+00:00,8680.0,6.33,,
246263,2023-07-21 06:00:00+00:00,0.0,2023-07-21 05:56,64.0,58.0,,1012.5,0.0,0.0,29.91,80.83,0.0,64.0,,,M,,,GNR,1053010,2023-07-21 06:00:00+00:00,6460.0,5.44,,
246264,2023-07-21 07:00:00+00:00,0.0,2023-07-21 06:56,64.0,59.0,,1012.2,130.0,5.75,29.91,83.78,5.0,64.0,,,M,,,GNR,1053014,2023-07-21 07:00:00+00:00,5930.0,5.22,,
246265,2023-07-21 08:00:00+00:00,0.0,2023-07-21 07:56,63.0,59.0,,1011.8,120.0,5.75,29.89,86.77,5.0,63.0,,,M,,,GNR,1053018,2023-07-21 08:00:00+00:00,5910.0,5.21,,
246266,2023-07-21 09:00:00+00:00,0.0,2023-07-21 08:56,62.0,58.0,,1011.8,120.0,6.9,29.89,86.72,6.0,62.0,,,M,,,GNR,1053022,2023-07-21 09:00:00+00:00,4490.0,4.58,,
246267,2023-07-21 10:00:00+00:00,0.0,2023-07-21 09:56,62.0,59.0,,1011.5,130.0,5.75,29.88,89.89,5.0,62.0,,,M,,,GNR,1053026,2023-07-21 10:00:00+00:00,2680.0,3.68,,
246268,2023-07-21 11:00:00+00:00,0.0,2023-07-21 10:56,64.0,59.0,,1011.4,130.0,6.9,29.88,83.78,6.0,64.0,,,M,,,GNR,1053030,2023-07-21 11:00:00+00:00,2560.0,3.61,,
246269,2023-07-21 12:00:00+00:00,0.0,2023-07-21 11:56,67.0,59.0,,1011.5,140.0,8.05,29.88,75.48,7.0,67.0,,,M,,,GNR,1053034,2023-07-21 12:00:00+00:00,2540.0,3.6,,
246270,2023-07-21 13:00:00+00:00,0.0,2023-07-21 12:56,69.0,58.0,,1011.5,150.0,8.05,29.88,67.97,7.0,69.0,,,M,,,GNR,1053038,2023-07-21 13:00:00+00:00,2520.0,3.59,,
246271,2023-07-21 14:00:00+00:00,0.0,2023-07-21 13:56,71.0,59.0,,1010.8,,4.6,29.86,65.81,4.0,71.0,,,M,,,GNR,1053042,2023-07-21 14:00:00+00:00,2510.0,3.58,,
246272,2023-07-21 15:00:00+00:00,0.0,2023-07-21 14:56,73.0,60.0,,1010.5,140.0,8.05,29.85,63.73,7.0,73.0,,,M,,,GNR,1053046,2023-07-21 15:00:00+00:00,2490.0,3.57,,
246273,2023-07-21 16:00:00+00:00,0.0,2023-07-21 15:56,74.0,59.0,,1010.1,140.0,9.2,29.84,59.46,8.0,74.0,,,M,,,GNR,1053050,2023-07-21 16:00:00+00:00,3660.0,4.19,2023-07-21 16:00:00+00:00,gs://gcp-public-data-sentinel-2/tiles/19/T/DL/S2A_MSIL1C_20230721T153821_N0509_R011_T19TDL_20230721T205835.SAFE
246274,2023-07-21 17:00:00+00:00,0.0,2023-07-21 16:56,72.0,60.0,,1009.7,130.0,5.75,29.83,65.92,5.0,72.0,,,M,,,GNR,1053054,2023-07-21 17:00:00+00:00,5930.0,5.22,,
246275,2023-07-21 18:00:00+00:00,0.0,2023-07-21 17:56,72.0,60.0,,1009.3,,3.45,29.81,65.92,3.0,72.0,,,M,,,GNR,1053058,2023-07-21 18:00:00+00:00,5910.0,5.21,,
246276,2023-07-21 19:00:00+00:00,0.0,2023-07-21 18:56,69.0,62.0,,1009.6,190.0,4.6,29.82,78.38,4.0,69.0,,,M,,,GNR,1053062,2023-07-21 19:00:00+00:00,7500.0,5.86,,
246277,2023-07-21 20:00:00+00:00,0.0,2023-07-21 19:56,69.0,63.0,,1009.2,0.0,0.0,29.81,81.19,0.0,69.0,,,M,,,GNR,1053066,2023-07-21 20:00:00+00:00,8220.0,6.15,,
246278,2023-07-21 21:00:00+00:00,0.0,2023-07-21 20:56,68.0,63.0,,1008.8,0.0,0.0,29.8,84.03,0.0,68.0,,,M,,,GNR,1053070,2023-07-21 21:00:00+00:00,8220.0,6.15,,
246279,2023-07-21 22:00:00+00:00,0.0,2023-07-21 21:56,70.0,62.0,,1008.3,,4.6,29.78,75.75,4.0,70.0,,,M,,,GNR,1053074,2023-07-21 22:00:00+00:00,8190.0,6.14,,
246280,2023-07-21 23:00:00+00:00,0.0,2023-07-21 22:56,69.0,62.0,,1008.0,,3.45,29.78,78.38,3.0,69.0,,,M,,,GNR,1053078,2023-07-21 23:00:00+00:00,8190.0,6.14,,
246281,2023-07-22 00:00:00+00:00,0.0,2023-07-21 23:56,67.0,63.0,,1008.0,150.0,6.9,29.78,86.98,6.0,67.0,,,M,,,GNR,1053082,2023-07-22 00:00:00+00:00,8190.0,6.14,,
246282,2023-07-22 01:00:00+00:00,0.0,2023-07-22 00:56,66.0,63.0,,1008.2,150.0,5.75,29.78,90.05,5.0,66.0,,,M,,,GNR,1053086,2023-07-22 01:00:00+00:00,8270.0,6.17,,
246283,2023-07-22 02:00:00+00:00,0.0,2023-07-22 01:56,65.0,63.0,,1008.4,0.0,0.0,29.79,93.24,0.0,65.0,,,M,,,GNR,1053090,2023-07-22 02:00:00+00:00,8270.0,6.17,,
246284,2023-07-22 03:00:00+00:00,0.0,2023-07-22 02:56,65.0,62.0,,1008.1,130.0,3.45,29.78,90.01,3.0,65.0,,,M,,,GNR,1053094,2023-07-22 03:00:00+00:00,5950.0,5.23,,
246285,2023-07-22 04:00:00+00:00,0.0,2023-07-22 03:56,63.0,60.0,,1007.7,0.0,0.0,29.77,89.93,0.0,63.0,,,M,,,GNR,1053098,2023-07-22 04:00:00+00:00,5550.0,5.06,,
246286,2023-07-22 05:00:00+00:00,0.0,2023-07-22 04:56,63.0,61.0,,1007.1,140.0,3.45,29.75,93.18,3.0,63.0,,,M,,,GNR,1053102,2023-07-22 05:00:00+00:00,5550.0,5.06,,
246287,2023-07-22 06:00:00+00:00,0.0,2023-07-22 05:56,62.0,61.0,,1006.5,150.0,5.75,29.73,96.52,5.0,62.0,,,M,,,GNR,1053106,2023-07-22 06:00:00+00:00,5530.0,5.05,,
246288,2023-07-22 07:00:00+00:00,0.0,2023-07-22 06:56,62.0,60.0,,1006.7,140.0,8.05,29.74,93.15,7.0,62.0,,,M,,,GNR,1053110,2023-07-22 07:00:00+00:00,5530.0,5.05,,
246289,2023-07-22 08:00:00+00:00,0.0,2023-07-22 07:56,61.0,60.0,,1006.5,160.0,4.6,29.73,96.51,4.0,61.0,,,M,,,GNR,1053114,2023-07-22 08:00:00+00:00,5530.0,5.05,,
246290,2023-07-22 09:00:00+00:00,0.0,2023-07-22 08:56,61.0,60.0,,1007.2,150.0,4.6,29.75,96.51,4.0,61.0,,,M,,,GNR,1053118,2023-07-22 09:00:00+00:00,3850.0,4.28,,
246291,2023-07-22 10:00:00+00:00,0.0,2023-07-22 09:56,61.0,60.0,,1007.4,130.0,5.75,29.76,96.51,5.0,61.0,,,M,,,GNR,1053122,2023-07-22 10:00:00+00:00,1860.0,3.18,,
246292,2023-07-22 11:00:00+00:00,0.0,2023-07-22 10:56,61.0,59.0,,1007.5,140.0,5.75,29.76,93.12,5.0,61.0,,,M,,,GNR,1053126,2023-07-22 11:00:00+00:00,1240.0,2.73,,
246293,2023-07-22 12:00:00+00:00,0.25,2023-07-22 11:56,61.0,60.0,,1007.8,140.0,8.05,29.77,96.51,7.0,61.0,,,M,,,GNR,1053130,2023-07-22 12:00:00+00:00,1080.0,2.59,,
246294,2023-07-22 13:00:00+00:00,0.0,2023-07-22 12:56,62.0,62.0,,1007.8,150.0,5.75,29.77,100.0,5.0,62.0,,,M,,,GNR,1053134,2023-07-22 13:00:00+00:00,1060.0,2.58,,
246295,2023-07-22 14:00:00+00:00,0.0,2023-07-22 13:56,63.0,62.0,,1007.7,130.0,6.9,29.76,96.54,6.0,63.0,,,M,,,GNR,1053138,2023-07-22 14:00:00+00:00,1050.0,2.57,,
246296,2023-07-22 15:00:00+00:00,0.0,2023-07-22 14:56,65.0,62.0,,1007.8,,5.75,29.77,90.01,5.0,65.0,,,M,,,GNR,1053142,2023-07-22 15:00:00+00:00,1040.0,2.56,,
246297,2023-07-22 16:00:00+00:00,0.0,2023-07-22 15:56,71.0,63.0,,1007.1,,,29.75,75.84,,71.0,,,M,,,GNR,1053146,2023-07-22 16:00:00+00:00,1050.0,2.57,,
246298,2023-07-22 17:00:00+00:00,0.0,2023-07-22 16:56,71.0,62.0,,1006.7,140.0,9.2,29.74,73.21,8.0,71.0,,,M,,,GNR,1053150,2023-07-22 17:00:00+00:00,5690.0,5.12,,
246299,2023-07-22 18:00:00+00:00,0.0,2023-07-22 17:56,73.0,62.0,,1006.7,,5.75,29.74,68.42,5.0,73.0,,,M,,,GNR,1053154,2023-07-22 18:00:00+00:00,5690.0,5.12,,
246300,2023-07-22 19:00:00+00:00,0.0,2023-07-22 18:56,74.0,62.0,,1006.8,,4.6,29.74,66.15,4.0,74.0,,,M,,,GNR,1053158,2023-07-22 19:00:00+00:00,5690.0,5.12,,
246301,2023-07-22 20:00:00+00:00,0.0,2023-07-22 19:56,72.0,62.0,,1006.8,,6.9,29.74,70.77,6.0,72.0,,,M,,,GNR,1053162,2023-07-22 20:00:00+00:00,5690.0,5.12,,
246302,2023-07-22 21:00:00+00:00,2.79,2023-07-22 20:56,68.0,65.0,,1007.4,170.0,3.45,29.76,90.13,3.0,68.0,,,M,,,GNR,1053166,2023-07-22 21:00:00+00:00,7690.0,5.94,,
246303,2023-07-22 22:00:00+00:00,0.0,2023-07-22 21:56,69.0,66.0,,1007.8,,3.45,29.77,90.17,3.0,69.0,,,M,,,GNR,1053170,2023-07-22 22:00:00+00:00,8020.0,6.07,,
246304,2023-07-22 23:00:00+00:00,0.25,2023-07-22 22:56,70.0,64.0,,1007.7,0.0,0.0,29.77,81.27,0.0,70.0,,,M,,,GNR,1053174,2023-07-22 23:00:00+00:00,8070.0,6.09,,
246305,2023-07-23 00:00:00+00:00,0.0,2023-07-22 23:56,66.0,63.0,,1008.3,40.0,3.45,29.78,90.05,3.0,66.0,,,M,,,GNR,1053178,2023-07-23 00:00:00+00:00,8040.0,6.08,,
246306,2023-07-23 01:00:00+00:00,1.27,2023-07-23 00:56,64.0,62.0,,1009.1,0.0,0.0,29.8,93.21,0.0,64.0,,,M,,,GNR,1053182,2023-07-23 01:00:00+00:00,8070.0,6.09,,
246307,2023-07-23 02:00:00+00:00,0.0,2023-07-23 01:56,64.0,61.0,,1009.4,0.0,0.0,29.81,89.97,0.0,64.0,,,M,,,GNR,1053186,2023-07-23 02:00:00+00:00,8070.0,6.09,,
246308,2023-07-23 03:00:00+00:00,0.0,2023-07-23 02:56,63.0,60.0,,1009.4,280.0,3.45,29.81,89.93,3.0,63.0,,,M,,,GNR,1053190,2023-07-23 03:00:00+00:00,8090.0,6.1,,
246309,2023-07-23 04:00:00+00:00,0.0,2023-07-23 03:56,62.0,58.0,,1009.4,0.0,0.0,29.82,86.72,0.0,62.0,,,M,,,GNR,1053194,2023-07-23 04:00:00+00:00,8040.0,6.08,,
246310,2023-07-23 05:00:00+00:00,0.0,2023-07-23 04:56,61.0,58.0,,1009.6,0.0,0.0,29.82,89.84,0.0,61.0,,,M,,,GNR,1053198,2023-07-23 05:00:00+00:00,8090.0,6.1,,
246311,2023-07-23 06:00:00+00:00,0.0,2023-07-23 05:56,60.0,58.0,,1009.6,0.0,0.0,29.83,93.1,0.0,60.0,,,M,,,GNR,1053202,2023-07-23 06:00:00+00:00,5860.0,5.19,,
246312,2023-07-23 07:00:00+00:00,0.0,2023-07-23 06:56,60.0,58.0,,1009.9,0.0,0.0,29.83,93.1,0.0,60.0,,,M,,,GNR,1053206,2023-07-23 07:00:00+00:00,5390.0,4.99,,
246313,2023-07-23 08:00:00+00:00,0.0,2023-07-23 07:56,60.0,58.0,,1010.3,0.0,0.0,29.84,93.1,0.0,60.0,,,M,,,GNR,1053210,2023-07-23 08:00:00+00:00,5350.0,4.97,,
246314,2023-07-23 09:00:00+00:00,0.0,2023-07-23 08:56,63.0,59.0,,1010.8,300.0,3.45,29.86,86.77,3.0,63.0,,,M,,,GNR,1053214,2023-07-23 09:00:00+00:00,3660.0,4.19,,
246315,2023-07-23 10:00:00+00:00,0.0,2023-07-23 09:56,62.0,59.0,,1011.5,0.0,0.0,29.88,89.89,0.0,62.0,,,M,,,GNR,1053218,2023-07-23 10:00:00+00:00,1710.0,3.08,,
246316,2023-07-23 11:00:00+00:00,0.0,2023-07-23 10:56,66.0,61.0,,1011.6,330.0,3.45,29.88,83.91,3.0,66.0,,,M,,,GNR,1053222,2023-07-23 11:00:00+00:00,1100.0,2.61,,
246317,2023-07-23 12:00:00+00:00,0.0,2023-07-23 11:56,68.0,61.0,,1012.0,310.0,6.9,29.89,78.3,6.0,68.0,,,M,,,GNR,1053226,2023-07-23 12:00:00+00:00,930.0,2.46,,
246318,2023-07-23 13:00:00+00:00,0.0,2023-07-23 12:56,69.0,61.0,,1012.0,320.0,9.2,29.9,75.66,8.0,69.0,,15.0,M,,,GNR,1053230,2023-07-23 13:00:00+00:00,897.0,2.43,,
246319,2023-07-23 14:00:00+00:00,0.0,2023-07-23 13:56,70.0,61.0,,1012.5,,6.9,29.91,73.11,6.0,70.0,,15.0,M,,,GNR,1053234,2023-07-23 14:00:00+00:00,897.0,2.43,,
246320,2023-07-23 15:00:00+00:00,0.0,2023-07-23 14:56,71.0,60.0,,1012.8,310.0,9.2,29.92,68.2,8.0,71.0,,,M,,,GNR,1053238,2023-07-23 15:00:00+00:00,887.0,2.42,,
246321,2023-07-23 16:00:00+00:00,0.0,2023-07-23 15:56,74.0,61.0,,1013.0,330.0,11.5,29.92,63.85,10.0,74.0,,,M,,,GNR,1053242,2023-07-23 16:00:00+00:00,876.0,2.41,2023-07-23 16:00:00+00:00,gs://gcp-public-data-sentinel-2/tiles/19/T/DL/S2B_MSIL1C_20230723T153559_N0509_R111_T19TDL_20230723T191112.SAFE
246322,2023-07-23 17:00:00+00:00,0.0,2023-07-23 16:56,74.0,62.0,,1013.2,,6.9,29.93,66.15,6.0,74.0,,,M,,,GNR,1053246,2023-07-23 17:00:00+00:00,5530.0,5.05,,
246323,2023-07-23 18:00:00+00:00,0.0,2023-07-23 17:56,75.0,61.0,,1013.1,330.0,8.05,29.93,61.75,7.0,75.0,,,M,,,GNR,1053250,2023-07-23 18:00:00+00:00,5550.0,5.06,,
246324,2023-07-23 19:00:00+00:00,0.0,2023-07-23 18:56,77.0,61.0,,1012.8,310.0,6.9,29.92,57.77,6.0,77.0,,,M,,,GNR,1053254,2023-07-23 19:00:00+00:00,7370.0,5.81,,
246325,2023-07-23 20:00:00+00:00,0.0,2023-07-23 19:56,78.0,58.0,,1012.7,340.0,8.05,29.92,50.22,7.0,78.0,,,M,,,GNR,1053258,2023-07-23 20:00:00+00:00,7940.0,6.04,,
246326,2023-07-23 21:00:00+00:00,0.0,2023-07-23 20:56,79.0,57.0,,1012.6,310.0,5.75,29.92,46.87,5.0,79.0,,,M,,,GNR,1053262,2023-07-23 21:00:00+00:00,7970.0,6.05,,
246327,2023-07-23 22:00:00+00:00,0.0,2023-07-23 21:56,78.0,57.0,,1012.9,310.0,5.75,29.92,48.44,5.0,78.0,,,M,,,GNR,1053266,2023-07-23 22:00:00+00:00,7940.0,6.04,,
246328,2023-07-23 23:00:00+00:00,0.0,2023-07-23 22:56,76.0,57.0,,1013.2,300.0,3.45,29.94,51.76,3.0,76.0,,,M,,,GNR,1053270,2023-07-23 23:00:00+00:00,7940.0,6.04,,
246329,2023-07-24 00:00:00+00:00,0.0,2023-07-23 23:56,71.0,58.0,,1013.7,310.0,3.45,29.95,63.49,3.0,71.0,,,M,,,GNR,1053274,2023-07-24 00:00:00+00:00,7940.0,6.04,,
246330,2023-07-24 01:00:00+00:00,0.0,2023-07-24 00:56,68.0,55.0,,1014.4,310.0,4.6,29.97,63.12,4.0,68.0,,,M,,,GNR,1053278,2023-07-24 01:00:00+00:00,7920.0,6.03,,
246331,2023-07-24 02:00:00+00:00,0.0,2023-07-24 01:56,67.0,54.0,,1015.1,340.0,3.45,29.99,62.99,3.0,67.0,,,M,,,GNR,1053282,2023-07-24 02:00:00+00:00,7890.0,6.02,,
246332,2023-07-24 03:00:00+00:00,0.0,2023-07-24 02:56,65.0,54.0,,1015.7,320.0,3.45,30.0,67.52,3.0,65.0,,,M,,,GNR,1053286,2023-07-24 03:00:00+00:00,4920.0,4.78,,
246333,2023-07-24 04:00:00+00:00,0.0,2023-07-24 03:56,65.0,53.0,,1016.2,310.0,4.6,30.02,65.09,4.0,65.0,,,M,,,GNR,1053290,2023-07-24 04:00:00+00:00,3890.0,4.3,,
246334,2023-07-24 05:00:00+00:00,0.0,2023-07-24 04:56,62.0,53.0,,1016.5,0.0,0.0,30.03,72.32,0.0,62.0,,,M,,,GNR,1053294,2023-07-24 05:00:00+00:00,5460.0,5.02,,
246335,2023-07-24 06:00:00+00:00,0.0,2023-07-24 05:56,61.0,54.0,,1016.8,360.0,3.45,30.03,77.72,3.0,61.0,,,M,,,GNR,1053298,2023-07-24 06:00:00+00:00,3720.0,4.22,,
246336,2023-07-24 07:00:00+00:00,0.0,2023-07-24 06:56,60.0,54.0,,1016.8,340.0,3.45,30.04,80.53,3.0,60.0,,,M,,,GNR,1053302,2023-07-24 07:00:00+00:00,1650.0,3.04,,
246337,2023-07-24 08:00:00+00:00,0.0,2023-07-24 07:56,60.0,52.0,,1017.1,0.0,0.0,30.05,74.83,0.0,60.0,,,M,,,GNR,1053306,2023-07-24 08:00:00+00:00,1020.0,2.54,,
246338,2023-07-24 09:00:00+00:00,0.0,2023-07-24 08:56,58.0,53.0,,1017.9,0.0,0.0,30.07,83.39,0.0,58.0,,,M,,,GNR,1053310,2023-07-24 09:00:00+00:00,813.0,2.35,,
246339,2023-07-24 10:00:00+00:00,0.0,2023-07-24 09:56,60.0,56.0,,1017.9,0.0,0.0,30.07,86.61,0.0,60.0,,,M,,,GNR,1053314,2023-07-24 10:00:00+00:00,783.0,2.32,,
246340,2023-07-24 11:00:00+00:00,0.0,2023-07-24 10:56,66.0,57.0,,1018.3,0.0,0.0,30.09,72.72,0.0,66.0,,,M,,,GNR,1053318,2023-07-24 11:00:00+00:00,783.0,2.32,,
246341,2023-07-24 12:00:00+00:00,0.0,2023-07-24 11:56,70.0,56.0,,1018.8,100.0,3.45,30.1,61.11,3.0,70.0,,,M,,,GNR,1053322,2023-07-24 12:00:00+00:00,773.0,2.31,,
246342,2023-07-24 13:00:00+00:00,0.0,2023-07-24 12:56,74.0,58.0,,1018.8,0.0,0.0,30.1,57.37,0.0,74.0,,,M,,,GNR,1053326,2023-07-24 13:00:00+00:00,773.0,2.31,,
246343,2023-07-24 14:00:00+00:00,0.0,2023-07-24 13:56,77.0,58.0,,1018.7,350.0,5.75,30.1,51.9,5.0,77.0,,,M,,,GNR,1053330,2023-07-24 14:00:00+00:00,763.0,2.3,,
246344,2023-07-24 15:00:00+00:00,0.0,2023-07-24 14:56,79.0,56.0,,1018.8,60.0,4.6,30.1,45.2,4.0,79.0,,,M,,,GNR,1053334,2023-07-24 15:00:00+00:00,763.0,2.3,,
246345,2023-07-24 16:00:00+00:00,0.0,2023-07-24 15:56,79.0,57.0,,1018.9,0.0,0.0,30.1,46.87,0.0,79.0,,,M,,,GNR,1053338,2023-07-24 16:00:00+00:00,763.0,2.3,,
246346,2023-07-24 17:00:00+00:00,0.0,2023-07-24 16:56,79.0,60.0,,1018.3,0.0,0.0,30.08,52.19,0.0,79.0,,,M,,,GNR,1053342,2023-07-24 17:00:00+00:00,5440.0,5.01,,
246347,2023-07-24 18:00:00+00:00,0.0,2023-07-24 17:56,82.0,60.0,,1017.7,,4.6,30.07,47.32,4.0,82.38,,,M,,,GNR,1053346,2023-07-24 18:00:00+00:00,5460.0,5.02,,
246348,2023-07-24 19:00:00+00:00,0.0,2023-07-24 18:56,81.0,59.0,,1017.4,170.0,6.9,30.06,47.17,6.0,81.4,,,M,,,GNR,1053350,2023-07-24 19:00:00+00:00,7300.0,5.78,,
246349,2023-07-24 20:00:00+00:00,0.0,2023-07-24 19:56,82.0,59.0,,1017.3,200.0,6.9,30.06,45.66,6.0,82.15,,,M,,,GNR,1053354,2023-07-24 20:00:00+00:00,7790.0,5.98,,
246350,2023-07-24 21:00:00+00:00,0.0,2023-07-24 20:56,79.0,61.0,,1017.2,,,30.05,54.08,,79.0,,,M,,,GNR,1053358,2023-07-24 21:00:00+00:00,7820.0,5.99,,
246351,2023-07-24 22:00:00+00:00,0.0,2023-07-24 21:56,79.0,60.0,,1016.9,190.0,5.75,30.04,52.19,5.0,79.0,,,M,,,GNR,1053362,2023-07-24 22:00:00+00:00,7790.0,5.98,,
246352,2023-07-24 23:00:00+00:00,0.0,2023-07-24 22:56,76.0,60.0,,1016.8,200.0,3.45,30.04,57.64,3.0,76.0,,,M,,,GNR,1053366,2023-07-24 23:00:00+00:00,7820.0,5.99,,
246353,2023-07-25 00:00:00+00:00,0.0,2023-07-24 23:56,74.0,59.0,,1017.1,0.0,0.0,30.05,59.46,0.0,74.0,,,M,,,GNR,1053370,2023-07-25 00:00:00+00:00,7840.0,6.0,,
246354,2023-07-25 01:00:00+00:00,0.0,2023-07-25 00:56,71.0,61.0,,1017.4,190.0,3.45,30.06,70.66,3.0,71.0,,,M,,,GNR,1053374,2023-07-25 01:00:00+00:00,7840.0,6.0,,
246355,2023-07-25 02:00:00+00:00,0.0,2023-07-25 01:56,70.0,62.0,,1017.4,0.0,0.0,30.06,75.75,0.0,70.0,,,M,,,GNR,1053378,2023-07-25 02:00:00+00:00,7820.0,5.99,,
246356,2023-07-25 03:00:00+00:00,0.0,2023-07-25 02:56,70.0,60.0,,1016.9,0.0,0.0,30.05,70.56,0.0,70.0,,,M,,,GNR,1053382,2023-07-25 03:00:00+00:00,7820.0,5.99,,
246357,2023-07-25 04:00:00+00:00,0.0,2023-07-25 03:56,68.0,60.0,,1017.2,150.0,4.6,30.05,75.57,4.0,68.0,,,M,,,GNR,1053386,2023-07-25 04:00:00+00:00,7870.0,6.01,,
246358,2023-07-25 05:00:00+00:00,0.0,2023-07-25 04:56,68.0,60.0,,1017.0,0.0,0.0,30.05,75.57,0.0,68.0,,,M,,,GNR,1053390,2023-07-25 05:00:00+00:00,7890.0,6.02,,
246359,2023-07-25 06:00:00+00:00,0.0,2023-07-25 05:56,67.0,60.0,,1016.3,140.0,5.75,30.03,78.22,5.0,67.0,,,M,,,GNR,1053394,2023-07-25 06:00:00+00:00,7890.0,6.02,,
246360,2023-07-25 07:00:00+00:00,0.0,2023-07-25 06:56,65.0,60.0,,1016.3,0.0,0.0,30.03,83.84,0.0,65.0,,,M,,,GNR,1053398,2023-07-25 07:00:00+00:00,4260.0,4.47,,
246361,2023-07-25 08:00:00+00:00,0.0,2023-07-25 07:56,64.0,60.0,,1016.5,0.0,0.0,30.04,86.83,0.0,64.0,,,M,,,GNR,1053402,2023-07-25 08:00:00+00:00,1720.0,3.09,,
246362,2023-07-25 09:00:00+00:00,0.0,2023-07-25 08:56,65.0,60.0,,1017.0,0.0,0.0,30.05,83.84,0.0,65.0,,,M,,,GNR,1053406,2023-07-25 09:00:00+00:00,1020.0,2.54,,
246363,2023-07-25 10:00:00+00:00,0.0,2023-07-25 09:56,66.0,59.0,,1017.1,0.0,0.0,30.05,78.14,0.0,66.0,,,M,,,GNR,1053410,2023-07-25 10:00:00+00:00,783.0,2.32,,
246364,2023-07-25 11:00:00+00:00,0.0,2023-07-25 10:56,70.0,60.0,,1016.8,0.0,0.0,30.04,70.56,0.0,70.0,,,M,,,GNR,1053414,2023-07-25 11:00:00+00:00,744.0,2.28,,
246365,2023-07-25 12:00:00+00:00,0.0,2023-07-25 11:56,70.0,61.0,,1017.0,,3.45,30.05,73.11,3.0,70.0,,,M,,,GNR,1053418,2023-07-25 12:00:00+00:00,734.0,2.27,,
246366,2023-07-25 13:00:00+00:00,0.0,2023-07-25 12:56,73.0,62.0,,1016.9,,4.6,30.04,68.42,4.0,73.0,,,M,,,GNR,1053422,2023-07-25 13:00:00+00:00,724.0,2.26,,
246367,2023-07-25 14:00:00+00:00,0.0,2023-07-25 13:56,76.0,62.0,,1016.8,,3.45,30.04,61.87,3.0,76.0,,,M,,,GNR,1053426,2023-07-25 14:00:00+00:00,724.0,2.26,,
246368,2023-07-25 15:00:00+00:00,0.0,2023-07-25 14:56,77.0,62.0,,1016.8,,,30.04,59.85,,77.0,,,M,,,GNR,1053430,2023-07-25 15:00:00+00:00,715.0,2.25,,
246369,2023-07-25 16:00:00+00:00,0.0,2023-07-25 15:56,79.0,61.0,,1016.8,,,30.04,54.08,,79.0,,,M,,,GNR,1053434,2023-07-25 16:00:00+00:00,715.0,2.25,,
246370,2023-07-25 17:00:00+00:00,0.0,2023-07-25 16:56,79.0,62.0,,1016.6,,5.75,30.04,56.03,5.0,79.0,,,M,,,GNR,1053438,2023-07-25 17:00:00+00:00,5390.0,4.99,,
246371,2023-07-25 18:00:00+00:00,0.0,2023-07-25 17:56,79.0,61.0,,1016.2,300.0,8.05,30.03,54.08,7.0,79.0,,15.0,M,,,GNR,1053442,2023-07-25 18:00:00+00:00,5420.0,5.0,,
246372,2023-07-25 19:00:00+00:00,0.0,2023-07-25 18:56,80.0,62.0,,1015.6,0.0,0.0,30.01,54.22,0.0,81.21,,,M,,,GNR,1053446,2023-07-25 19:00:00+00:00,7300.0,5.78,,
246373,2023-07-25 20:00:00+00:00,0.0,2023-07-25 19:56,79.0,62.0,,1015.3,360.0,6.9,30.0,56.03,6.0,79.0,,,M,,,GNR,1053450,2023-07-25 20:00:00+00:00,7790.0,5.98,,
246374,2023-07-25 21:00:00+00:00,0.0,2023-07-25 20:56,77.0,64.0,,1015.3,340.0,3.45,30.0,64.21,3.0,77.0,,,M,,,GNR,1053454,2023-07-25 21:00:00+00:00,7820.0,5.99,,
246375,2023-07-25 22:00:00+00:00,0.0,2023-07-25 21:56,78.0,62.0,,1015.2,340.0,3.45,30.0,57.9,3.0,78.0,,,M,,,GNR,1053458,2023-07-25 22:00:00+00:00,7840.0,6.0,,
246376,2023-07-25 23:00:00+00:00,0.0,2023-07-25 22:56,73.0,63.0,,1015.6,0.0,0.0,30.01,70.87,0.0,73.0,,,M,,,GNR,1053462,2023-07-25 23:00:00+00:00,7840.0,6.0,,
246377,2023-07-26 00:00:00+00:00,0.0,2023-07-25 23:56,70.0,63.0,,1015.9,0.0,0.0,30.01,78.46,0.0,70.0,,,M,,,GNR,1053466,2023-07-26 00:00:00+00:00,7870.0,6.01,,
246378,2023-07-26 01:00:00+00:00,0.0,2023-07-26 00:56,69.0,62.0,,1015.9,0.0,0.0,30.02,78.38,0.0,69.0,,,M,,,GNR,1053470,2023-07-26 01:00:00+00:00,7870.0,6.01,,
246379,2023-07-26 02:00:00+00:00,0.0,2023-07-26 01:56,69.0,62.0,,1016.1,0.0,0.0,30.02,78.38,0.0,69.0,,,M,,,GNR,1053474,2023-07-26 02:00:00+00:00,7920.0,6.03,,
246380,2023-07-26 03:00:00+00:00,0.0,2023-07-26 02:56,67.0,62.0,,1016.0,0.0,0.0,30.02,83.97,0.0,67.0,,,M,,,GNR,1053478,2023-07-26 03:00:00+00:00,7920.0,6.03,,
246381,2023-07-26 04:00:00+00:00,0.0,2023-07-26 03:56,67.0,62.0,,1015.7,0.0,0.0,30.01,83.97,0.0,67.0,,,M,,,GNR,1053482,2023-07-26 04:00:00+00:00,7890.0,6.02,,
246382,2023-07-26 05:00:00+00:00,0.0,2023-07-26 04:56,67.0,62.0,,1015.7,0.0,0.0,30.01,83.97,0.0,67.0,,,M,,,GNR,1053486,2023-07-26 05:00:00+00:00,4060.0,4.38,,
246383,2023-07-26 06:00:00+00:00,0.0,2023-07-26 05:56,67.0,61.0,,1015.1,0.0,0.0,30.0,81.05,0.0,67.0,,,M,,,GNR,1053490,2023-07-26 06:00:00+00:00,1660.0,3.05,,
246384,2023-07-26 07:00:00+00:00,0.0,2023-07-26 06:56,65.0,60.0,,1015.1,330.0,3.45,29.99,83.84,3.0,65.0,,,M,,,GNR,1053494,2023-07-26 07:00:00+00:00,987.0,2.51,,
246385,2023-07-26 08:00:00+00:00,0.0,2023-07-26 07:56,66.0,60.0,,1015.2,310.0,3.45,30.0,80.98,3.0,66.0,,,M,,,GNR,1053498,2023-07-26 08:00:00+00:00,753.0,2.29,,
246386,2023-07-26 09:00:00+00:00,0.0,2023-07-26 08:56,65.0,60.0,,1015.6,0.0,0.0,30.01,83.84,0.0,65.0,,,M,,,GNR,1053502,2023-07-26 09:00:00+00:00,715.0,2.25,,
246387,2023-07-26 10:00:00+00:00,0.0,2023-07-26 09:56,65.0,60.0,,1015.9,0.0,0.0,30.01,83.84,0.0,65.0,,,M,,,GNR,1053506,2023-07-26 10:00:00+00:00,706.0,2.24,,
246388,2023-07-26 11:00:00+00:00,0.0,2023-07-26 10:56,68.0,62.0,,1016.0,0.0,0.0,30.02,81.12,0.0,68.0,,,M,,,GNR,1053510,2023-07-26 11:00:00+00:00,696.0,2.23,,
246389,2023-07-26 12:00:00+00:00,0.0,2023-07-26 11:56,71.0,62.0,,1015.9,,3.45,30.01,73.21,3.0,71.0,,,M,,,GNR,1053514,2023-07-26 12:00:00+00:00,678.0,2.21,,
246390,2023-07-26 13:00:00+00:00,0.0,2023-07-26 12:56,73.0,61.0,,1016.5,,3.45,30.03,66.04,3.0,73.0,,,M,,,GNR,1053518,2023-07-26 13:00:00+00:00,669.0,2.2,,
246391,2023-07-26 14:00:00+00:00,0.0,2023-07-26 13:56,75.0,61.0,,1016.3,0.0,0.0,30.03,61.75,0.0,75.0,,,M,,,GNR,1053522,2023-07-26 14:00:00+00:00,660.0,2.19,,
246392,2023-07-26 15:00:00+00:00,0.0,2023-07-26 14:56,77.0,60.0,,1016.1,,3.45,30.02,55.75,3.0,77.0,,,M,,,GNR,1053526,2023-07-26 15:00:00+00:00,660.0,2.19,,
246393,2023-07-26 16:00:00+00:00,0.0,2023-07-26 15:56,79.0,60.0,,1015.7,,4.6,30.01,52.19,4.0,79.0,,,M,,,GNR,1053530,2023-07-26 16:00:00+00:00,651.0,2.18,2023-07-26 16:00:00+00:00,gs://gcp-public-data-sentinel-2/tiles/19/T/DL/S2B_MSIL1C_20230726T153819_N0509_R011_T19TDL_20230726T173958.SAFE
246394,2023-07-26 17:00:00+00:00,0.0,2023-07-26 16:56,77.0,60.0,,1015.0,,4.6,29.99,55.75,4.0,77.0,,,M,,,GNR,1053534,2023-07-26 17:00:00+00:00,5320.0,4.96,,
246395,2023-07-26 18:00:00+00:00,0.51,2023-07-26 17:56,75.0,63.0,,1014.6,0.0,0.0,29.98,66.27,0.0,75.0,,,M,,,GNR,1053538,2023-07-26 18:00:00+00:00,5370.0,4.98,,
246396,2023-07-26 19:00:00+00:00,0.0,2023-07-26 18:56,79.0,64.0,,1014.2,290.0,4.6,29.96,60.11,4.0,79.0,,,M,,,GNR,1053542,2023-07-26 19:00:00+00:00,7300.0,5.78,,
246397,2023-07-26 20:00:00+00:00,0.0,2023-07-26 19:56,82.0,59.0,,1013.7,,3.45,29.95,45.66,3.0,82.15,,,M,,,GNR,1053546,2023-07-26 20:00:00+00:00,7770.0,5.97,,
246398,2023-07-26 21:00:00+00:00,0.0,2023-07-26 20:56,81.0,53.0,,1013.7,,4.6,29.95,37.95,4.0,80.46,,,M,,,GNR,1053550,2023-07-26 21:00:00+00:00,7790.0,5.98,,
246399,2023-07-26 22:00:00+00:00,0.0,2023-07-26 21:56,80.0,57.0,,1013.5,,4.6,29.95,45.36,4.0,80.38,,,M,,,GNR,1053554,2023-07-26 22:00:00+00:00,7820.0,5.99,,
246400,2023-07-26 23:00:00+00:00,0.0,2023-07-26 22:56,75.0,60.0,,1013.8,0.0,0.0,29.95,59.59,0.0,75.0,,,M,,,GNR,1053558,2023-07-26 23:00:00+00:00,7840.0,6.0,,
246401,2023-07-27 00:00:00+00:00,0.0,2023-07-26 23:56,72.0,61.0,,1013.9,0.0,0.0,29.96,68.31,0.0,72.0,,,M,,,GNR,1053562,2023-07-27 00:00:00+00:00,7790.0,5.98,,
246402,2023-07-27 01:00:00+00:00,0.0,2023-07-27 00:56,72.0,59.0,,1013.7,,3.45,29.95,63.61,3.0,72.0,,,M,,,GNR,1053566,2023-07-27 01:00:00+00:00,7870.0,6.01,,
246403,2023-07-27 02:00:00+00:00,0.0,2023-07-27 01:56,71.0,59.0,,1014.2,0.0,0.0,29.97,65.81,0.0,71.0,,,M,,,GNR,1053570,2023-07-27 02:00:00+00:00,7870.0,6.01,,
246404,2023-07-27 03:00:00+00:00,0.0,2023-07-27 02:56,69.0,60.0,,1013.9,0.0,0.0,29.96,73.02,0.0,69.0,,,M,,,GNR,1053574,2023-07-27 03:00:00+00:00,7870.0,6.01,,
246405,2023-07-27 04:00:00+00:00,0.0,2023-07-27 03:56,69.0,60.0,,1013.6,0.0,0.0,29.95,73.02,0.0,69.0,,,M,,,GNR,1053578,2023-07-27 04:00:00+00:00,7870.0,6.01,,
246406,2023-07-27 05:00:00+00:00,0.0,2023-07-27 04:56,68.0,60.0,,1013.4,0.0,0.0,29.94,75.57,0.0,68.0,,,M,,,GNR,1053582,2023-07-27 05:00:00+00:00,7890.0,6.02,,
246407,2023-07-27 06:00:00+00:00,0.0,2023-07-27 05:56,69.0,59.0,,1013.3,190.0,3.45,29.94,70.46,3.0,69.0,,,M,,,GNR,1053586,2023-07-27 06:00:00+00:00,3910.0,4.31,,
246408,2023-07-27 07:00:00+00:00,0.0,2023-07-27 06:56,69.0,59.0,,1012.8,0.0,0.0,29.93,70.46,0.0,69.0,,,M,,,GNR,1053590,2023-07-27 07:00:00+00:00,1590.0,3.0,,
246409,2023-07-27 08:00:00+00:00,0.0,2023-07-27 07:56,68.0,59.0,,1012.4,0.0,0.0,29.92,72.92,0.0,68.0,,,M,,,GNR,1053594,2023-07-27 08:00:00+00:00,919.0,2.45,,
246410,2023-07-27 09:00:00+00:00,0.0,2023-07-27 08:56,66.0,59.0,,1012.5,0.0,0.0,29.92,78.14,0.0,66.0,,,M,,,GNR,1053598,2023-07-27 09:00:00+00:00,696.0,2.23,,
246411,2023-07-27 10:00:00+00:00,0.0,2023-07-27 09:56,68.0,61.0,,1012.8,,3.45,29.93,78.3,3.0,68.0,,,M,,,GNR,1053602,2023-07-27 10:00:00+00:00,651.0,2.18,,
246412,2023-07-27 11:00:00+00:00,0.0,2023-07-27 10:56,69.0,62.0,,1012.9,120.0,3.45,29.93,78.38,3.0,69.0,,,M,,,GNR,1053606,2023-07-27 11:00:00+00:00,642.0,2.17,,
246413,2023-07-27 12:00:00+00:00,0.0,2023-07-27 11:56,70.0,61.0,,1013.6,0.0,0.0,29.95,73.11,0.0,70.0,,,M,,,GNR,1053610,2023-07-27 12:00:00+00:00,642.0,2.17,,
246414,2023-07-27 13:00:00+00:00,0.0,2023-07-27 12:56,70.0,63.0,,1013.4,200.0,3.45,29.94,78.46,3.0,70.0,,,M,,,GNR,1053614,2023-07-27 13:00:00+00:00,633.0,2.16,,
246415,2023-07-27 14:00:00+00:00,0.0,2023-07-27 13:56,71.0,64.0,,1013.2,,3.45,29.94,78.54,3.0,71.0,,,M,,,GNR,1053618,2023-07-27 14:00:00+00:00,633.0,2.16,,
246416,2023-07-27 15:00:00+00:00,0.0,2023-07-27 14:56,70.0,65.0,,1013.2,0.0,0.0,29.93,84.16,0.0,70.0,,,M,,,GNR,1053622,2023-07-27 15:00:00+00:00,616.0,2.14,,
246417,2023-07-27 16:00:00+00:00,0.25,2023-07-27 15:56,71.0,65.0,,1011.8,130.0,5.75,29.89,81.34,5.0,71.0,,,M,,,GNR,1053626,2023-07-27 16:00:00+00:00,608.0,2.13,,
246418,2023-07-27 17:00:00+00:00,0.0,2023-07-27 16:56,68.0,66.0,,1011.8,140.0,6.9,29.89,93.32,6.0,68.0,,,M,,,GNR,1053630,2023-07-27 17:00:00+00:00,5350.0,4.97,,
246419,2023-07-27 18:00:00+00:00,2.29,2023-07-27 17:56,68.0,67.0,,1011.0,130.0,6.9,29.87,96.61,6.0,68.0,,,M,,,GNR,1053634,2023-07-27 18:00:00+00:00,5370.0,4.98,,
246420,2023-07-27 19:00:00+00:00,5.08,2023-07-27 18:56,68.0,67.0,,1009.8,140.0,9.2,29.83,96.61,8.0,68.0,,,M,,,GNR,1053638,2023-07-27 19:00:00+00:00,7400.0,5.82,,
246421,2023-07-27 20:00:00+00:00,19.56,2023-07-27 19:56,68.0,67.0,,1008.9,130.0,6.9,29.8,96.61,6.0,68.0,,,M,,,GNR,1053642,2023-07-27 20:00:00+00:00,8040.0,6.08,,
246422,2023-07-27 21:00:00+00:00,4.06,2023-07-27 20:56,69.0,67.0,,1008.3,120.0,6.9,29.79,93.35,6.0,69.0,,,M,,,GNR,1053646,2023-07-27 21:00:00+00:00,8040.0,6.08,,
246423,2023-07-27 22:00:00+00:00,0.0,2023-07-27 21:56,70.0,67.0,,1008.1,0.0,0.0,29.78,90.21,0.0,70.0,,,M,,,GNR,1053650,2023-07-27 22:00:00+00:00,8090.0,6.1,,
246424,2023-07-27 23:00:00+00:00,0.0,2023-07-27 22:56,69.0,67.0,,1008.3,340.0,8.05,29.79,93.35,7.0,69.0,,,M,,,GNR,1053654,2023-07-27 23:00:00+00:00,8170.0,6.13,,
246425,2023-07-28 00:00:00+00:00,0.0,2023-07-27 23:56,68.0,66.0,,1008.8,340.0,6.9,29.8,93.32,6.0,68.0,,,M,,,GNR,1053658,2023-07-28 00:00:00+00:00,8190.0,6.14,,
246426,2023-07-28 01:00:00+00:00,0.0,2023-07-28 00:56,68.0,66.0,,1009.4,340.0,3.45,29.82,93.32,3.0,68.0,,,M,,,GNR,1053662,2023-07-28 01:00:00+00:00,8240.0,6.16,,
246427,2023-07-28 02:00:00+00:00,0.0,2023-07-28 01:56,68.0,66.0,,1010.3,0.0,0.0,29.85,93.32,0.0,68.0,,,M,,,GNR,1053666,2023-07-28 02:00:00+00:00,8240.0,6.16,,
246428,2023-07-28 03:00:00+00:00,0.0,2023-07-28 02:56,68.0,67.0,,1010.3,320.0,5.75,29.85,96.61,5.0,68.0,,,M,,,GNR,1053670,2023-07-28 03:00:00+00:00,8270.0,6.17,,
246429,2023-07-28 04:00:00+00:00,0.0,2023-07-28 03:56,67.0,66.0,,1010.3,330.0,8.05,29.85,96.59,7.0,67.0,,,M,,,GNR,1053674,2023-07-28 04:00:00+00:00,4490.0,4.58,,
246430,2023-07-28 05:00:00+00:00,0.0,2023-07-28 04:56,67.0,65.0,,1010.9,340.0,6.9,29.86,93.29,6.0,67.0,,,M,,,GNR,1053678,2023-07-28 05:00:00+00:00,1930.0,3.23,,
246431,2023-07-28 06:00:00+00:00,0.0,2023-07-28 05:56,67.0,65.0,,1010.8,340.0,8.05,29.86,93.29,7.0,67.0,,,M,,,GNR,1053682,2023-07-28 06:00:00+00:00,1240.0,2.73,,
246432,2023-07-28 07:00:00+00:00,0.0,2023-07-28 06:56,66.0,64.0,,1011.8,310.0,8.05,29.89,93.26,7.0,66.0,,,M,,,GNR,1053686,2023-07-28 07:00:00+00:00,1040.0,2.56,,
246433,2023-07-28 08:00:00+00:00,0.0,2023-07-28 07:56,66.0,64.0,,1011.7,320.0,6.9,29.89,93.26,6.0,66.0,,,M,,,GNR,1053690,2023-07-28 08:00:00+00:00,1010.0,2.53,,
246434,2023-07-28 09:00:00+00:00,0.0,2023-07-28 08:56,66.0,64.0,,1012.4,320.0,9.2,29.9,93.26,8.0,66.0,,,M,,,GNR,1053694,2023-07-28 09:00:00+00:00,999.0,2.52,,
246435,2023-07-28 10:00:00+00:00,0.0,2023-07-28 09:56,67.0,64.0,,1012.8,320.0,8.05,29.92,90.09,7.0,67.0,,,M,,,GNR,1053698,2023-07-28 10:00:00+00:00,987.0,2.51,,
246436,2023-07-28 11:00:00+00:00,0.0,2023-07-28 10:56,68.0,65.0,,1013.3,,4.6,29.93,90.13,4.0,68.0,,,M,,,GNR,1053702,2023-07-28 11:00:00+00:00,976.0,2.5,,
246437,2023-07-28 12:00:00+00:00,0.0,2023-07-28 11:56,70.0,66.0,,1013.7,,3.45,29.95,87.14,3.0,70.0,,,M,,,GNR,1053706,2023-07-28 12:00:00+00:00,964.0,2.49,,
246438,2023-07-28 13:00:00+00:00,0.0,2023-07-28 12:56,73.0,66.0,,1013.2,,4.6,29.94,78.7,4.0,73.0,,,M,,,GNR,1053710,2023-07-28 13:00:00+00:00,964.0,2.49,,
246439,2023-07-28 14:00:00+00:00,0.0,2023-07-28 13:56,75.0,66.0,,1013.1,290.0,5.75,29.93,73.59,5.0,75.0,,,M,,,GNR,1053714,2023-07-28 14:00:00+00:00,953.0,2.48,,
246440,2023-07-28 15:00:00+00:00,0.0,2023-07-28 14:56,78.0,66.0,,1012.7,,,29.92,66.61,,78.0,,,M,,,GNR,1053718,2023-07-28 15:00:00+00:00,953.0,2.48,,
246441,2023-07-28 16:00:00+00:00,0.0,2023-07-28 15:56,79.0,67.0,,1012.3,,,29.91,66.72,,79.0,,,M,,,GNR,1053722,2023-07-28 16:00:00+00:00,942.0,2.47,2023-07-28 16:00:00+00:00,gs://gcp-public-data-sentinel-2/tiles/19/T/DL/S2A_MSIL1C_20230728T153601_N0509_R111_T19TDL_20230728T204803.SAFE
246442,2023-07-28 17:00:00+00:00,0.0,2023-07-28 16:56,81.0,66.0,,1011.9,,4.6,29.9,60.37,4.0,83.11,,,M,,,GNR,1053726,2023-07-28 17:00:00+00:00,5620.0,5.09,,
246443,2023-07-28 18:00:00+00:00,0.0,2023-07-28 17:56,82.0,66.0,,1011.0,,4.6,29.88,58.43,4.0,84.15,,,M,,,GNR,1053730,2023-07-28 18:00:00+00:00,5650.0,5.1,,
246444,2023-07-28 19:00:00+00:00,0.0,2023-07-28 18:56,84.0,66.0,,1010.6,,,29.87,54.77,,86.2,,,M,,,GNR,1053734,2023-07-28 19:00:00+00:00,7540.0,5.88,,
246445,2023-07-28 20:00:00+00:00,0.0,2023-07-28 19:56,84.0,65.0,,1009.7,,4.6,29.84,52.9,4.0,85.77,,,M,,,GNR,1053738,2023-07-28 20:00:00+00:00,8070.0,6.09,,
246446,2023-07-28 21:00:00+00:00,0.0,2023-07-28 20:56,83.0,64.0,,1009.2,,,29.83,52.76,,84.41,,,M,,,GNR,1053742,2023-07-28 21:00:00+00:00,8090.0,6.1,,
246447,2023-07-28 22:00:00+00:00,0.0,2023-07-28 21:56,82.0,64.0,,1009.2,,4.6,29.82,54.5,4.0,83.47,,,M,,,GNR,1053746,2023-07-28 22:00:00+00:00,8090.0,6.1,,
246448,2023-07-28 23:00:00+00:00,0.0,2023-07-28 22:56,79.0,64.0,,1009.5,,,29.83,60.11,,79.0,,,M,,,GNR,1053750,2023-07-28 23:00:00+00:00,8070.0,6.09,,
246449,2023-07-29 00:00:00+00:00,0.0,2023-07-28 23:56,77.0,63.0,,1009.6,,,29.83,62.0,,77.0,,,M,,,GNR,1053754,2023-07-29 00:00:00+00:00,8070.0,6.09,,
246450,2023-07-29 01:00:00+00:00,0.0,2023-07-29 00:56,75.0,63.0,,1010.0,,4.6,29.85,66.27,4.0,75.0,,,M,,,GNR,1053758,2023-07-29 01:00:00+00:00,8120.0,6.11,,
246451,2023-07-29 02:00:00+00:00,1.27,2023-07-29 01:56,69.0,65.0,,1010.7,,6.9,29.86,87.08,6.0,69.0,,,M,,,GNR,1053762,2023-07-29 02:00:00+00:00,8140.0,6.12,,
246452,2023-07-29 03:00:00+00:00,0.76,2023-07-29 02:56,70.0,66.0,,1009.9,,3.45,29.84,87.14,3.0,70.0,,,M,,,GNR,1053766,2023-07-29 03:00:00+00:00,8170.0,6.13,,
246453,2023-07-29 04:00:00+00:00,0.0,2023-07-29 03:56,70.0,65.0,,1009.3,,5.75,29.83,84.16,5.0,70.0,,15.0,M,,,GNR,1053770,2023-07-29 04:00:00+00:00,8140.0,6.12,,
246454,2023-07-29 05:00:00+00:00,0.0,2023-07-29 04:56,69.0,63.0,,1009.3,290.0,10.35,29.83,81.19,9.0,69.0,,19.0,M,,,GNR,1053774,2023-07-29 05:00:00+00:00,4320.0,4.5,,
246455,2023-07-29 06:00:00+00:00,0.0,2023-07-29 05:56,68.0,64.0,,1008.8,300.0,10.35,29.81,87.03,9.0,68.0,,22.0,M,,,GNR,1053778,2023-07-29 06:00:00+00:00,1810.0,3.15,,
246456,2023-07-29 07:00:00+00:00,0.0,2023-07-29 06:56,68.0,63.0,,1009.1,300.0,12.65,29.82,84.03,11.0,68.0,,18.0,M,,,GNR,1053782,2023-07-29 07:00:00+00:00,1110.0,2.62,,
246457,2023-07-29 08:00:00+00:00,0.0,2023-07-29 07:56,66.0,63.0,,1008.9,320.0,13.8,29.82,90.05,12.0,66.0,,20.0,M,,,GNR,1053786,2023-07-29 08:00:00+00:00,908.0,2.44,,
246458,2023-07-29 09:00:00+00:00,0.0,2023-07-29 08:56,64.0,61.0,,1009.5,310.0,6.9,29.83,89.97,6.0,64.0,,,M,,,GNR,1053790,2023-07-29 09:00:00+00:00,865.0,2.4,,
246459,2023-07-29 10:00:00+00:00,0.0,2023-07-29 09:56,63.0,60.0,,1009.6,300.0,10.35,29.83,89.93,9.0,63.0,,15.0,M,,,GNR,1053794,2023-07-29 10:00:00+00:00,855.0,2.39,,
246460,2023-07-29 11:00:00+00:00,0.0,2023-07-29 10:56,65.0,56.0,,1010.1,310.0,9.2,29.84,72.62,8.0,65.0,,17.0,M,,,GNR,1053798,2023-07-29 11:00:00+00:00,844.0,2.38,,
246461,2023-07-29 12:00:00+00:00,0.0,2023-07-29 11:56,65.0,56.0,,1009.8,320.0,12.65,29.84,72.62,11.0,65.0,,21.0,M,,,GNR,1053802,2023-07-29 12:00:00+00:00,844.0,2.38,,
246462,2023-07-29 13:00:00+00:00,0.0,2023-07-29 12:56,65.0,55.0,,1010.5,320.0,11.5,29.85,70.03,10.0,65.0,,,M,,,GNR,1053806,2023-07-29 13:00:00+00:00,834.0,2.37,,
246463,2023-07-29 14:00:00+00:00,0.0,2023-07-29 13:56,66.0,53.0,,1010.7,330.0,12.65,29.86,62.87,11.0,66.0,,,M,,,GNR,1053810,2023-07-29 14:00:00+00:00,834.0,2.37,,
246464,2023-07-29 15:00:00+00:00,0.0,2023-07-29 14:56,68.0,54.0,,1010.5,350.0,8.05,29.85,60.86,7.0,68.0,,,M,,,GNR,1053814,2023-07-29 15:00:00+00:00,823.0,2.36,,
246465,2023-07-29 16:00:00+00:00,0.0,2023-07-29 15:56,70.0,54.0,,1010.3,,5.75,29.85,56.82,5.0,70.0,,,M,,,GNR,1053818,2023-07-29 16:00:00+00:00,813.0,2.35,,
246466,2023-07-29 17:00:00+00:00,0.0,2023-07-29 16:56,68.0,54.0,,1009.4,330.0,5.75,29.82,60.86,5.0,68.0,,,M,,,GNR,1053822,2023-07-29 17:00:00+00:00,5460.0,5.02,,
246467,2023-07-29 18:00:00+00:00,0.0,2023-07-29 17:56,67.0,55.0,,1009.1,330.0,4.6,29.81,65.33,4.0,67.0,,,M,,,GNR,1053826,2023-07-29 18:00:00+00:00,5510.0,5.04,,
246468,2023-07-29 19:00:00+00:00,0.0,2023-07-29 18:56,68.0,52.0,,1008.6,310.0,8.05,29.8,56.55,7.0,68.0,,,M,,,GNR,1053830,2023-07-29 19:00:00+00:00,4640.0,4.65,,
246469,2023-07-29 20:00:00+00:00,0.0,2023-07-29 19:56,65.0,51.0,,1008.3,330.0,6.9,29.78,60.47,6.0,65.0,,,M,,,GNR,1053834,2023-07-29 20:00:00+00:00,3260.0,3.99,,
246470,2023-07-29 21:00:00+00:00,0.0,2023-07-29 20:56,64.0,50.0,,1008.1,320.0,8.05,29.77,60.34,7.0,64.0,,14.0,M,,,GNR,1053838,2023-07-29 21:00:00+00:00,6680.0,5.53,,
246471,2023-07-29 22:00:00+00:00,0.0,2023-07-29 21:56,61.0,54.0,,1008.4,320.0,9.2,29.78,77.72,8.0,61.0,,,M,,,GNR,1053842,2023-07-29 22:00:00+00:00,7940.0,6.04,,
246472,2023-07-29 23:00:00+00:00,0.25,2023-07-29 22:56,59.0,54.0,,1009.2,310.0,11.5,29.8,83.46,10.0,59.0,,16.0,M,,,GNR,1053846,2023-07-29 23:00:00+00:00,7990.0,6.06,,
246473,2023-07-30 00:00:00+00:00,1.27,2023-07-29 23:56,58.0,56.0,,1008.2,330.0,11.5,29.78,93.04,10.0,58.0,,,M,,,GNR,1053850,2023-07-30 00:00:00+00:00,8020.0,6.07,,
246474,2023-07-30 01:00:00+00:00,2.54,2023-07-30 00:56,59.0,57.0,,1007.5,10.0,6.9,29.76,93.07,6.0,59.0,,,M,,,GNR,1053854,2023-07-30 01:00:00+00:00,8020.0,6.07,,
246475,2023-07-30 02:00:00+00:00,1.02,2023-07-30 01:56,59.0,56.0,,1007.6,340.0,10.35,29.76,89.76,9.0,59.0,,18.0,M,,,GNR,1053858,2023-07-30 02:00:00+00:00,8040.0,6.08,,
246476,2023-07-30 03:00:00+00:00,0.0,2023-07-30 02:56,59.0,56.0,,1007.0,340.0,9.2,29.74,89.76,8.0,59.0,,,M,,,GNR,1053862,2023-07-30 03:00:00+00:00,4380.0,4.53,,
246477,2023-07-30 04:00:00+00:00,0.0,2023-07-30 03:56,58.0,55.0,,1007.1,340.0,9.2,29.74,89.72,8.0,58.0,,,M,,,GNR,1053866,2023-07-30 04:00:00+00:00,1800.0,3.14,,
246478,2023-07-30 05:00:00+00:00,0.0,2023-07-30 04:56,58.0,55.0,,1007.8,340.0,10.35,29.76,89.72,9.0,58.0,,,M,,,GNR,1053870,2023-07-30 05:00:00+00:00,1080.0,2.59,,
246479,2023-07-30 06:00:00+00:00,0.0,2023-07-30 05:56,57.0,54.0,,1007.6,340.0,11.5,29.76,89.68,10.0,57.0,,,M,,,GNR,1053874,2023-07-30 06:00:00+00:00,855.0,2.39,,
246480,2023-07-30 07:00:00+00:00,0.0,2023-07-30 06:56,56.0,51.0,,1007.5,330.0,11.5,29.75,83.26,10.0,56.0,,,M,,,GNR,1053878,2023-07-30 07:00:00+00:00,813.0,2.35,,
246481,2023-07-30 08:00:00+00:00,0.0,2023-07-30 07:56,56.0,53.0,,1008.4,,5.75,29.78,89.64,5.0,56.0,,,M,,,GNR,1053882,2023-07-30 08:00:00+00:00,803.0,2.34,,
246482,2023-07-30 09:00:00+00:00,0.0,2023-07-30 08:56,56.0,53.0,,1008.1,320.0,8.05,29.77,89.64,7.0,56.0,,,M,,,GNR,1053886,2023-07-30 09:00:00+00:00,803.0,2.34,,
246483,2023-07-30 10:00:00+00:00,0.0,2023-07-30 09:56,55.0,50.0,,1008.0,330.0,10.35,29.76,83.2,9.0,55.0,,,M,,,GNR,1053890,2023-07-30 10:00:00+00:00,793.0,2.33,,
246484,2023-07-30 11:00:00+00:00,0.0,2023-07-30 10:56,58.0,53.0,,1008.7,300.0,8.05,29.78,83.39,7.0,58.0,,,M,,,GNR,1053894,2023-07-30 11:00:00+00:00,783.0,2.32,,
246485,2023-07-30 12:00:00+00:00,0.0,2023-07-30 11:56,59.0,50.0,,1009.0,340.0,6.9,29.79,72.01,6.0,59.0,,17.0,M,,,GNR,1053898,2023-07-30 12:00:00+00:00,783.0,2.32,,
246486,2023-07-30 13:00:00+00:00,0.0,2023-07-30 12:56,58.0,51.0,,1009.2,,6.9,29.8,77.47,6.0,58.0,,16.0,M,,,GNR,1053902,2023-07-30 13:00:00+00:00,783.0,2.32,,
246487,2023-07-30 14:00:00+00:00,0.0,2023-07-30 13:56,61.0,51.0,,1009.4,330.0,9.2,29.81,69.6,8.0,61.0,,19.0,M,,,GNR,1053906,2023-07-30 14:00:00+00:00,783.0,2.32,,
246488,2023-07-30 15:00:00+00:00,0.0,2023-07-30 14:56,63.0,50.0,,1009.8,340.0,16.1,29.82,62.49,14.0,63.0,,20.0,M,,,GNR,1053910,2023-07-30 15:00:00+00:00,773.0,2.31,,
246489,2023-07-30 16:00:00+00:00,0.0,2023-07-30 15:56,64.0,50.0,,1009.8,330.0,12.65,29.82,60.34,11.0,64.0,,18.0,M,,,GNR,1053914,2023-07-30 16:00:00+00:00,773.0,2.31,,
246490,2023-07-30 17:00:00+00:00,0.0,2023-07-30 16:56,65.0,50.0,,1010.0,330.0,13.8,29.83,58.26,12.0,65.0,,21.0,M,,,GNR,1053918,2023-07-30 17:00:00+00:00,5460.0,5.02,,
246491,2023-07-30 18:00:00+00:00,0.0,2023-07-30 17:56,67.0,51.0,,1010.1,320.0,8.05,29.83,56.41,7.0,67.0,,15.0,M,,,GNR,1053922,2023-07-30 18:00:00+00:00,5460.0,5.02,,
246492,2023-07-30 19:00:00+00:00,0.0,2023-07-30 18:56,69.0,50.0,,1009.9,320.0,10.35,29.82,50.74,9.0,69.0,,16.0,M,,,GNR,1053926,2023-07-30 19:00:00+00:00,4100.0,4.4,,
246493,2023-07-30 20:00:00+00:00,0.0,2023-07-30 19:56,70.0,49.0,,1009.8,340.0,11.5,29.82,47.24,10.0,70.0,,17.0,M,,,GNR,1053930,2023-07-30 20:00:00+00:00,1780.0,3.13,,
246494,2023-07-30 21:00:00+00:00,0.0,2023-07-30 20:56,68.0,49.0,,1009.8,310.0,8.05,29.82,50.59,7.0,68.0,,15.0,M,,,GNR,1053934,2023-07-30 21:00:00+00:00,1040.0,2.56,,
246495,2023-07-30 22:00:00+00:00,0.0,2023-07-30 21:56,69.0,49.0,,1010.0,320.0,11.5,29.83,48.88,10.0,69.0,,17.0,M,,,GNR,1053938,2023-07-30 22:00:00+00:00,813.0,2.35,,
246496,2023-07-30 23:00:00+00:00,0.0,2023-07-30 22:56,67.0,50.0,,1010.2,,5.75,29.84,54.35,5.0,67.0,,,M,,,GNR,1053942,2023-07-30 23:00:00+00:00,7790.0,5.98,,
246497,2023-07-31 00:00:00+00:00,0.0,2023-07-30 23:56,63.0,51.0,,1010.8,,4.6,29.85,64.85,4.0,63.0,,,M,,,GNR,1053946,2023-07-31 00:00:00+00:00,7820.0,5.99,,
246498,2023-07-31 01:00:00+00:00,0.0,2023-07-31 00:56,62.0,51.0,,1011.4,300.0,4.6,29.86,67.18,4.0,62.0,,,M,,,GNR,1053950,2023-07-31 01:00:00+00:00,7890.0,6.02,,
246499,2023-07-31 02:00:00+00:00,0.0,2023-07-31 01:56,61.0,51.0,,1011.3,,3.45,29.86,69.6,3.0,61.0,,,M,,,GNR,1053954,2023-07-31 02:00:00+00:00,5190.0,4.9,,
246500,2023-07-31 03:00:00+00:00,0.0,2023-07-31 02:56,59.0,51.0,,1011.3,330.0,5.75,29.86,74.74,5.0,59.0,,,M,,,GNR,1053958,2023-07-31 03:00:00+00:00,3520.0,4.12,,
246501,2023-07-31 04:00:00+00:00,0.0,2023-07-31 03:56,58.0,52.0,,1011.3,0.0,0.0,29.86,80.38,0.0,58.0,,,M,,,GNR,1053962,2023-07-31 04:00:00+00:00,1690.0,3.07,,
246502,2023-07-31 05:00:00+00:00,0.0,2023-07-31 04:56,57.0,52.0,,1011.2,0.0,0.0,29.86,83.33,0.0,57.0,,,M,,,GNR,1053966,2023-07-31 05:00:00+00:00,1020.0,2.54,,
246503,2023-07-31 06:00:00+00:00,0.0,2023-07-31 05:56,56.0,51.0,,1011.1,0.0,0.0,29.86,83.26,0.0,56.0,,,M,,,GNR,1053970,2023-07-31 06:00:00+00:00,783.0,2.32,,
246504,2023-07-31 07:00:00+00:00,0.0,2023-07-31 06:56,54.0,50.0,,1010.9,330.0,3.45,29.85,86.29,3.0,54.0,,,M,,,GNR,1053974,2023-07-31 07:00:00+00:00,744.0,2.28,,
246505,2023-07-31 08:00:00+00:00,0.0,2023-07-31 07:56,53.0,50.0,,1010.9,0.0,0.0,29.85,89.51,0.0,53.0,,,M,,,GNR,1053978,2023-07-31 08:00:00+00:00,734.0,2.27,,
246506,2023-07-31 09:00:00+00:00,0.0,2023-07-31 08:56,53.0,50.0,,1011.3,0.0,0.0,29.86,89.51,0.0,53.0,,,M,,,GNR,1053982,2023-07-31 09:00:00+00:00,734.0,2.27,,
246507,2023-07-31 10:00:00+00:00,0.0,2023-07-31 09:56,56.0,51.0,,1011.2,0.0,0.0,29.86,83.26,0.0,56.0,,,M,,,GNR,1053986,2023-07-31 10:00:00+00:00,724.0,2.26,,
246508,2023-07-31 11:00:00+00:00,0.0,2023-07-31 10:56,57.0,52.0,,1011.5,0.0,0.0,29.87,83.33,0.0,57.0,,,M,,,GNR,1053990,2023-07-31 11:00:00+00:00,724.0,2.26,,
246509,2023-07-31 12:00:00+00:00,0.0,2023-07-31 11:56,58.0,52.0,,1012.1,0.0,0.0,29.89,80.38,0.0,58.0,,,M,,,GNR,1053994,2023-07-31 12:00:00+00:00,715.0,2.25,,
246510,2023-07-31 13:00:00+00:00,0.0,2023-07-31 12:56,59.0,52.0,,1012.4,,4.6,29.9,77.55,4.0,59.0,,,M,,,GNR,1053998,2023-07-31 13:00:00+00:00,715.0,2.25,,
246511,2023-07-31 14:00:00+00:00,0.25,2023-07-31 13:56,60.0,54.0,,1012.5,0.0,0.0,29.9,80.53,0.0,60.0,,,M,,,GNR,1054002,2023-07-31 14:00:00+00:00,715.0,2.25,,
246512,2023-07-31 15:00:00+00:00,0.0,2023-07-31 14:56,62.0,55.0,,1012.4,0.0,0.0,29.89,77.81,0.0,62.0,,,M,,,GNR,1054006,2023-07-31 15:00:00+00:00,706.0,2.24,,
246513,2023-07-31 16:00:00+00:00,0.0,2023-07-31 15:56,64.0,54.0,,1012.2,0.0,0.0,29.89,69.92,0.0,64.0,,,M,,,GNR,1054010,2023-07-31 16:00:00+00:00,706.0,2.24,,
246514,2023-07-31 17:00:00+00:00,0.0,2023-07-31 16:56,65.0,56.0,,1011.9,,3.45,29.88,72.62,3.0,65.0,,,M,,,GNR,1054014,2023-07-31 17:00:00+00:00,5390.0,4.99,,
246515,2023-07-31 18:00:00+00:00,0.0,2023-07-31 17:56,65.0,58.0,,1011.6,,4.6,29.87,78.06,4.0,65.0,,,M,,,GNR,1054018,2023-07-31 18:00:00+00:00,5420.0,5.0,,
246516,2023-07-31 19:00:00+00:00,0.0,2023-07-31 18:56,68.0,53.0,,1011.2,,3.45,29.86,58.67,3.0,68.0,,,M,,,GNR,1054022,2023-07-31 19:00:00+00:00,4040.0,4.37,,
246517,2023-07-31 20:00:00+00:00,0.0,2023-07-31 19:56,62.0,54.0,,1012.3,340.0,14.95,29.89,75.02,13.0,62.0,,19.0,M,,,GNR,1054026,2023-07-31 20:00:00+00:00,1750.0,3.11,,
246518,2023-07-31 21:00:00+00:00,0.0,2023-07-31 20:56,62.0,53.0,,1012.2,350.0,11.5,29.89,72.32,10.0,62.0,,16.0,M,,,GNR,1054030,2023-07-31 21:00:00+00:00,1010.0,2.53,,
246519,2023-07-31 22:00:00+00:00,0.0,2023-07-31 21:56,61.0,53.0,,1013.1,330.0,6.9,29.91,74.93,6.0,61.0,,,M,,,GNR,1054034,2023-07-31 22:00:00+00:00,803.0,2.34,,
246520,2023-07-31 23:00:00+00:00,0.0,2023-07-31 22:56,61.0,54.0,,1013.5,310.0,4.6,29.92,77.72,4.0,61.0,,,M,,,GNR,1054038,2023-07-31 23:00:00+00:00,7790.0,5.98,,
246521,2023-08-01 00:00:00+00:00,0.0,2023-07-31 23:56,59.0,55.0,,1013.8,320.0,4.6,29.93,86.56,4.0,59.0,,,M,,,GNR,1054042,2023-08-01 00:00:00+00:00,7820.0,5.99,,
246522,2023-08-01 01:00:00+00:00,2.29,2023-08-01 00:56,56.0,53.0,,1014.7,300.0,4.6,29.96,89.64,4.0,56.0,,,M,,,GNR,1054046,2023-08-01 01:00:00+00:00,7840.0,6.0,,
246523,2023-08-01 02:00:00+00:00,0.0,2023-08-01 01:56,55.0,52.0,,1015.0,290.0,3.45,29.97,89.59,3.0,55.0,,,M,,,GNR,1054050,2023-08-01 02:00:00+00:00,7870.0,6.01,,
246524,2023-08-01 03:00:00+00:00,0.0,2023-08-01 02:56,56.0,53.0,,1015.1,290.0,3.45,29.97,89.64,3.0,56.0,,,M,,,GNR,1054054,2023-08-01 03:00:00+00:00,4040.0,4.37,,
246525,2023-08-01 04:00:00+00:00,0.0,2023-08-01 03:56,55.0,52.0,,1015.3,310.0,4.6,29.98,89.59,4.0,55.0,,,M,,,GNR,1054058,2023-08-01 04:00:00+00:00,1680.0,3.06,,
246526,2023-08-01 05:00:00+00:00,0.0,2023-08-01 04:56,55.0,51.0,,1015.3,310.0,6.9,29.98,86.34,6.0,55.0,,,M,,,GNR,1054062,2023-08-01 05:00:00+00:00,987.0,2.51,,
246527,2023-08-01 06:00:00+00:00,0.0,2023-08-01 05:56,55.0,52.0,,1015.4,340.0,5.75,29.98,89.59,5.0,55.0,,,M,,,GNR,1054066,2023-08-01 06:00:00+00:00,753.0,2.29,,
246528,2023-08-01 07:00:00+00:00,0.0,2023-08-01 06:56,52.0,50.0,,1015.3,0.0,0.0,29.98,92.86,0.0,52.0,,,M,,,GNR,1054070,2023-08-01 07:00:00+00:00,715.0,2.25,,
246529,2023-08-01 08:00:00+00:00,0.0,2023-08-01 07:56,54.0,50.0,,1015.8,360.0,5.75,29.99,86.29,5.0,54.0,,,M,,,GNR,1054074,2023-08-01 08:00:00+00:00,696.0,2.23,,
246530,2023-08-01 09:00:00+00:00,0.0,2023-08-01 08:56,51.0,48.0,,1016.0,340.0,4.6,30.0,89.42,4.0,51.0,,,M,,,GNR,1054078,2023-08-01 09:00:00+00:00,696.0,2.23,,
246531,2023-08-01 10:00:00+00:00,0.0,2023-08-01 09:56,52.0,48.0,,1016.7,330.0,6.9,30.01,86.17,6.0,52.0,,,M,,,GNR,1054082,2023-08-01 10:00:00+00:00,696.0,2.23,,
246532,2023-08-01 11:00:00+00:00,0.0,2023-08-01 10:56,55.0,50.0,,1017.2,350.0,4.6,30.03,83.2,4.0,55.0,,,M,,,GNR,1054086,2023-08-01 11:00:00+00:00,687.0,2.22,,
246533,2023-08-01 12:00:00+00:00,0.0,2023-08-01 11:56,57.0,49.0,,1017.8,340.0,6.9,30.05,74.55,6.0,57.0,,,M,,,GNR,1054090,2023-08-01 12:00:00+00:00,687.0,2.22,,
246534,2023-08-01 13:00:00+00:00,0.0,2023-08-01 12:56,60.0,49.0,,1018.1,320.0,8.05,30.06,66.95,7.0,60.0,,,M,,,GNR,1054094,2023-08-01 13:00:00+00:00,687.0,2.22,,
246535,2023-08-01 14:00:00+00:00,0.0,2023-08-01 13:56,62.0,50.0,,1018.1,350.0,6.9,30.06,64.73,6.0,62.0,,,M,,,GNR,1054098,2023-08-01 14:00:00+00:00,678.0,2.21,,
246536,2023-08-01 15:00:00+00:00,0.0,2023-08-01 14:56,62.0,47.0,,1018.3,300.0,8.05,30.07,57.85,7.0,62.0,,,M,,,GNR,1054102,2023-08-01 15:00:00+00:00,678.0,2.21,,
246537,2023-08-01 16:00:00+00:00,0.0,2023-08-01 15:56,65.0,46.0,,1018.2,340.0,14.95,30.06,50.14,13.0,65.0,,18.0,M,,,GNR,1054106,2023-08-01 16:00:00+00:00,678.0,2.21,,
246538,2023-08-01 17:00:00+00:00,0.0,2023-08-01 16:56,64.0,48.0,,1018.1,350.0,8.05,30.06,55.99,7.0,64.0,,18.0,M,,,GNR,1054110,2023-08-01 17:00:00+00:00,5350.0,4.97,,
246539,2023-08-01 18:00:00+00:00,0.0,2023-08-01 17:56,61.0,47.0,,1018.5,320.0,10.35,30.07,59.94,9.0,61.0,,21.0,M,,,GNR,1054114,2023-08-01 18:00:00+00:00,5390.0,4.99,,
246540,2023-08-01 19:00:00+00:00,0.0,2023-08-01 18:56,63.0,47.0,,1018.3,290.0,5.75,30.07,55.85,5.0,63.0,,17.0,M,,,GNR,1054118,2023-08-01 19:00:00+00:00,4020.0,4.36,,
246541,2023-08-01 20:00:00+00:00,0.0,2023-08-01 19:56,62.0,48.0,,1018.6,,,30.07,60.07,,62.0,,,M,,,GNR,1054122,2023-08-01 20:00:00+00:00,1720.0,3.09,,
246542,2023-08-01 21:00:00+00:00,0.0,2023-08-01 20:56,65.0,50.0,,1018.8,,6.9,30.08,58.26,6.0,65.0,,,M,,,GNR,1054126,2023-08-01 21:00:00+00:00,987.0,2.51,,
246543,2023-08-01 22:00:00+00:00,0.0,2023-08-01 21:56,64.0,46.0,,1018.9,310.0,10.35,30.08,51.93,9.0,64.0,,17.0,M,,,GNR,1054130,2023-08-01 22:00:00+00:00,734.0,2.27,,
246544,2023-08-01 23:00:00+00:00,0.0,2023-08-01 22:56,62.0,46.0,,1019.2,310.0,5.75,30.09,55.71,5.0,62.0,,,M,,,GNR,1054134,2023-08-01 23:00:00+00:00,7820.0,5.99,,
246545,2023-08-02 00:00:00+00:00,0.0,2023-08-01 23:56,59.0,47.0,,1019.8,300.0,4.6,30.11,64.36,4.0,59.0,,,M,,,GNR,1054138,2023-08-02 00:00:00+00:00,7840.0,6.0,,
246546,2023-08-02 01:00:00+00:00,0.0,2023-08-02 00:56,57.0,46.0,,1020.6,310.0,5.75,30.13,66.59,5.0,57.0,,,M,,,GNR,1054142,2023-08-02 01:00:00+00:00,7840.0,6.0,,
246547,2023-08-02 02:00:00+00:00,0.0,2023-08-02 01:56,56.0,47.0,,1021.0,300.0,6.9,30.14,71.7,6.0,56.0,,,M,,,GNR,1054146,2023-08-02 02:00:00+00:00,7870.0,6.01,,
246548,2023-08-02 03:00:00+00:00,0.0,2023-08-02 02:56,55.0,47.0,,1021.0,310.0,5.75,30.14,74.36,5.0,55.0,,,M,,,GNR,1054150,2023-08-02 03:00:00+00:00,4060.0,4.38,,
246549,2023-08-02 04:00:00+00:00,0.0,2023-08-02 03:56,54.0,48.0,,1020.7,310.0,4.6,30.14,80.07,4.0,54.0,,,M,,,GNR,1054154,2023-08-02 04:00:00+00:00,1650.0,3.04,,
246550,2023-08-02 05:00:00+00:00,0.0,2023-08-02 04:56,54.0,47.0,,1020.6,310.0,6.9,30.13,77.12,6.0,54.0,,,M,,,GNR,1054158,2023-08-02 05:00:00+00:00,964.0,2.49,,
246551,2023-08-02 06:00:00+00:00,0.0,2023-08-02 05:56,53.0,47.0,,1021.0,330.0,5.75,30.14,80.0,5.0,53.0,,,M,,,GNR,1054162,2023-08-02 06:00:00+00:00,724.0,2.26,,
246552,2023-08-02 07:00:00+00:00,0.0,2023-08-02 06:56,52.0,47.0,,1020.9,340.0,6.9,30.14,82.99,6.0,52.0,,,M,,,GNR,1054166,2023-08-02 07:00:00+00:00,678.0,2.21,,
246553,2023-08-02 08:00:00+00:00,0.0,2023-08-02 07:56,52.0,47.0,,1021.1,340.0,8.05,30.14,82.99,7.0,52.0,,,M,,,GNR,1054170,2023-08-02 08:00:00+00:00,669.0,2.2,,
246554,2023-08-02 09:00:00+00:00,0.0,2023-08-02 08:56,52.0,47.0,,1021.1,330.0,8.05,30.15,82.99,7.0,52.0,,,M,,,GNR,1054174,2023-08-02 09:00:00+00:00,660.0,2.19,,
246555,2023-08-02 10:00:00+00:00,0.0,2023-08-02 09:56,52.0,47.0,,1021.4,340.0,8.05,30.15,82.99,7.0,52.0,,,M,,,GNR,1054178,2023-08-02 10:00:00+00:00,660.0,2.19,,
246556,2023-08-02 11:00:00+00:00,0.0,2023-08-02 10:56,56.0,49.0,,1021.8,350.0,4.6,30.17,77.29,4.0,56.0,,,M,,,GNR,1054182,2023-08-02 11:00:00+00:00,651.0,2.18,,
246557,2023-08-02 12:00:00+00:00,0.0,2023-08-02 11:56,59.0,51.0,,1021.9,,4.6,30.17,74.74,4.0,59.0,,,M,,,GNR,1054186,2023-08-02 12:00:00+00:00,651.0,2.18,,
246558,2023-08-02 13:00:00+00:00,0.0,2023-08-02 12:56,60.0,49.0,,1022.2,310.0,8.05,30.18,66.95,7.0,60.0,,,M,,,GNR,1054190,2023-08-02 13:00:00+00:00,651.0,2.18,,
246559,2023-08-02 14:00:00+00:00,0.0,2023-08-02 13:56,64.0,49.0,,1021.9,330.0,8.05,30.17,58.13,7.0,64.0,,,M,,,GNR,1054194,2023-08-02 14:00:00+00:00,651.0,2.18,,
246560,2023-08-02 15:00:00+00:00,0.0,2023-08-02 14:56,65.0,49.0,,1021.8,300.0,8.05,30.17,56.13,7.0,65.0,,,M,,,GNR,1054198,2023-08-02 15:00:00+00:00,651.0,2.18,,
246561,2023-08-02 16:00:00+00:00,0.0,2023-08-02 15:56,67.0,50.0,,1021.5,350.0,8.05,30.16,54.35,7.0,67.0,,,M,,,GNR,1054202,2023-08-02 16:00:00+00:00,651.0,2.18,2023-08-02 16:00:00+00:00,gs://gcp-public-data-sentinel-2/tiles/19/T/DL/S2B_MSIL1C_20230802T153559_N0509_R111_T19TDL_20230802T191324.SAFE
246562,2023-08-02 17:00:00+00:00,0.0,2023-08-02 16:56,68.0,47.0,,1021.1,340.0,6.9,30.15,46.93,6.0,68.0,,,M,,,GNR,1054206,2023-08-02 17:00:00+00:00,5350.0,4.97,,
246563,2023-08-02 18:00:00+00:00,0.0,2023-08-02 17:56,69.0,48.0,,1020.8,,6.9,30.14,47.09,6.0,69.0,,,M,,,GNR,1054210,2023-08-02 18:00:00+00:00,5370.0,4.98,,
246564,2023-08-02 19:00:00+00:00,0.0,2023-08-02 18:56,67.0,46.0,,1020.7,330.0,8.05,30.14,46.78,7.0,67.0,,,M,,,GNR,1054214,2023-08-02 19:00:00+00:00,4060.0,4.38,,
246565,2023-08-02 20:00:00+00:00,0.0,2023-08-02 19:56,67.0,44.0,,1020.7,300.0,6.9,30.14,43.35,6.0,67.0,,,M,,,GNR,1054218,2023-08-02 20:00:00+00:00,1720.0,3.09,,
246566,2023-08-02 21:00:00+00:00,0.0,2023-08-02 20:56,67.0,44.0,,1020.5,,5.75,30.13,43.35,5.0,67.0,,,M,,,GNR,1054222,2023-08-02 21:00:00+00:00,976.0,2.5,,
246567,2023-08-02 22:00:00+00:00,0.0,2023-08-02 21:56,68.0,46.0,,1020.4,300.0,4.6,30.13,45.19,4.0,68.0,,,M,,,GNR,1054226,2023-08-02 22:00:00+00:00,773.0,2.31,,
246568,2023-08-02 23:00:00+00:00,0.0,2023-08-02 22:56,66.0,46.0,,1020.4,310.0,4.6,30.13,48.43,4.0,66.0,,,M,,,GNR,1054230,2023-08-02 23:00:00+00:00,7720.0,5.95,,
246569,2023-08-03 00:00:00+00:00,0.0,2023-08-02 23:56,62.0,47.0,,1020.5,300.0,3.45,30.13,57.85,3.0,62.0,,,M,,,GNR,1054234,2023-08-03 00:00:00+00:00,7770.0,5.97,,
246570,2023-08-03 01:00:00+00:00,0.0,2023-08-03 00:56,59.0,48.0,,1020.8,0.0,0.0,30.14,66.83,0.0,59.0,,,M,,,GNR,1054238,2023-08-03 01:00:00+00:00,7840.0,6.0,,
246571,2023-08-03 02:00:00+00:00,0.0,2023-08-03 01:56,59.0,46.0,,1020.8,320.0,3.45,30.14,61.98,3.0,59.0,,,M,,,GNR,1054242,2023-08-03 02:00:00+00:00,7840.0,6.0,,
246572,2023-08-03 03:00:00+00:00,0.0,2023-08-03 02:56,56.0,46.0,,1020.5,20.0,3.45,30.13,69.05,3.0,56.0,,,M,,,GNR,1054246,2023-08-03 03:00:00+00:00,3910.0,4.31,,
246573,2023-08-03 04:00:00+00:00,0.0,2023-08-03 03:56,55.0,48.0,,1020.7,0.0,0.0,30.14,77.21,0.0,55.0,,,M,,,GNR,1054250,2023-08-03 04:00:00+00:00,1610.0,3.01,,
246574,2023-08-03 05:00:00+00:00,0.0,2023-08-03 04:56,53.0,47.0,,1020.4,0.0,0.0,30.13,80.0,0.0,53.0,,,M,,,GNR,1054254,2023-08-03 05:00:00+00:00,930.0,2.46,,
246575,2023-08-03 06:00:00+00:00,0.0,2023-08-03 05:56,53.0,45.0,,1020.0,0.0,0.0,30.12,74.16,0.0,53.0,,,M,,,GNR,1054258,2023-08-03 06:00:00+00:00,696.0,2.23,,
246576,2023-08-03 07:00:00+00:00,0.0,2023-08-03 06:56,52.0,46.0,,1019.7,0.0,0.0,30.11,79.92,0.0,52.0,,,M,,,GNR,1054262,2023-08-03 07:00:00+00:00,651.0,2.18,,
246577,2023-08-03 08:00:00+00:00,0.0,2023-08-03 07:56,53.0,45.0,,1019.5,0.0,0.0,30.1,74.16,0.0,53.0,,,M,,,GNR,1054266,2023-08-03 08:00:00+00:00,642.0,2.17,,
246578,2023-08-03 09:00:00+00:00,0.0,2023-08-03 08:56,51.0,45.0,,1019.5,0.0,0.0,30.1,79.84,0.0,51.0,,,M,,,GNR,1054270,2023-08-03 09:00:00+00:00,633.0,2.16,,
246579,2023-08-03 10:00:00+00:00,0.0,2023-08-03 09:56,51.0,45.0,,1019.2,110.0,3.45,30.09,79.84,3.0,51.0,,,M,,,GNR,1054274,2023-08-03 10:00:00+00:00,625.0,2.15,,
246580,2023-08-03 11:00:00+00:00,0.0,2023-08-03 10:56,58.0,50.0,,1019.1,0.0,0.0,30.09,74.64,0.0,58.0,,,M,,,GNR,1054278,2023-08-03 11:00:00+00:00,625.0,2.15,,
246581,2023-08-03 12:00:00+00:00,0.0,2023-08-03 11:56,60.0,49.0,,1019.2,140.0,5.75,30.09,66.95,5.0,60.0,,,M,,,GNR,1054282,2023-08-03 12:00:00+00:00,625.0,2.15,,
246582,2023-08-03 13:00:00+00:00,0.0,2023-08-03 12:56,64.0,51.0,,1019.0,140.0,6.9,30.09,62.62,6.0,64.0,,,M,,,GNR,1054286,2023-08-03 13:00:00+00:00,625.0,2.15,,
246583,2023-08-03 14:00:00+00:00,0.0,2023-08-03 13:56,66.0,52.0,,1018.6,,4.6,30.08,60.6,4.0,66.0,,,M,,,GNR,1054290,2023-08-03 14:00:00+00:00,608.0,2.13,,
246584,2023-08-03 15:00:00+00:00,0.0,2023-08-03 14:56,69.0,53.0,,1017.8,,6.9,30.06,56.69,6.0,69.0,,,M,,,GNR,1054294,2023-08-03 15:00:00+00:00,599.0,2.12,,
246585,2023-08-03 16:00:00+00:00,0.0,2023-08-03 15:56,71.0,54.0,,1017.2,,5.75,30.04,54.92,5.0,71.0,,,M,,,GNR,1054298,2023-08-03 16:00:00+00:00,599.0,2.12,,
246586,2023-08-03 17:00:00+00:00,0.0,2023-08-03 16:56,70.0,54.0,,1016.3,,6.9,30.01,56.82,6.0,70.0,,,M,,,GNR,1054302,2023-08-03 17:00:00+00:00,5280.0,4.94,,
246587,2023-08-03 18:00:00+00:00,0.0,2023-08-03 17:56,70.0,55.0,,1015.9,,6.9,30.0,58.94,6.0,70.0,,,M,,,GNR,1054306,2023-08-03 18:00:00+00:00,5300.0,4.95,,
246588,2023-08-03 19:00:00+00:00,0.0,2023-08-03 18:56,68.0,54.0,,1015.7,190.0,8.05,29.99,60.86,7.0,68.0,,,M,,,GNR,1054310,2023-08-03 19:00:00+00:00,4040.0,4.37,,
246589,2023-08-03 20:00:00+00:00,0.0,2023-08-03 19:56,68.0,55.0,,1015.5,,3.45,29.99,63.12,3.0,68.0,,,M,,,GNR,1054314,2023-08-03 20:00:00+00:00,1720.0,3.09,,
246590,2023-08-03 21:00:00+00:00,0.0,2023-08-03 20:56,68.0,55.0,,1015.3,,3.45,29.98,63.12,3.0,68.0,,,M,,,GNR,1054318,2023-08-03 21:00:00+00:00,964.0,2.49,,
246591,2023-08-03 22:00:00+00:00,0.0,2023-08-03 21:56,67.0,55.0,,1015.2,150.0,6.9,29.97,65.33,6.0,67.0,,,M,,,GNR,1054322,2023-08-03 22:00:00+00:00,2790.0,3.74,,
246592,2023-08-03 23:00:00+00:00,0.0,2023-08-03 22:56,66.0,55.0,,1015.2,,6.9,29.98,67.64,6.0,66.0,,,M,,,GNR,1054326,2023-08-03 23:00:00+00:00,8730.0,6.35,,
246593,2023-08-04 00:00:00+00:00,0.0,2023-08-03 23:56,64.0,54.0,,1015.1,,6.9,29.98,69.92,6.0,64.0,,,M,,,GNR,1054330,2023-08-04 00:00:00+00:00,8750.0,6.36,,
246594,2023-08-04 01:00:00+00:00,0.0,2023-08-04 00:56,63.0,56.0,,1015.2,,,29.98,77.89,,63.0,,,M,,,GNR,1054334,2023-08-04 01:00:00+00:00,8780.0,6.37,,
246595,2023-08-04 02:00:00+00:00,0.0,2023-08-04 01:56,61.0,57.0,,1014.7,150.0,8.05,29.97,86.67,7.0,61.0,,,M,,,GNR,1054338,2023-08-04 02:00:00+00:00,8810.0,6.38,,
246596,2023-08-04 03:00:00+00:00,0.0,2023-08-04 02:56,60.0,58.0,,1014.0,,5.75,29.95,93.1,5.0,60.0,,,M,,,GNR,1054342,2023-08-04 03:00:00+00:00,8810.0,6.38,,
246597,2023-08-04 04:00:00+00:00,0.0,2023-08-04 03:56,60.0,59.0,,1013.8,150.0,6.9,29.94,96.49,6.0,60.0,,,M,,,GNR,1054346,2023-08-04 04:00:00+00:00,4230.0,4.46,,
246598,2023-08-04 05:00:00+00:00,0.0,2023-08-04 04:56,60.0,59.0,,1013.3,150.0,6.9,29.93,96.49,6.0,60.0,,,M,,,GNR,1054350,2023-08-04 05:00:00+00:00,1660.0,3.05,,
246599,2023-08-04 06:00:00+00:00,0.0,2023-08-04 05:56,60.0,59.0,,1013.0,160.0,5.75,29.92,96.49,5.0,60.0,,,M,,,GNR,1054354,2023-08-04 06:00:00+00:00,942.0,2.47,,
246600,2023-08-04 07:00:00+00:00,0.0,2023-08-04 06:56,60.0,59.0,,1013.0,150.0,4.6,29.92,96.49,4.0,60.0,,,M,,,GNR,1054358,2023-08-04 07:00:00+00:00,696.0,2.23,,
246601,2023-08-04 08:00:00+00:00,0.0,2023-08-04 07:56,60.0,59.0,,1012.6,,3.45,29.91,96.49,3.0,60.0,,,M,,,GNR,1054362,2023-08-04 08:00:00+00:00,642.0,2.17,,
246602,2023-08-04 09:00:00+00:00,0.0,2023-08-04 08:56,60.0,59.0,,1012.6,140.0,6.9,29.91,96.49,6.0,60.0,,,M,,,GNR,1054366,2023-08-04 09:00:00+00:00,633.0,2.16,,
246603,2023-08-04 10:00:00+00:00,0.0,2023-08-04 09:56,60.0,58.0,,1012.7,,6.9,29.91,93.1,6.0,60.0,,,M,,,GNR,1054370,2023-08-04 10:00:00+00:00,625.0,2.15,,
246604,2023-08-04 11:00:00+00:00,0.51,2023-08-04 10:56,59.0,58.0,,1012.8,,4.6,29.91,96.48,4.0,59.0,,,M,,,GNR,1054374,2023-08-04 11:00:00+00:00,625.0,2.15,,
246605,2023-08-04 12:00:00+00:00,0.25,2023-08-04 11:56,59.0,58.0,,1013.1,,3.45,29.92,96.48,3.0,59.0,,,M,,,GNR,1054378,2023-08-04 12:00:00+00:00,616.0,2.14,,
246606,2023-08-04 13:00:00+00:00,0.25,2023-08-04 12:56,60.0,58.0,,1013.0,,3.45,29.91,93.1,3.0,60.0,,,M,,,GNR,1054382,2023-08-04 13:00:00+00:00,616.0,2.14,,
246607,2023-08-04 14:00:00+00:00,2.03,2023-08-04 13:56,60.0,59.0,,1012.9,150.0,6.9,29.91,96.49,6.0,60.0,,,M,,,GNR,1054386,2023-08-04 14:00:00+00:00,625.0,2.15,,
246608,2023-08-04 15:00:00+00:00,1.27,2023-08-04 14:56,61.0,60.0,,1013.1,,3.45,29.92,96.51,3.0,61.0,,,M,,,GNR,1054390,2023-08-04 15:00:00+00:00,625.0,2.15,,
246609,2023-08-04 16:00:00+00:00,0.25,2023-08-04 15:56,61.0,59.0,,1013.0,0.0,0.0,29.91,93.12,0.0,61.0,,,M,,,GNR,1054394,2023-08-04 16:00:00+00:00,616.0,2.14,,
246610,2023-08-04 17:00:00+00:00,0.0,2023-08-04 16:56,61.0,60.0,,1013.0,,4.6,29.91,96.51,4.0,61.0,,,M,,,GNR,1054398,2023-08-04 17:00:00+00:00,5300.0,4.95,,
246611,2023-08-04 18:00:00+00:00,0.0,2023-08-04 17:56,62.0,60.0,,1013.2,,3.45,29.92,93.15,3.0,62.0,,,M,,,GNR,1054402,2023-08-04 18:00:00+00:00,5350.0,4.97,,
246612,2023-08-04 19:00:00+00:00,0.0,2023-08-04 18:56,63.0,61.0,,1012.8,160.0,5.75,29.91,93.18,5.0,63.0,,,M,,,GNR,1054406,2023-08-04 19:00:00+00:00,4060.0,4.38,,
246613,2023-08-04 20:00:00+00:00,0.0,2023-08-04 19:56,63.0,61.0,,1013.0,140.0,4.6,29.91,93.18,4.0,63.0,,,M,,,GNR,1054410,2023-08-04 20:00:00+00:00,1720.0,3.09,,
246614,2023-08-04 21:00:00+00:00,0.0,2023-08-04 20:56,65.0,62.0,,1012.7,140.0,8.05,29.91,90.01,7.0,65.0,,,M,,,GNR,1054414,2023-08-04 21:00:00+00:00,964.0,2.49,,
246615,2023-08-04 22:00:00+00:00,1.27,2023-08-04 21:56,64.0,62.0,,1012.8,190.0,6.9,29.91,93.21,6.0,64.0,,,M,,,GNR,1054418,2023-08-04 22:00:00+00:00,1290.0,2.77,,
246616,2023-08-04 23:00:00+00:00,1.78,2023-08-04 22:56,63.0,62.0,,1012.9,150.0,6.9,29.91,96.54,6.0,63.0,,,M,,,GNR,1054422,2023-08-04 23:00:00+00:00,8810.0,6.38,,
246617,2023-08-05 00:00:00+00:00,0.0,2023-08-04 23:56,62.0,61.0,,1013.4,,6.9,29.92,96.52,6.0,62.0,,,M,,,GNR,1054426,2023-08-05 00:00:00+00:00,8830.0,6.39,,
246618,2023-08-05 01:00:00+00:00,0.0,2023-08-05 00:56,61.0,60.0,,1013.5,,3.45,29.93,96.51,3.0,61.0,,,M,,,GNR,1054430,2023-08-05 01:00:00+00:00,8860.0,6.4,,
246619,2023-08-05 02:00:00+00:00,0.0,2023-08-05 01:56,61.0,60.0,,1013.2,140.0,8.05,29.92,96.51,7.0,61.0,,,M,,,GNR,1054434,2023-08-05 02:00:00+00:00,8860.0,6.4,,
246620,2023-08-05 03:00:00+00:00,0.0,2023-08-05 02:56,61.0,60.0,,1013.4,,3.45,29.92,96.51,3.0,61.0,,,M,,,GNR,1054438,2023-08-05 03:00:00+00:00,4210.0,4.45,,
246621,2023-08-05 04:00:00+00:00,0.0,2023-08-05 03:56,61.0,60.0,,1013.0,,3.45,29.91,96.51,3.0,61.0,,,M,,,GNR,1054442,2023-08-05 04:00:00+00:00,1660.0,3.05,,
246622,2023-08-05 05:00:00+00:00,0.0,2023-08-05 04:56,61.0,60.0,,1013.2,,3.45,29.92,96.51,3.0,61.0,,,M,,,GNR,1054446,2023-08-05 05:00:00+00:00,964.0,2.49,,
246623,2023-08-05 06:00:00+00:00,0.25,2023-08-05 05:56,61.0,60.0,,1012.9,0.0,0.0,29.91,96.51,0.0,61.0,,,M,,,GNR,1054450,2023-08-05 06:00:00+00:00,773.0,2.31,,
246624,2023-08-05 07:00:00+00:00,10.16,2023-08-05 06:56,60.0,60.0,,1012.6,0.0,0.0,29.91,100.0,0.0,60.0,,,M,,,GNR,1054454,2023-08-05 07:00:00+00:00,715.0,2.25,,
246625,2023-08-05 08:00:00+00:00,0.25,2023-08-05 07:56,60.0,59.0,,1012.5,0.0,0.0,29.9,96.49,0.0,60.0,,,M,,,GNR,1054458,2023-08-05 08:00:00+00:00,706.0,2.24,,
246626,2023-08-05 09:00:00+00:00,0.0,2023-08-05 08:56,60.0,59.0,,1012.6,0.0,0.0,29.9,96.49,0.0,60.0,,,M,,,GNR,1054462,2023-08-05 09:00:00+00:00,724.0,2.26,,
246627,2023-08-05 10:00:00+00:00,0.0,2023-08-05 09:56,59.0,59.0,,1012.8,0.0,0.0,29.91,100.0,0.0,59.0,,,M,,,GNR,1054466,2023-08-05 10:00:00+00:00,753.0,2.29,,
246628,2023-08-05 11:00:00+00:00,0.0,2023-08-05 10:56,60.0,59.0,,1012.8,0.0,0.0,29.91,96.49,0.0,60.0,,,M,,,GNR,1054470,2023-08-05 11:00:00+00:00,763.0,2.3,,
246629,2023-08-05 12:00:00+00:00,0.0,2023-08-05 11:56,61.0,60.0,,1012.9,,4.6,29.91,96.51,4.0,61.0,,,M,,,GNR,1054474,2023-08-05 12:00:00+00:00,773.0,2.31,,
246630,2023-08-05 13:00:00+00:00,0.0,2023-08-05 12:56,64.0,60.0,,1013.4,340.0,8.05,29.93,86.83,7.0,64.0,,,M,,,GNR,1054478,2023-08-05 13:00:00+00:00,813.0,2.35,,
246631,2023-08-05 14:00:00+00:00,0.0,2023-08-05 13:56,68.0,60.0,,1013.2,,3.45,29.93,75.57,3.0,68.0,,,M,,,GNR,1054482,2023-08-05 14:00:00+00:00,813.0,2.35,,
246632,2023-08-05 15:00:00+00:00,0.0,2023-08-05 14:56,68.0,59.0,,1013.1,340.0,6.9,29.92,72.92,6.0,68.0,,,M,,,GNR,1054486,2023-08-05 15:00:00+00:00,823.0,2.36,,
246633,2023-08-05 16:00:00+00:00,4.32,2023-08-05 15:56,70.0,62.0,,1012.6,0.0,0.0,29.91,75.75,0.0,70.0,,,M,,,GNR,1054490,2023-08-05 16:00:00+00:00,823.0,2.36,2023-08-05 16:00:00+00:00,gs://gcp-public-data-sentinel-2/tiles/19/T/DL/S2B_MSIL1C_20230805T153819_N0509_R011_T19TDL_20230805T173706.SAFE
246634,2023-08-05 17:00:00+00:00,2.54,2023-08-05 16:56,70.0,61.0,,1012.4,290.0,8.05,29.9,73.11,7.0,70.0,,,M,,,GNR,1054494,2023-08-05 17:00:00+00:00,5510.0,5.04,,
246635,2023-08-05 18:00:00+00:00,0.0,2023-08-05 17:56,70.0,55.0,,1012.3,320.0,8.05,29.9,58.94,7.0,70.0,,15.0,M,,,GNR,1054498,2023-08-05 18:00:00+00:00,5530.0,5.05,,
246636,2023-08-05 19:00:00+00:00,0.0,2023-08-05 18:56,72.0,54.0,,1012.4,300.0,8.05,29.9,53.09,7.0,72.0,,19.0,M,,,GNR,1054502,2023-08-05 19:00:00+00:00,4490.0,4.58,,
246637,2023-08-05 20:00:00+00:00,0.0,2023-08-05 19:56,71.0,53.0,,1012.5,310.0,8.05,29.91,52.95,7.0,71.0,,14.0,M,,,GNR,1054506,2023-08-05 20:00:00+00:00,3320.0,4.02,,
246638,2023-08-05 21:00:00+00:00,0.0,2023-08-05 20:56,71.0,50.0,,1012.7,300.0,8.05,29.91,47.39,7.0,71.0,,17.0,M,,,GNR,1054510,2023-08-05 21:00:00+00:00,3260.0,3.99,,
246639,2023-08-05 22:00:00+00:00,0.0,2023-08-05 21:56,70.0,54.0,,1012.8,310.0,8.05,29.92,56.82,7.0,70.0,,,M,,,GNR,1054514,2023-08-05 22:00:00+00:00,3260.0,3.99,,
246640,2023-08-05 23:00:00+00:00,0.0,2023-08-05 22:56,66.0,54.0,,1013.5,,5.75,29.93,65.21,5.0,66.0,,,M,,,GNR,1054518,2023-08-05 23:00:00+00:00,6860.0,5.6,,
246641,2023-08-06 00:00:00+00:00,0.0,2023-08-05 23:56,64.0,54.0,,1013.9,310.0,5.75,29.94,69.92,5.0,64.0,,,M,,,GNR,1054522,2023-08-06 00:00:00+00:00,7990.0,6.06,,
246642,2023-08-06 01:00:00+00:00,0.0,2023-08-06 00:56,62.0,54.0,,1013.9,300.0,8.05,29.94,75.02,7.0,62.0,,15.0,M,,,GNR,1054526,2023-08-06 01:00:00+00:00,8070.0,6.09,,
246643,2023-08-06 02:00:00+00:00,0.0,2023-08-06 01:56,61.0,54.0,,1013.9,320.0,9.2,29.95,77.72,8.0,61.0,,17.0,M,,,GNR,1054530,2023-08-06 02:00:00+00:00,4400.0,4.54,,
246644,2023-08-06 03:00:00+00:00,0.0,2023-08-06 02:56,59.0,54.0,,1013.8,310.0,5.75,29.94,83.46,5.0,59.0,,,M,,,GNR,1054534,2023-08-06 03:00:00+00:00,1780.0,3.13,,
246645,2023-08-06 04:00:00+00:00,0.0,2023-08-06 03:56,59.0,54.0,,1014.1,310.0,6.9,29.95,83.46,6.0,59.0,,,M,,,GNR,1054538,2023-08-06 04:00:00+00:00,1050.0,2.57,,
246646,2023-08-06 05:00:00+00:00,0.0,2023-08-06 04:56,59.0,53.0,,1013.7,310.0,5.75,29.94,80.46,5.0,59.0,,,M,,,GNR,1054542,2023-08-06 05:00:00+00:00,823.0,2.36,,
246647,2023-08-06 06:00:00+00:00,0.0,2023-08-06 05:56,59.0,53.0,,1013.5,320.0,3.45,29.94,80.46,3.0,59.0,,,M,,,GNR,1054546,2023-08-06 06:00:00+00:00,793.0,2.33,,
246648,2023-08-06 07:00:00+00:00,0.0,2023-08-06 06:56,60.0,53.0,,1013.4,350.0,5.75,29.93,77.64,5.0,60.0,,,M,,,GNR,1054550,2023-08-06 07:00:00+00:00,783.0,2.32,,
246649,2023-08-06 08:00:00+00:00,0.0,2023-08-06 07:56,58.0,53.0,,1013.2,350.0,9.2,29.93,83.39,8.0,58.0,,,M,,,GNR,1054554,2023-08-06 08:00:00+00:00,773.0,2.31,,
246650,2023-08-06 09:00:00+00:00,0.0,2023-08-06 08:56,54.0,52.0,,1013.8,0.0,0.0,29.94,92.92,0.0,54.0,,,M,,,GNR,1054558,2023-08-06 09:00:00+00:00,763.0,2.3,,
246651,2023-08-06 10:00:00+00:00,0.0,2023-08-06 09:56,55.0,52.0,,1014.0,0.0,0.0,29.94,89.59,0.0,55.0,,,M,,,GNR,1054562,2023-08-06 10:00:00+00:00,753.0,2.29,,
246652,2023-08-06 11:00:00+00:00,0.0,2023-08-06 10:56,60.0,54.0,,1014.2,0.0,0.0,29.95,80.53,0.0,60.0,,,M,,,GNR,1054566,2023-08-06 11:00:00+00:00,744.0,2.28,,
246653,2023-08-06 12:00:00+00:00,0.0,2023-08-06 11:56,63.0,55.0,,1014.0,310.0,4.6,29.95,75.11,4.0,63.0,,,M,,,GNR,1054570,2023-08-06 12:00:00+00:00,744.0,2.28,,
246654,2023-08-06 13:00:00+00:00,0.0,2023-08-06 12:56,68.0,54.0,,1013.1,,,29.93,60.86,,68.0,,,M,,,GNR,1054574,2023-08-06 13:00:00+00:00,734.0,2.27,,
246655,2023-08-06 14:00:00+00:00,0.0,2023-08-06 13:56,69.0,51.0,,1012.9,310.0,10.35,29.92,52.66,9.0,69.0,,18.0,M,,,GNR,1054578,2023-08-06 14:00:00+00:00,724.0,2.26,,
246656,2023-08-06 15:00:00+00:00,0.0,2023-08-06 14:56,70.0,48.0,,1012.7,310.0,14.95,29.91,45.5,13.0,70.0,,26.0,M,29.0,,GNR,1054582,2023-08-06 15:00:00+00:00,724.0,2.26,,
246657,2023-08-06 16:00:00+00:00,0.0,2023-08-06 15:56,72.0,48.0,,1012.6,300.0,10.35,29.91,42.51,9.0,72.0,,21.0,M,26.0,,GNR,1054586,2023-08-06 16:00:00+00:00,724.0,2.26,,
246658,2023-08-06 17:00:00+00:00,0.0,2023-08-06 16:56,73.0,46.0,,1012.6,,,29.91,38.11,,73.0,,,M,,,GNR,1054590,2023-08-06 17:00:00+00:00,5350.0,4.97,,
246659,2023-08-06 18:00:00+00:00,0.0,2023-08-06 17:56,73.0,46.0,,1012.4,310.0,13.8,29.91,38.11,12.0,73.0,,23.0,M,,,GNR,1054594,2023-08-06 18:00:00+00:00,5390.0,4.99,,
246660,2023-08-06 19:00:00+00:00,0.0,2023-08-06 18:56,74.0,47.0,,1012.6,310.0,8.05,29.91,38.27,7.0,74.0,,19.0,M,,,GNR,1054598,2023-08-06 19:00:00+00:00,4400.0,4.54,,
246661,2023-08-06 20:00:00+00:00,0.0,2023-08-06 19:56,71.0,48.0,,1012.8,310.0,8.05,29.92,43.98,7.0,71.0,,,M,,,GNR,1054602,2023-08-06 20:00:00+00:00,3180.0,3.95,,
246662,2023-08-06 21:00:00+00:00,0.0,2023-08-06 20:56,72.0,51.0,,1013.1,310.0,10.35,29.92,47.54,9.0,72.0,,20.0,M,,,GNR,1054606,2023-08-06 21:00:00+00:00,3150.0,3.93,,
246663,2023-08-06 22:00:00+00:00,0.0,2023-08-06 21:56,70.0,52.0,,1013.5,300.0,8.05,29.93,52.8,7.0,70.0,,20.0,M,,,GNR,1054610,2023-08-06 22:00:00+00:00,3130.0,3.92,,
246664,2023-08-06 23:00:00+00:00,0.0,2023-08-06 22:56,69.0,52.0,,1013.5,310.0,10.35,29.94,54.64,9.0,69.0,,20.0,M,,,GNR,1054614,2023-08-06 23:00:00+00:00,5910.0,5.21,,
246665,2023-08-07 00:00:00+00:00,0.0,2023-08-06 23:56,66.0,53.0,,1013.6,300.0,5.75,29.94,62.87,5.0,66.0,,,M,,,GNR,1054618,2023-08-07 00:00:00+00:00,7840.0,6.0,,
246666,2023-08-07 01:00:00+00:00,0.0,2023-08-07 00:56,64.0,53.0,,1014.1,320.0,3.45,29.95,67.41,3.0,64.0,,,M,,,GNR,1054622,2023-08-07 01:00:00+00:00,7920.0,6.03,,
246667,2023-08-07 02:00:00+00:00,0.0,2023-08-07 01:56,62.0,54.0,,1014.0,310.0,4.6,29.95,75.02,4.0,62.0,,,M,,,GNR,1054626,2023-08-07 02:00:00+00:00,7970.0,6.05,,
246668,2023-08-07 03:00:00+00:00,0.0,2023-08-07 02:56,62.0,54.0,,1014.0,320.0,6.9,29.95,75.02,6.0,62.0,,,M,,,GNR,1054630,2023-08-07 03:00:00+00:00,7970.0,6.05,,
246669,2023-08-07 04:00:00+00:00,0.0,2023-08-07 03:56,63.0,53.0,,1014.5,0.0,0.0,29.97,69.82,0.0,63.0,,,M,,,GNR,1054634,2023-08-07 04:00:00+00:00,3930.0,4.32,,
246670,2023-08-07 05:00:00+00:00,0.0,2023-08-07 04:56,58.0,53.0,,1014.5,0.0,0.0,29.97,83.39,0.0,58.0,,,M,,,GNR,1054638,2023-08-07 05:00:00+00:00,1620.0,3.02,,
246671,2023-08-07 06:00:00+00:00,0.0,2023-08-07 05:56,60.0,53.0,,1014.8,320.0,4.6,29.98,77.64,4.0,60.0,,,M,,,GNR,1054642,2023-08-07 06:00:00+00:00,942.0,2.47,,
246672,2023-08-07 07:00:00+00:00,0.0,2023-08-07 06:56,57.0,52.0,,1015.0,0.0,0.0,29.98,83.33,0.0,57.0,,,M,,,GNR,1054646,2023-08-07 07:00:00+00:00,724.0,2.26,,
246673,2023-08-07 08:00:00+00:00,0.0,2023-08-07 07:56,58.0,51.0,,1015.0,330.0,3.45,29.98,77.47,3.0,58.0,,,M,,,GNR,1054650,2023-08-07 08:00:00+00:00,687.0,2.22,,
246674,2023-08-07 09:00:00+00:00,0.0,2023-08-07 08:56,58.0,50.0,,1015.1,340.0,5.75,29.98,74.64,5.0,58.0,,,M,,,GNR,1054654,2023-08-07 09:00:00+00:00,678.0,2.21,,
246675,2023-08-07 10:00:00+00:00,0.0,2023-08-07 09:56,59.0,50.0,,1015.6,0.0,0.0,30.0,72.01,0.0,59.0,,,M,,,GNR,1054658,2023-08-07 10:00:00+00:00,669.0,2.2,,
246676,2023-08-07 11:00:00+00:00,0.0,2023-08-07 10:56,61.0,51.0,,1015.7,360.0,5.75,30.0,69.6,5.0,61.0,,,M,,,GNR,1054662,2023-08-07 11:00:00+00:00,669.0,2.2,,
246677,2023-08-07 12:00:00+00:00,0.0,2023-08-07 11:56,65.0,52.0,,1016.0,0.0,0.0,30.01,62.74,0.0,65.0,,,M,,,GNR,1054666,2023-08-07 12:00:00+00:00,660.0,2.19,,
246678,2023-08-07 13:00:00+00:00,0.0,2023-08-07 12:56,67.0,54.0,,1015.8,90.0,3.45,30.0,62.99,3.0,67.0,,,M,,,GNR,1054670,2023-08-07 13:00:00+00:00,660.0,2.19,,
246679,2023-08-07 14:00:00+00:00,0.0,2023-08-07 13:56,69.0,56.0,,1015.9,0.0,0.0,30.0,63.24,0.0,69.0,,,M,,,GNR,1054674,2023-08-07 14:00:00+00:00,660.0,2.19,,
246680,2023-08-07 15:00:00+00:00,0.0,2023-08-07 14:56,72.0,57.0,,1016.2,,3.45,30.02,59.2,3.0,72.0,,,M,,,GNR,1054678,2023-08-07 15:00:00+00:00,651.0,2.18,,
246681,2023-08-07 16:00:00+00:00,0.0,2023-08-07 15:56,73.0,57.0,,1015.9,,,30.01,57.23,,73.0,,,M,,,GNR,1054682,2023-08-07 16:00:00+00:00,651.0,2.18,2023-08-07 16:00:00+00:00,gs://gcp-public-data-sentinel-2/tiles/19/T/DL/S2A_MSIL1C_20230807T153601_N0509_R111_T19TDL_20230807T203257.SAFE
246682,2023-08-07 17:00:00+00:00,0.0,2023-08-07 16:56,72.0,57.0,,1015.5,150.0,8.05,30.0,59.2,7.0,72.0,,,M,,,GNR,1054686,2023-08-07 17:00:00+00:00,5320.0,4.96,,
246683,2023-08-07 18:00:00+00:00,0.0,2023-08-07 17:56,72.0,57.0,,1015.0,,4.6,29.98,59.2,4.0,72.0,,,M,,,GNR,1054690,2023-08-07 18:00:00+00:00,5370.0,4.98,,
246684,2023-08-07 19:00:00+00:00,0.0,2023-08-07 18:56,71.0,57.0,,1014.9,160.0,4.6,29.97,61.24,4.0,71.0,,,M,,,GNR,1054694,2023-08-07 19:00:00+00:00,4000.0,4.35,,
246685,2023-08-07 20:00:00+00:00,0.0,2023-08-07 19:56,72.0,57.0,,1014.5,,,29.97,59.2,,72.0,,,M,,,GNR,1054698,2023-08-07 20:00:00+00:00,1690.0,3.07,,
246686,2023-08-07 21:00:00+00:00,0.0,2023-08-07 20:56,71.0,57.0,,1014.2,150.0,8.05,29.96,61.24,7.0,71.0,,,M,,,GNR,1054702,2023-08-07 21:00:00+00:00,953.0,2.48,,
246687,2023-08-07 22:00:00+00:00,0.0,2023-08-07 21:56,70.0,59.0,,1014.1,150.0,4.6,29.95,68.09,4.0,70.0,,,M,,,GNR,1054706,2023-08-07 22:00:00+00:00,696.0,2.23,,
246688,2023-08-07 23:00:00+00:00,0.0,2023-08-07 22:56,69.0,59.0,,1014.1,0.0,0.0,29.95,70.46,0.0,69.0,,,M,,,GNR,1054710,2023-08-07 23:00:00+00:00,715.0,2.25,,
246689,2023-08-08 00:00:00+00:00,0.0,2023-08-07 23:56,66.0,57.0,,1014.2,0.0,0.0,29.96,72.72,0.0,66.0,,,M,,,GNR,1054714,2023-08-08 00:00:00+00:00,7870.0,6.01,,
246690,2023-08-08 01:00:00+00:00,0.0,2023-08-08 00:56,64.0,56.0,,1014.5,,4.6,29.96,75.2,4.0,64.0,,,M,,,GNR,1054718,2023-08-08 01:00:00+00:00,7920.0,6.03,,
246691,2023-08-08 02:00:00+00:00,0.25,2023-08-08 01:56,63.0,57.0,,1013.8,130.0,4.6,29.94,80.76,4.0,63.0,,,M,,,GNR,1054722,2023-08-08 02:00:00+00:00,7940.0,6.04,,
246692,2023-08-08 03:00:00+00:00,0.0,2023-08-08 02:56,62.0,58.0,,1013.6,130.0,5.75,29.94,86.72,5.0,62.0,,,M,,,GNR,1054726,2023-08-08 03:00:00+00:00,7940.0,6.04,,
246693,2023-08-08 04:00:00+00:00,0.0,2023-08-08 03:56,62.0,57.0,,1013.1,130.0,9.2,29.93,83.65,8.0,62.0,,,M,,,GNR,1054730,2023-08-08 04:00:00+00:00,7940.0,6.04,,
246694,2023-08-08 05:00:00+00:00,0.25,2023-08-08 04:56,60.0,57.0,,1013.0,140.0,11.5,29.92,89.8,10.0,60.0,,20.0,M,,,GNR,1054734,2023-08-08 05:00:00+00:00,4190.0,4.44,,
246695,2023-08-08 06:00:00+00:00,2.03,2023-08-08 05:56,58.0,57.0,,1012.3,130.0,11.5,29.9,96.46,10.0,58.0,,,M,,,GNR,1054738,2023-08-08 06:00:00+00:00,2030.0,3.29,,
246696,2023-08-08 07:00:00+00:00,0.51,2023-08-08 06:56,58.0,57.0,,1011.5,140.0,11.5,29.88,96.46,10.0,58.0,,17.0,M,,,GNR,1054742,2023-08-08 07:00:00+00:00,1840.0,3.17,,
246697,2023-08-08 08:00:00+00:00,0.0,2023-08-08 07:56,58.0,57.0,,1010.8,130.0,13.8,29.86,96.46,12.0,58.0,,27.0,M,27.0,,GNR,1054746,2023-08-08 08:00:00+00:00,1830.0,3.16,,
246698,2023-08-08 09:00:00+00:00,0.25,2023-08-08 08:56,58.0,56.0,,1010.2,120.0,12.65,29.84,93.04,11.0,58.0,,18.0,M,,,GNR,1054750,2023-08-08 09:00:00+00:00,1390.0,2.85,,
246699,2023-08-08 10:00:00+00:00,0.0,2023-08-08 09:56,58.0,56.0,,1009.6,130.0,12.65,29.82,93.04,11.0,58.0,,18.0,M,,,GNR,1054754,2023-08-08 10:00:00+00:00,897.0,2.43,,
246700,2023-08-08 11:00:00+00:00,0.0,2023-08-08 10:56,58.0,56.0,,1009.4,120.0,14.95,29.81,93.04,13.0,58.0,,21.0,M,26.0,,GNR,1054758,2023-08-08 11:00:00+00:00,715.0,2.25,,
246701,2023-08-08 12:00:00+00:00,1.27,2023-08-08 11:56,58.0,56.0,,1009.4,140.0,17.25,29.81,93.04,15.0,58.0,,24.0,M,26.0,,GNR,1054762,2023-08-08 12:00:00+00:00,706.0,2.24,,
246702,2023-08-08 13:00:00+00:00,3.56,2023-08-08 12:56,57.0,55.0,,1008.8,130.0,18.4,29.79,93.01,16.0,57.0,,30.0,M,30.0,,GNR,1054766,2023-08-08 13:00:00+00:00,734.0,2.27,,
246703,2023-08-08 14:00:00+00:00,1.52,2023-08-08 13:56,57.0,55.0,,1008.1,110.0,19.55,29.77,93.01,17.0,57.0,,23.0,M,29.0,,GNR,1054770,2023-08-08 14:00:00+00:00,753.0,2.29,,
246704,2023-08-08 15:00:00+00:00,2.79,2023-08-08 14:56,58.0,57.0,,1007.7,130.0,12.65,29.76,96.46,11.0,58.0,,23.0,M,26.0,,GNR,1054774,2023-08-08 15:00:00+00:00,813.0,2.35,,
246705,2023-08-08 16:00:00+00:00,7.87,2023-08-08 15:56,59.0,58.0,,1006.8,130.0,12.65,29.73,96.48,11.0,59.0,,18.0,M,,,GNR,1054778,2023-08-08 16:00:00+00:00,897.0,2.43,,
246706,2023-08-08 17:00:00+00:00,5.33,2023-08-08 16:56,60.0,59.0,,1006.0,120.0,17.25,29.71,96.49,15.0,60.0,,24.0,M,,,GNR,1054782,2023-08-08 17:00:00+00:00,5860.0,5.19,,
246707,2023-08-08 18:00:00+00:00,0.51,2023-08-08 17:56,61.0,60.0,,1005.3,130.0,16.1,29.69,96.51,14.0,61.0,,27.0,M,29.0,,GNR,1054786,2023-08-08 18:00:00+00:00,6270.0,5.36,,
246708,2023-08-08 19:00:00+00:00,1.27,2023-08-08 18:56,61.0,60.0,,1004.7,120.0,14.95,29.67,96.51,13.0,61.0,,22.0,M,27.0,,GNR,1054790,2023-08-08 19:00:00+00:00,6730.0,5.55,,
246709,2023-08-08 20:00:00+00:00,4.32,2023-08-08 19:56,61.0,60.0,,1003.8,120.0,16.1,29.64,96.51,14.0,61.0,,23.0,M,26.0,,GNR,1054794,2023-08-08 20:00:00+00:00,7160.0,5.72,,
246710,2023-08-08 21:00:00+00:00,1.27,2023-08-08 20:56,62.0,60.0,,1003.4,120.0,16.1,29.63,93.15,14.0,62.0,,21.0,M,,,GNR,1054798,2023-08-08 21:00:00+00:00,8190.0,6.14,,
246711,2023-08-08 22:00:00+00:00,0.51,2023-08-08 21:56,62.0,61.0,,1002.5,130.0,8.05,29.6,96.52,7.0,62.0,,15.0,M,,,GNR,1054802,2023-08-08 22:00:00+00:00,11200.0,7.32,,
246712,2023-08-08 23:00:00+00:00,0.25,2023-08-08 22:56,62.0,61.0,,1001.8,130.0,10.35,29.59,96.52,9.0,62.0,,18.0,M,,,GNR,1054806,2023-08-08 23:00:00+00:00,8630.0,6.31,,
246713,2023-08-09 00:00:00+00:00,0.25,2023-08-08 23:56,62.0,61.0,,1001.2,100.0,11.5,29.57,96.52,10.0,62.0,,,M,,,GNR,1054810,2023-08-09 00:00:00+00:00,8170.0,6.13,,
246714,2023-08-09 01:00:00+00:00,0.76,2023-08-09 00:56,62.0,61.0,,1001.0,110.0,11.5,29.56,96.52,10.0,62.0,,,M,,,GNR,1054814,2023-08-09 01:00:00+00:00,8140.0,6.12,,
246715,2023-08-09 02:00:00+00:00,2.03,2023-08-09 01:56,63.0,62.0,,1000.2,110.0,9.2,29.54,96.54,8.0,63.0,,,M,,,GNR,1054818,2023-08-09 02:00:00+00:00,5580.0,5.07,,
246716,2023-08-09 03:00:00+00:00,6.35,2023-08-09 02:56,63.0,62.0,,999.3,70.0,8.05,29.51,96.54,7.0,63.0,,,M,,,GNR,1054822,2023-08-09 03:00:00+00:00,3790.0,4.25,,
246717,2023-08-09 04:00:00+00:00,1.02,2023-08-09 03:56,63.0,61.0,,998.9,120.0,6.9,29.5,93.18,6.0,63.0,,,M,,,GNR,1054826,2023-08-09 04:00:00+00:00,3500.0,4.11,,
246718,2023-08-09 05:00:00+00:00,0.0,2023-08-09 04:56,62.0,61.0,,998.2,60.0,3.45,29.48,96.52,3.0,62.0,,,M,,,GNR,1054830,2023-08-09 05:00:00+00:00,3480.0,4.1,,
246719,2023-08-09 06:00:00+00:00,0.0,2023-08-09 05:56,62.0,60.0,,997.5,60.0,6.9,29.46,93.15,6.0,62.0,,,M,,,GNR,1054834,2023-08-09 06:00:00+00:00,3500.0,4.11,,
246720,2023-08-09 07:00:00+00:00,0.0,2023-08-09 06:56,62.0,60.0,,997.1,0.0,0.0,29.45,93.15,0.0,62.0,,,M,,,GNR,1054838,2023-08-09 07:00:00+00:00,3540.0,4.13,,
246721,2023-08-09 08:00:00+00:00,0.0,2023-08-09 07:56,62.0,61.0,,997.2,0.0,0.0,29.45,96.52,0.0,62.0,,,M,,,GNR,1054842,2023-08-09 08:00:00+00:00,3520.0,4.12,,
246722,2023-08-09 09:00:00+00:00,0.25,2023-08-09 08:56,62.0,61.0,,996.9,,5.75,29.44,96.52,5.0,62.0,,,M,,,GNR,1054846,2023-08-09 09:00:00+00:00,3480.0,4.1,,
246723,2023-08-09 10:00:00+00:00,0.25,2023-08-09 09:56,62.0,61.0,,997.6,310.0,8.05,29.46,96.52,7.0,62.0,,,M,,,GNR,1054850,2023-08-09 10:00:00+00:00,3440.0,4.08,,
246724,2023-08-09 11:00:00+00:00,0.0,2023-08-09 10:56,62.0,61.0,,997.7,300.0,9.2,29.47,96.52,8.0,62.0,,20.0,M,,,GNR,1054854,2023-08-09 11:00:00+00:00,3360.0,4.04,,
246725,2023-08-09 12:00:00+00:00,0.0,2023-08-09 11:56,63.0,59.0,,997.8,310.0,13.8,29.47,86.77,12.0,63.0,,23.0,M,,,GNR,1054858,2023-08-09 12:00:00+00:00,3300.0,4.01,,
246726,2023-08-09 13:00:00+00:00,0.0,2023-08-09 12:56,62.0,58.0,,998.0,310.0,10.35,29.48,86.72,9.0,62.0,,23.0,M,,,GNR,1054862,2023-08-09 13:00:00+00:00,3220.0,3.97,,
246727,2023-08-09 14:00:00+00:00,0.0,2023-08-09 13:56,61.0,56.0,,998.6,310.0,14.95,29.49,83.59,13.0,61.0,,24.0,M,29.0,,GNR,1054866,2023-08-09 14:00:00+00:00,3180.0,3.95,,
246728,2023-08-09 15:00:00+00:00,0.0,2023-08-09 14:56,61.0,55.0,,999.2,320.0,12.65,29.51,80.61,11.0,61.0,,22.0,M,27.0,,GNR,1054870,2023-08-09 15:00:00+00:00,3150.0,3.93,,
246729,2023-08-09 16:00:00+00:00,0.0,2023-08-09 15:56,60.0,55.0,,999.1,310.0,12.65,29.51,83.53,11.0,60.0,,21.0,M,27.0,,GNR,1054874,2023-08-09 16:00:00+00:00,5950.0,5.23,,
246730,2023-08-09 17:00:00+00:00,0.0,2023-08-09 16:56,61.0,55.0,,999.2,320.0,11.5,29.51,80.61,10.0,61.0,,21.0,M,26.0,,GNR,1054878,2023-08-09 17:00:00+00:00,7840.0,6.0,,
246731,2023-08-09 18:00:00+00:00,0.0,2023-08-09 17:56,62.0,55.0,,999.5,330.0,13.8,29.52,77.81,12.0,62.0,,25.0,M,,,GNR,1054882,2023-08-09 18:00:00+00:00,7920.0,6.03,,
246732,2023-08-09 19:00:00+00:00,0.0,2023-08-09 18:56,63.0,55.0,,999.7,310.0,12.65,29.53,75.11,11.0,63.0,,20.0,M,28.0,,GNR,1054886,2023-08-09 19:00:00+00:00,5950.0,5.23,,
246733,2023-08-09 20:00:00+00:00,0.0,2023-08-09 19:56,64.0,56.0,,1000.1,,6.9,29.54,75.2,6.0,64.0,,16.0,M,,,GNR,1054890,2023-08-09 20:00:00+00:00,3620.0,4.17,,
246734,2023-08-09 21:00:00+00:00,0.0,2023-08-09 20:56,64.0,56.0,,1000.5,300.0,6.9,29.55,75.2,6.0,64.0,,15.0,M,,,GNR,1054894,2023-08-09 21:00:00+00:00,3180.0,3.95,,
246735,2023-08-09 22:00:00+00:00,0.0,2023-08-09 21:56,64.0,55.0,,1000.6,310.0,11.5,29.55,72.52,10.0,64.0,,20.0,M,,,GNR,1054898,2023-08-09 22:00:00+00:00,8810.0,6.38,,
246736,2023-08-09 23:00:00+00:00,0.0,2023-08-09 22:56,64.0,55.0,,1001.3,310.0,10.35,29.57,72.52,9.0,64.0,,23.0,M,,,GNR,1054902,2023-08-09 23:00:00+00:00,11200.0,7.32,,
246737,2023-08-10 00:00:00+00:00,0.0,2023-08-09 23:56,62.0,54.0,,1001.7,310.0,10.35,29.59,75.02,9.0,62.0,,18.0,M,,,GNR,1054906,2023-08-10 00:00:00+00:00,11100.0,7.28,,
246738,2023-08-10 01:00:00+00:00,0.0,2023-08-10 00:56,61.0,54.0,,1002.2,310.0,10.35,29.6,77.72,9.0,61.0,,17.0,M,,,GNR,1054910,2023-08-10 01:00:00+00:00,11000.0,7.25,,
246739,2023-08-10 02:00:00+00:00,0.0,2023-08-10 01:56,60.0,54.0,,1002.4,320.0,10.35,29.6,80.53,9.0,60.0,,16.0,M,,,GNR,1054914,2023-08-10 02:00:00+00:00,10900.0,7.2,,
246740,2023-08-10 03:00:00+00:00,0.0,2023-08-10 02:56,60.0,54.0,,1002.4,330.0,9.2,29.6,80.53,8.0,60.0,,,M,,,GNR,1054918,2023-08-10 03:00:00+00:00,5580.0,5.07,,
246741,2023-08-10 04:00:00+00:00,0.0,2023-08-10 03:56,59.0,55.0,,1002.7,320.0,8.05,29.61,86.56,7.0,59.0,,,M,,,GNR,1054922,2023-08-10 04:00:00+00:00,2990.0,3.85,,
246742,2023-08-10 05:00:00+00:00,0.0,2023-08-10 04:56,59.0,54.0,,1002.8,320.0,8.05,29.61,83.46,7.0,59.0,,,M,,,GNR,1054926,2023-08-10 05:00:00+00:00,2470.0,3.56,,
246743,2023-08-10 06:00:00+00:00,0.0,2023-08-10 05:56,58.0,55.0,,1003.0,310.0,6.9,29.62,89.72,6.0,58.0,,,M,,,GNR,1054930,2023-08-10 06:00:00+00:00,2390.0,3.51,,
246744,2023-08-10 07:00:00+00:00,0.0,2023-08-10 06:56,59.0,54.0,,1003.1,330.0,8.05,29.62,83.46,7.0,59.0,,,M,,,GNR,1054934,2023-08-10 07:00:00+00:00,2340.0,3.48,,
246745,2023-08-10 08:00:00+00:00,0.0,2023-08-10 07:56,58.0,54.0,,1002.8,320.0,6.9,29.61,86.51,6.0,58.0,,,M,,,GNR,1054938,2023-08-10 08:00:00+00:00,2290.0,3.45,,
246746,2023-08-10 09:00:00+00:00,0.0,2023-08-10 08:56,59.0,53.0,,1002.9,330.0,9.2,29.62,80.46,8.0,59.0,,,M,,,GNR,1054942,2023-08-10 09:00:00+00:00,2240.0,3.42,,
246747,2023-08-10 10:00:00+00:00,0.0,2023-08-10 09:56,58.0,54.0,,1003.5,310.0,5.75,29.64,86.51,5.0,58.0,,,M,,,GNR,1054946,2023-08-10 10:00:00+00:00,2200.0,3.4,,
246748,2023-08-10 11:00:00+00:00,0.0,2023-08-10 10:56,61.0,54.0,,1003.9,310.0,4.6,29.65,77.72,4.0,61.0,,,M,,,GNR,1054950,2023-08-10 11:00:00+00:00,2150.0,3.37,,
246749,2023-08-10 12:00:00+00:00,0.0,2023-08-10 11:56,62.0,56.0,,1004.1,0.0,0.0,29.66,80.68,0.0,62.0,,,M,,,GNR,1054954,2023-08-10 12:00:00+00:00,2120.0,3.35,,
246750,2023-08-10 13:00:00+00:00,0.0,2023-08-10 12:56,68.0,58.0,,1004.5,0.0,0.0,29.67,70.35,0.0,68.0,,,M,,,GNR,1054958,2023-08-10 13:00:00+00:00,2090.0,3.33,,
246751,2023-08-10 14:00:00+00:00,0.0,2023-08-10 13:56,70.0,58.0,,1004.3,350.0,4.6,29.67,65.69,4.0,70.0,,,M,,,GNR,1054962,2023-08-10 14:00:00+00:00,2060.0,3.31,,
246752,2023-08-10 15:00:00+00:00,0.0,2023-08-10 14:56,73.0,59.0,,1004.8,340.0,3.45,29.68,61.5,3.0,73.0,,,M,,,GNR,1054966,2023-08-10 15:00:00+00:00,2090.0,3.33,,
246753,2023-08-10 16:00:00+00:00,0.0,2023-08-10 15:56,75.0,62.0,,1004.6,0.0,0.0,29.68,63.97,0.0,75.0,,,M,,,GNR,1054970,2023-08-10 16:00:00+00:00,3700.0,4.21,,
246754,2023-08-10 17:00:00+00:00,0.0,2023-08-10 16:56,77.0,62.0,,1004.1,30.0,3.45,29.66,59.85,3.0,77.0,,,M,,,GNR,1054974,2023-08-10 17:00:00+00:00,6910.0,5.62,,
246755,2023-08-10 18:00:00+00:00,0.0,2023-08-10 17:56,78.0,61.0,,1003.5,,3.45,29.65,55.89,3.0,78.0,,,M,,,GNR,1054978,2023-08-10 18:00:00+00:00,6940.0,5.63,,
246756,2023-08-10 19:00:00+00:00,0.0,2023-08-10 18:56,74.0,61.0,,1002.9,,,29.63,63.85,,74.0,,,M,,,GNR,1054982,2023-08-10 19:00:00+00:00,5580.0,5.07,,
246757,2023-08-10 20:00:00+00:00,0.0,2023-08-10 19:56,71.0,62.0,,1003.3,140.0,8.05,29.64,73.21,7.0,71.0,,20.0,M,,,GNR,1054986,2023-08-10 20:00:00+00:00,3460.0,4.09,,
246758,2023-08-10 21:00:00+00:00,0.0,2023-08-10 20:56,72.0,62.0,,1002.7,,,29.62,70.77,,72.0,,,M,,,GNR,1054990,2023-08-10 21:00:00+00:00,3280.0,4.0,,
246759,2023-08-10 22:00:00+00:00,0.0,2023-08-10 21:56,71.0,62.0,,1002.7,140.0,6.9,29.62,73.21,6.0,71.0,,,M,,,GNR,1054994,2023-08-10 22:00:00+00:00,5880.0,5.2,,
246760,2023-08-10 23:00:00+00:00,0.0,2023-08-10 22:56,69.0,61.0,,1002.5,130.0,8.05,29.61,75.66,7.0,69.0,,,M,,,GNR,1054998,2023-08-10 23:00:00+00:00,10200.0,6.94,,
246761,2023-08-11 00:00:00+00:00,0.0,2023-08-10 23:56,66.0,62.0,,1002.3,140.0,8.05,29.61,86.93,7.0,66.0,,,M,,,GNR,1055002,2023-08-11 00:00:00+00:00,10200.0,6.93,,
246762,2023-08-11 01:00:00+00:00,0.0,2023-08-11 00:56,65.0,60.0,,1001.9,140.0,9.2,29.6,83.84,8.0,65.0,,,M,,,GNR,1055006,2023-08-11 01:00:00+00:00,10100.0,6.91,,
246763,2023-08-11 02:00:00+00:00,0.0,2023-08-11 01:56,65.0,61.0,,1001.5,130.0,8.05,29.59,86.88,7.0,65.0,,14.0,M,,,GNR,1055010,2023-08-11 02:00:00+00:00,10100.0,6.88,,
246764,2023-08-11 03:00:00+00:00,0.0,2023-08-11 02:56,65.0,62.0,,1000.9,140.0,8.05,29.57,90.01,7.0,65.0,,,M,,,GNR,1055014,2023-08-11 03:00:00+00:00,5050.0,4.84,,
246765,2023-08-11 04:00:00+00:00,0.0,2023-08-11 03:56,65.0,62.0,,1000.2,140.0,8.05,29.55,90.01,7.0,65.0,,,M,,,GNR,1055018,2023-08-11 04:00:00+00:00,2510.0,3.58,,
246766,2023-08-11 05:00:00+00:00,0.76,2023-08-11 04:56,64.0,62.0,,999.4,0.0,0.0,29.53,93.21,0.0,64.0,,,M,,,GNR,1055022,2023-08-11 05:00:00+00:00,1950.0,3.24,,
246767,2023-08-11 06:00:00+00:00,9.91,2023-08-11 05:56,64.0,61.0,,999.5,340.0,4.6,29.53,89.97,4.0,64.0,,16.0,M,,,GNR,1055026,2023-08-11 06:00:00+00:00,1860.0,3.18,,
246768,2023-08-11 07:00:00+00:00,5.84,2023-08-11 06:56,62.0,60.0,,998.9,,3.45,29.51,93.15,3.0,62.0,,,M,,,GNR,1055030,2023-08-11 07:00:00+00:00,1840.0,3.17,,
246769,2023-08-11 08:00:00+00:00,1.02,2023-08-11 07:56,62.0,60.0,,998.5,0.0,0.0,29.5,93.15,0.0,62.0,,,M,,,GNR,1055034,2023-08-11 08:00:00+00:00,1840.0,3.17,,
246770,2023-08-11 09:00:00+00:00,0.0,2023-08-11 08:56,61.0,60.0,,998.3,290.0,3.45,29.49,96.51,3.0,61.0,,,M,,,GNR,1055038,2023-08-11 09:00:00+00:00,1860.0,3.18,,
246771,2023-08-11 10:00:00+00:00,0.0,2023-08-11 09:56,61.0,58.0,,999.1,310.0,8.05,29.51,89.84,7.0,61.0,,,M,,,GNR,1055042,2023-08-11 10:00:00+00:00,1890.0,3.2,,
246772,2023-08-11 11:00:00+00:00,0.0,2023-08-11 10:56,60.0,57.0,,998.8,310.0,10.35,29.51,89.8,9.0,60.0,,17.0,M,,,GNR,1055046,2023-08-11 11:00:00+00:00,1900.0,3.21,,
246773,2023-08-11 12:00:00+00:00,0.0,2023-08-11 11:56,61.0,56.0,,999.7,310.0,16.1,29.53,83.59,14.0,61.0,,28.0,M,28.0,,GNR,1055050,2023-08-11 12:00:00+00:00,1900.0,3.21,,
246774,2023-08-11 13:00:00+00:00,0.0,2023-08-11 12:56,63.0,56.0,,1000.4,300.0,11.5,29.55,77.89,10.0,63.0,,19.0,M,,,GNR,1055054,2023-08-11 13:00:00+00:00,1890.0,3.2,,
246775,2023-08-11 14:00:00+00:00,0.0,2023-08-11 13:56,66.0,57.0,,1000.1,310.0,12.65,29.54,72.72,11.0,66.0,,25.0,M,,,GNR,1055058,2023-08-11 14:00:00+00:00,1890.0,3.2,,
246776,2023-08-11 15:00:00+00:00,0.0,2023-08-11 14:56,67.0,55.0,,1000.4,310.0,12.65,29.55,65.33,11.0,67.0,,20.0,M,,,GNR,1055062,2023-08-11 15:00:00+00:00,1870.0,3.19,,
246777,2023-08-11 16:00:00+00:00,0.0,2023-08-11 15:56,68.0,52.0,,1000.1,310.0,9.2,29.55,56.55,8.0,68.0,,21.0,M,,,GNR,1055066,2023-08-11 16:00:00+00:00,2830.0,3.76,,
246778,2023-08-11 17:00:00+00:00,0.0,2023-08-11 16:56,68.0,53.0,,1000.8,310.0,10.35,29.56,58.67,9.0,68.0,,22.0,M,,,GNR,1055070,2023-08-11 17:00:00+00:00,6510.0,5.46,,
246779,2023-08-11 18:00:00+00:00,0.0,2023-08-11 17:56,69.0,55.0,,1001.0,310.0,12.65,29.57,60.99,11.0,69.0,,22.0,M,,,GNR,1055074,2023-08-11 18:00:00+00:00,6540.0,5.47,,
246780,2023-08-11 19:00:00+00:00,0.0,2023-08-11 18:56,66.0,55.0,,1001.7,290.0,8.05,29.59,67.64,7.0,66.0,,,M,,,GNR,1055078,2023-08-11 19:00:00+00:00,5010.0,4.82,,
246781,2023-08-11 20:00:00+00:00,0.0,2023-08-11 19:56,65.0,56.0,,1002.4,290.0,10.35,29.61,72.62,9.0,65.0,,18.0,M,,,GNR,1055082,2023-08-11 20:00:00+00:00,2990.0,3.85,,
246782,2023-08-11 21:00:00+00:00,3.56,2023-08-11 20:56,66.0,59.0,,1002.8,300.0,8.05,29.62,78.14,7.0,66.0,,,M,,,GNR,1055086,2023-08-11 21:00:00+00:00,7350.0,5.8,,
246783,2023-08-11 22:00:00+00:00,3.3,2023-08-11 21:56,60.0,56.0,,1003.8,,5.75,29.64,86.61,5.0,60.0,,16.0,M,27.0,,GNR,1055090,2023-08-11 22:00:00+00:00,9840.0,6.79,,
246784,2023-08-11 23:00:00+00:00,0.0,2023-08-11 22:56,60.0,55.0,,1004.9,,5.75,29.68,83.53,5.0,60.0,,,M,,,GNR,1055094,2023-08-11 23:00:00+00:00,9920.0,6.82,,
246785,2023-08-12 00:00:00+00:00,0.0,2023-08-11 23:56,60.0,55.0,,1005.2,300.0,9.2,29.69,83.53,8.0,60.0,,18.0,M,,,GNR,1055098,2023-08-12 00:00:00+00:00,9940.0,6.83,,
246786,2023-08-12 01:00:00+00:00,0.0,2023-08-12 00:56,60.0,56.0,,1005.9,310.0,10.35,29.71,86.61,9.0,60.0,,19.0,M,,,GNR,1055102,2023-08-12 01:00:00+00:00,9940.0,6.83,,
246787,2023-08-12 02:00:00+00:00,0.0,2023-08-12 01:56,61.0,56.0,,1006.2,300.0,8.05,29.72,83.59,7.0,61.0,,17.0,M,,,GNR,1055106,2023-08-12 02:00:00+00:00,9940.0,6.83,,
246788,2023-08-12 03:00:00+00:00,0.0,2023-08-12 02:56,60.0,55.0,,1006.6,310.0,9.2,29.73,83.53,8.0,60.0,,16.0,M,,,GNR,1055110,2023-08-12 03:00:00+00:00,5300.0,4.95,,
246789,2023-08-12 04:00:00+00:00,0.0,2023-08-12 03:56,60.0,55.0,,1007.4,310.0,9.2,29.76,83.53,8.0,60.0,,17.0,M,,,GNR,1055114,2023-08-12 04:00:00+00:00,2490.0,3.57,,
246790,2023-08-12 05:00:00+00:00,0.0,2023-08-12 04:56,60.0,56.0,,1008.2,300.0,8.05,29.78,86.61,7.0,60.0,,,M,,,GNR,1055118,2023-08-12 05:00:00+00:00,1830.0,3.16,,
246791,2023-08-12 06:00:00+00:00,0.0,2023-08-12 05:56,61.0,55.0,,1008.5,300.0,11.5,29.79,80.61,10.0,61.0,,20.0,M,,,GNR,1055122,2023-08-12 06:00:00+00:00,1690.0,3.07,,
246792,2023-08-12 07:00:00+00:00,0.0,2023-08-12 06:56,60.0,55.0,,1008.9,310.0,8.05,29.8,83.53,7.0,60.0,,,M,,,GNR,1055126,2023-08-12 07:00:00+00:00,1660.0,3.05,,
246793,2023-08-12 08:00:00+00:00,0.0,2023-08-12 07:56,59.0,55.0,,1009.1,,5.75,29.8,86.56,5.0,59.0,,,M,,,GNR,1055130,2023-08-12 08:00:00+00:00,1650.0,3.04,,
246794,2023-08-12 09:00:00+00:00,0.0,2023-08-12 08:56,58.0,55.0,,1009.8,300.0,8.05,29.82,89.72,7.0,58.0,,16.0,M,,,GNR,1055134,2023-08-12 09:00:00+00:00,1630.0,3.03,,
246795,2023-08-12 10:00:00+00:00,0.0,2023-08-12 09:56,58.0,55.0,,1011.0,,4.6,29.85,89.72,4.0,58.0,,,M,,,GNR,1055138,2023-08-12 10:00:00+00:00,1610.0,3.01,,
246796,2023-08-12 11:00:00+00:00,0.0,2023-08-12 10:56,59.0,54.0,,1012.2,0.0,0.0,29.89,83.46,0.0,59.0,,,M,,,GNR,1055142,2023-08-12 11:00:00+00:00,1580.0,2.99,,
246797,2023-08-12 12:00:00+00:00,0.0,2023-08-12 11:56,62.0,54.0,,1012.0,320.0,6.9,29.88,75.02,6.0,62.0,,,M,,,GNR,1055146,2023-08-12 12:00:00+00:00,1550.0,2.97,,
246798,2023-08-12 13:00:00+00:00,0.0,2023-08-12 12:56,63.0,55.0,,1012.2,320.0,8.05,29.89,75.11,7.0,63.0,,,M,,,GNR,1055150,2023-08-12 13:00:00+00:00,1550.0,2.97,,
246799,2023-08-12 14:00:00+00:00,0.0,2023-08-12 13:56,66.0,56.0,,1012.5,,,29.9,70.14,,66.0,,,M,,,GNR,1055154,2023-08-12 14:00:00+00:00,1540.0,2.96,,
246800,2023-08-12 15:00:00+00:00,0.0,2023-08-12 14:56,67.0,56.0,,1012.9,,4.6,29.92,67.75,4.0,67.0,,,M,,,GNR,1055158,2023-08-12 15:00:00+00:00,1530.0,2.95,,
246801,2023-08-12 16:00:00+00:00,0.0,2023-08-12 15:56,70.0,55.0,,1012.5,320.0,10.35,29.91,58.94,9.0,70.0,,,M,,,GNR,1055162,2023-08-12 16:00:00+00:00,2110.0,3.34,2023-08-12 16:00:00+00:00,gs://gcp-public-data-sentinel-2/tiles/19/T/DL/S2B_MSIL1C_20230812T153559_N0509_R111_T19TDL_20230812T203549.SAFE
246802,2023-08-12 17:00:00+00:00,0.0,2023-08-12 16:56,72.0,55.0,,1012.5,,6.9,29.91,55.06,6.0,72.0,,,M,,,GNR,1055166,2023-08-12 17:00:00+00:00,6220.0,5.34,,
246803,2023-08-12 18:00:00+00:00,0.0,2023-08-12 17:56,70.0,56.0,,1012.6,300.0,4.6,29.91,61.11,4.0,70.0,,,M,,,GNR,1055170,2023-08-12 18:00:00+00:00,6240.0,5.35,,
246804,2023-08-12 19:00:00+00:00,0.0,2023-08-12 18:56,71.0,56.0,,1012.3,0.0,0.0,29.9,59.07,0.0,71.0,,,M,,,GNR,1055174,2023-08-12 19:00:00+00:00,5030.0,4.83,,
246805,2023-08-12 20:00:00+00:00,0.0,2023-08-12 19:56,73.0,56.0,,1012.1,0.0,0.0,29.9,55.2,0.0,73.0,,,M,,,GNR,1055178,2023-08-12 20:00:00+00:00,3910.0,4.31,,
246806,2023-08-12 21:00:00+00:00,0.0,2023-08-12 20:56,72.0,57.0,,1011.9,210.0,4.6,29.89,59.2,4.0,72.0,,,M,,,GNR,1055182,2023-08-12 21:00:00+00:00,8420.0,6.23,,
246807,2023-08-12 22:00:00+00:00,0.0,2023-08-12 21:56,71.0,58.0,,1012.2,150.0,3.45,29.9,63.49,3.0,71.0,,,M,,,GNR,1055186,2023-08-12 22:00:00+00:00,9540.0,6.67,,
246808,2023-08-12 23:00:00+00:00,0.0,2023-08-12 22:56,68.0,58.0,,1011.9,140.0,4.6,29.89,70.35,4.0,68.0,,,M,,,GNR,1055190,2023-08-12 23:00:00+00:00,9510.0,6.66,,
246809,2023-08-13 00:00:00+00:00,0.0,2023-08-12 23:56,65.0,59.0,,1012.3,140.0,4.6,29.9,80.9,4.0,65.0,,,M,,,GNR,1055194,2023-08-13 00:00:00+00:00,9510.0,6.66,,
246810,2023-08-13 01:00:00+00:00,0.0,2023-08-13 00:56,65.0,58.0,,1012.3,130.0,4.6,29.9,78.06,4.0,65.0,,,M,,,GNR,1055198,2023-08-13 01:00:00+00:00,9510.0,6.66,,
246811,2023-08-13 02:00:00+00:00,0.0,2023-08-13 01:56,63.0,58.0,,1011.9,140.0,5.75,29.89,83.72,5.0,63.0,,,M,,,GNR,1055202,2023-08-13 02:00:00+00:00,6410.0,5.42,,
246812,2023-08-13 03:00:00+00:00,0.0,2023-08-13 02:56,62.0,58.0,,1012.0,130.0,6.9,29.89,86.72,6.0,62.0,,,M,,,GNR,1055206,2023-08-13 03:00:00+00:00,5740.0,5.14,,
246813,2023-08-13 04:00:00+00:00,0.0,2023-08-13 03:56,62.0,58.0,,1011.9,150.0,3.45,29.89,86.72,3.0,62.0,,,M,,,GNR,1055210,2023-08-13 04:00:00+00:00,5740.0,5.14,,
246814,2023-08-13 05:00:00+00:00,0.0,2023-08-13 04:56,62.0,57.0,,1011.0,140.0,6.9,29.87,83.65,6.0,62.0,,,M,,,GNR,1055214,2023-08-13 05:00:00+00:00,4190.0,4.44,,
246815,2023-08-13 06:00:00+00:00,0.0,2023-08-13 05:56,62.0,56.0,,1010.7,140.0,9.2,29.85,80.68,8.0,62.0,,,M,,,GNR,1055218,2023-08-13 06:00:00+00:00,2220.0,3.41,,
246816,2023-08-13 07:00:00+00:00,0.0,2023-08-13 06:56,61.0,57.0,,1010.5,,5.75,29.85,86.67,5.0,61.0,,,M,,,GNR,1055222,2023-08-13 07:00:00+00:00,1580.0,2.99,,
246817,2023-08-13 08:00:00+00:00,0.0,2023-08-13 07:56,60.0,57.0,,1009.7,140.0,8.05,29.83,89.8,7.0,60.0,,,M,,,GNR,1055226,2023-08-13 08:00:00+00:00,1450.0,2.89,,
246818,2023-08-13 09:00:00+00:00,0.25,2023-08-13 08:56,59.0,57.0,,1009.8,130.0,10.35,29.83,93.07,9.0,59.0,,,M,,,GNR,1055230,2023-08-13 09:00:00+00:00,1420.0,2.87,,
246819,2023-08-13 10:00:00+00:00,0.51,2023-08-13 09:56,60.0,59.0,,1010.0,130.0,6.9,29.83,96.49,6.0,60.0,,,M,,,GNR,1055234,2023-08-13 10:00:00+00:00,1410.0,2.86,,
246820,2023-08-13 11:00:00+00:00,0.0,2023-08-13 10:56,60.0,60.0,,1010.3,140.0,5.75,29.84,100.0,5.0,60.0,,,M,,,GNR,1055238,2023-08-13 11:00:00+00:00,1410.0,2.86,,
246821,2023-08-13 12:00:00+00:00,0.0,2023-08-13 11:56,61.0,61.0,,1010.7,150.0,5.75,29.85,100.0,5.0,61.0,,,M,,,GNR,1055242,2023-08-13 12:00:00+00:00,1410.0,2.86,,
246822,2023-08-13 13:00:00+00:00,0.0,2023-08-13 12:56,62.0,62.0,,1010.3,140.0,4.6,29.84,100.0,4.0,62.0,,,M,,,GNR,1055246,2023-08-13 13:00:00+00:00,1390.0,2.85,,
246823,2023-08-13 14:00:00+00:00,0.0,2023-08-13 13:56,64.0,64.0,,1010.5,,3.45,29.85,100.0,3.0,64.0,,,M,,,GNR,1055250,2023-08-13 14:00:00+00:00,1380.0,2.84,,
246824,2023-08-13 15:00:00+00:00,0.0,2023-08-13 14:56,65.0,64.0,,1010.5,,3.45,29.84,96.57,3.0,65.0,,,M,,,GNR,1055254,2023-08-13 15:00:00+00:00,1350.0,2.82,,
246825,2023-08-13 16:00:00+00:00,0.0,2023-08-13 15:56,67.0,65.0,,1010.3,,4.6,29.84,93.29,4.0,67.0,,,M,,,GNR,1055258,2023-08-13 16:00:00+00:00,1430.0,2.88,,
246826,2023-08-13 17:00:00+00:00,0.0,2023-08-13 16:56,71.0,66.0,,1009.4,130.0,6.9,29.82,84.22,6.0,71.0,,,M,,,GNR,1055262,2023-08-13 17:00:00+00:00,6000.0,5.25,,
246827,2023-08-13 18:00:00+00:00,0.0,2023-08-13 17:56,72.0,65.0,,1008.8,140.0,6.9,29.8,78.62,6.0,72.0,,,M,,,GNR,1055266,2023-08-13 18:00:00+00:00,6020.0,5.26,,
246828,2023-08-13 19:00:00+00:00,0.0,2023-08-13 18:56,68.0,65.0,,1009.5,,5.75,29.82,90.13,5.0,68.0,,,M,,,GNR,1055270,2023-08-13 19:00:00+00:00,4640.0,4.65,,
246829,2023-08-13 20:00:00+00:00,0.0,2023-08-13 19:56,68.0,65.0,,1009.5,120.0,3.45,29.82,90.13,3.0,68.0,,,M,,,GNR,1055274,2023-08-13 20:00:00+00:00,2630.0,3.65,,
246830,2023-08-13 21:00:00+00:00,0.25,2023-08-13 20:56,71.0,67.0,,1008.9,,3.45,29.8,87.19,3.0,71.0,,,M,,,GNR,1055278,2023-08-13 21:00:00+00:00,6140.0,5.31,,
246831,2023-08-13 22:00:00+00:00,0.0,2023-08-13 21:56,68.0,65.0,,1010.0,,5.75,29.83,90.13,5.0,68.0,,16.0,M,,,GNR,1055282,2023-08-13 22:00:00+00:00,4230.0,4.46,,
246832,2023-08-13 23:00:00+00:00,0.0,2023-08-13 22:56,66.0,62.0,,1009.8,140.0,4.6,29.82,86.93,4.0,66.0,,,M,,,GNR,1055286,2023-08-13 23:00:00+00:00,2760.0,3.72,,
246833,2023-08-14 00:00:00+00:00,0.0,2023-08-13 23:56,64.0,62.0,,1009.9,0.0,0.0,29.83,93.21,0.0,64.0,,,M,,,GNR,1055290,2023-08-14 00:00:00+00:00,2770.0,3.73,,
246834,2023-08-14 01:00:00+00:00,0.0,2023-08-14 00:56,65.0,60.0,,1010.6,,5.75,29.85,83.84,5.0,65.0,,,M,,,GNR,1055294,2023-08-14 01:00:00+00:00,8070.0,6.09,,
246835,2023-08-14 02:00:00+00:00,0.25,2023-08-14 01:56,63.0,61.0,,1010.2,290.0,3.45,29.84,93.18,3.0,63.0,,,M,,,GNR,1055298,2023-08-14 02:00:00+00:00,9340.0,6.59,,
246836,2023-08-14 03:00:00+00:00,0.0,2023-08-14 02:56,64.0,59.0,,1010.1,300.0,8.05,29.83,83.78,7.0,64.0,,,M,,,GNR,1055302,2023-08-14 03:00:00+00:00,9310.0,6.58,,
246837,2023-08-14 04:00:00+00:00,0.0,2023-08-14 03:56,64.0,59.0,,1009.7,300.0,9.2,29.82,83.78,8.0,64.0,,16.0,M,,,GNR,1055306,2023-08-14 04:00:00+00:00,9360.0,6.6,,
246838,2023-08-14 05:00:00+00:00,0.0,2023-08-14 04:56,63.0,59.0,,1009.5,,6.9,29.82,86.77,6.0,63.0,,,M,,,GNR,1055310,2023-08-14 05:00:00+00:00,4810.0,4.73,,
246839,2023-08-14 06:00:00+00:00,0.0,2023-08-14 05:56,62.0,58.0,,1009.6,0.0,0.0,29.82,86.72,0.0,62.0,,,M,,,GNR,1055314,2023-08-14 06:00:00+00:00,2200.0,3.4,,
246840,2023-08-14 07:00:00+00:00,0.0,2023-08-14 06:56,62.0,58.0,,1010.2,0.0,0.0,29.84,86.72,0.0,62.0,,,M,,,GNR,1055318,2023-08-14 07:00:00+00:00,1510.0,2.94,,
246841,2023-08-14 08:00:00+00:00,0.0,2023-08-14 07:56,62.0,58.0,,1010.2,,3.45,29.84,86.72,3.0,62.0,,,M,,,GNR,1055322,2023-08-14 08:00:00+00:00,1330.0,2.8,,
246842,2023-08-14 09:00:00+00:00,0.0,2023-08-14 08:56,61.0,58.0,,1010.4,300.0,4.6,29.84,89.84,4.0,61.0,,,M,,,GNR,1055326,2023-08-14 09:00:00+00:00,1300.0,2.78,,
246843,2023-08-14 10:00:00+00:00,0.0,2023-08-14 09:56,62.0,58.0,,1010.9,300.0,8.05,29.86,86.72,7.0,62.0,,,M,,,GNR,1055330,2023-08-14 10:00:00+00:00,1290.0,2.77,,
246844,2023-08-14 11:00:00+00:00,0.0,2023-08-14 10:56,62.0,58.0,,1010.8,310.0,6.9,29.86,86.72,6.0,62.0,,,M,,,GNR,1055334,2023-08-14 11:00:00+00:00,1290.0,2.77,,
246845,2023-08-14 12:00:00+00:00,0.0,2023-08-14 11:56,65.0,59.0,,1011.0,300.0,9.2,29.86,80.9,8.0,65.0,,,M,,,GNR,1055338,2023-08-14 12:00:00+00:00,1280.0,2.76,,
246846,2023-08-14 13:00:00+00:00,0.0,2023-08-14 12:56,67.0,58.0,,1011.3,310.0,11.5,29.87,72.82,10.0,67.0,,16.0,M,,,GNR,1055342,2023-08-14 13:00:00+00:00,1280.0,2.76,,
246847,2023-08-14 14:00:00+00:00,0.0,2023-08-14 13:56,68.0,58.0,,1011.4,,6.9,29.87,70.35,6.0,68.0,,,M,,,GNR,1055346,2023-08-14 14:00:00+00:00,1270.0,2.75,,
246848,2023-08-14 15:00:00+00:00,0.0,2023-08-14 14:56,69.0,57.0,,1011.5,,6.9,29.88,65.57,6.0,69.0,,14.0,M,,,GNR,1055350,2023-08-14 15:00:00+00:00,1270.0,2.75,,
246849,2023-08-14 16:00:00+00:00,0.0,2023-08-14 15:56,69.0,58.0,,1011.3,,,29.87,67.97,,69.0,,,M,,,GNR,1055354,2023-08-14 16:00:00+00:00,1280.0,2.76,,
246850,2023-08-14 17:00:00+00:00,0.0,2023-08-14 16:56,68.0,57.0,,1011.6,,,29.88,67.86,,68.0,,,M,,,GNR,1055358,2023-08-14 17:00:00+00:00,5880.0,5.2,,
246851,2023-08-14 18:00:00+00:00,0.0,2023-08-14 17:56,69.0,57.0,,1011.7,310.0,6.9,29.88,65.57,6.0,69.0,,,M,,,GNR,1055362,2023-08-14 18:00:00+00:00,5930.0,5.22,,
246852,2023-08-14 19:00:00+00:00,0.0,2023-08-14 18:56,72.0,57.0,,1011.6,300.0,8.05,29.88,59.2,7.0,72.0,,15.0,M,,,GNR,1055366,2023-08-14 19:00:00+00:00,4640.0,4.65,,
246853,2023-08-14 20:00:00+00:00,0.0,2023-08-14 19:56,70.0,56.0,,1011.5,300.0,5.75,29.88,61.11,5.0,70.0,,,M,,,GNR,1055370,2023-08-14 20:00:00+00:00,2560.0,3.61,,
246854,2023-08-14 21:00:00+00:00,0.0,2023-08-14 20:56,70.0,56.0,,1011.5,300.0,9.2,29.88,61.11,8.0,70.0,,15.0,M,,,GNR,1055374,2023-08-14 21:00:00+00:00,4810.0,4.73,,
246855,2023-08-14 22:00:00+00:00,0.0,2023-08-14 21:56,70.0,57.0,,1011.3,300.0,8.05,29.87,63.37,7.0,70.0,,15.0,M,,,GNR,1055378,2023-08-14 22:00:00+00:00,9110.0,6.5,,
246856,2023-08-14 23:00:00+00:00,0.0,2023-08-14 22:56,67.0,57.0,,1011.6,300.0,8.05,29.88,70.24,7.0,67.0,,,M,,,GNR,1055382,2023-08-14 23:00:00+00:00,9110.0,6.5,,
246857,2023-08-15 00:00:00+00:00,0.0,2023-08-14 23:56,65.0,57.0,,1011.9,,3.45,29.89,75.3,3.0,65.0,,,M,,,GNR,1055386,2023-08-15 00:00:00+00:00,9060.0,6.48,,
246858,2023-08-15 01:00:00+00:00,0.0,2023-08-15 00:56,63.0,58.0,,1012.7,,3.45,29.91,83.72,3.0,63.0,,,M,,,GNR,1055390,2023-08-15 01:00:00+00:00,9040.0,6.47,,
246859,2023-08-15 02:00:00+00:00,0.0,2023-08-15 01:56,63.0,58.0,,1013.0,310.0,5.75,29.92,83.72,5.0,63.0,,,M,,,GNR,1055394,2023-08-15 02:00:00+00:00,8990.0,6.45,,
246860,2023-08-15 03:00:00+00:00,0.0,2023-08-15 02:56,63.0,58.0,,1013.0,320.0,6.9,29.92,83.72,6.0,63.0,,,M,,,GNR,1055398,2023-08-15 03:00:00+00:00,4040.0,4.37,,
246861,2023-08-15 04:00:00+00:00,0.0,2023-08-15 03:56,62.0,58.0,,1012.8,320.0,8.05,29.92,86.72,7.0,62.0,,,M,,,GNR,1055402,2023-08-15 04:00:00+00:00,1810.0,3.15,,
246862,2023-08-15 05:00:00+00:00,0.0,2023-08-15 04:56,62.0,58.0,,1012.9,330.0,5.75,29.92,86.72,5.0,62.0,,,M,,,GNR,1055406,2023-08-15 05:00:00+00:00,1200.0,2.7,,
246863,2023-08-15 06:00:00+00:00,0.0,2023-08-15 05:56,62.0,58.0,,1013.0,320.0,5.75,29.92,86.72,5.0,62.0,,,M,,,GNR,1055410,2023-08-15 06:00:00+00:00,5320.0,4.96,,
246864,2023-08-15 07:00:00+00:00,0.0,2023-08-15 06:56,61.0,57.0,,1012.6,20.0,3.45,29.91,86.67,3.0,61.0,,,M,,,GNR,1055414,2023-08-15 07:00:00+00:00,3680.0,4.2,,
246865,2023-08-15 08:00:00+00:00,0.0,2023-08-15 07:56,61.0,57.0,,1012.2,360.0,3.45,29.9,86.67,3.0,61.0,,,M,,,GNR,1055418,2023-08-15 08:00:00+00:00,1800.0,3.14,,
246866,2023-08-15 09:00:00+00:00,0.0,2023-08-15 08:56,61.0,58.0,,1012.0,0.0,0.0,29.89,89.84,0.0,61.0,,,M,,,GNR,1055422,2023-08-15 09:00:00+00:00,1170.0,2.67,,
246867,2023-08-15 10:00:00+00:00,0.0,2023-08-15 09:56,60.0,58.0,,1011.8,0.0,0.0,29.89,93.1,0.0,60.0,,,M,,,GNR,1055426,2023-08-15 10:00:00+00:00,1010.0,2.53,,
246868,2023-08-15 11:00:00+00:00,0.0,2023-08-15 10:56,60.0,58.0,,1012.3,0.0,0.0,29.9,93.1,0.0,60.0,,,M,,,GNR,1055430,2023-08-15 11:00:00+00:00,976.0,2.5,,
246869,2023-08-15 12:00:00+00:00,0.0,2023-08-15 11:56,62.0,59.0,,1012.3,0.0,0.0,29.9,89.89,0.0,62.0,,,M,,,GNR,1055434,2023-08-15 12:00:00+00:00,976.0,2.5,,
246870,2023-08-15 13:00:00+00:00,0.0,2023-08-15 12:56,67.0,59.0,,1012.2,0.0,0.0,29.9,75.48,0.0,67.0,,,M,,,GNR,1055438,2023-08-15 13:00:00+00:00,964.0,2.49,,
246871,2023-08-15 14:00:00+00:00,0.0,2023-08-15 13:56,68.0,59.0,,1012.1,0.0,0.0,29.9,72.92,0.0,68.0,,,M,,,GNR,1055442,2023-08-15 14:00:00+00:00,953.0,2.48,,
246872,2023-08-15 15:00:00+00:00,0.0,2023-08-15 14:56,69.0,61.0,,1012.4,0.0,0.0,29.9,75.66,0.0,69.0,,,M,,,GNR,1055446,2023-08-15 15:00:00+00:00,953.0,2.48,,
246873,2023-08-15 16:00:00+00:00,0.0,2023-08-15 15:56,69.0,60.0,,1012.2,130.0,6.9,29.9,73.02,6.0,69.0,,,M,,,GNR,1055450,2023-08-15 16:00:00+00:00,953.0,2.48,2023-08-15 16:00:00+00:00,gs://gcp-public-data-sentinel-2/tiles/19/T/DL/S2B_MSIL1C_20230815T153819_N0509_R011_T19TDL_20230815T204452.SAFE
246874,2023-08-15 17:00:00+00:00,0.0,2023-08-15 16:56,71.0,61.0,,1011.9,,3.45,29.89,70.66,3.0,71.0,,,M,,,GNR,1055454,2023-08-15 17:00:00+00:00,5580.0,5.07,,
246875,2023-08-15 18:00:00+00:00,0.0,2023-08-15 17:56,72.0,59.0,,1011.4,,3.45,29.88,63.61,3.0,72.0,,,M,,,GNR,1055458,2023-08-15 18:00:00+00:00,5600.0,5.08,,
246876,2023-08-15 19:00:00+00:00,0.0,2023-08-15 18:56,74.0,59.0,,1011.1,360.0,4.6,29.87,59.46,4.0,74.0,,,M,,,GNR,1055462,2023-08-15 19:00:00+00:00,8340.0,6.2,,
246877,2023-08-15 20:00:00+00:00,0.0,2023-08-15 19:56,73.0,59.0,,1010.5,0.0,0.0,29.85,61.5,0.0,73.0,,,M,,,GNR,1055466,2023-08-15 20:00:00+00:00,9060.0,6.48,,
246878,2023-08-15 21:00:00+00:00,0.0,2023-08-15 20:56,73.0,59.0,,1010.4,10.0,4.6,29.85,61.5,4.0,73.0,,,M,,,GNR,1055470,2023-08-15 21:00:00+00:00,9090.0,6.49,,
246879,2023-08-15 22:00:00+00:00,0.0,2023-08-15 21:56,73.0,59.0,,1010.5,90.0,3.45,29.85,61.5,3.0,73.0,,,M,,,GNR,1055474,2023-08-15 22:00:00+00:00,9110.0,6.5,,
246880,2023-08-15 23:00:00+00:00,0.0,2023-08-15 22:56,70.0,61.0,,1010.7,0.0,0.0,29.85,73.11,0.0,70.0,,,M,,,GNR,1055478,2023-08-15 23:00:00+00:00,9110.0,6.5,,
246881,2023-08-16 00:00:00+00:00,0.0,2023-08-15 23:56,67.0,61.0,,1011.1,0.0,0.0,29.87,81.05,0.0,67.0,,,M,,,GNR,1055482,2023-08-16 00:00:00+00:00,9090.0,6.49,,
246882,2023-08-16 01:00:00+00:00,0.0,2023-08-16 00:56,64.0,60.0,,1011.7,110.0,3.45,29.88,86.83,3.0,64.0,,,M,,,GNR,1055486,2023-08-16 01:00:00+00:00,9140.0,6.51,,
246883,2023-08-16 02:00:00+00:00,0.0,2023-08-16 01:56,63.0,60.0,,1012.0,0.0,0.0,29.89,89.93,0.0,63.0,,,M,,,GNR,1055490,2023-08-16 02:00:00+00:00,9140.0,6.51,,
246884,2023-08-16 03:00:00+00:00,0.0,2023-08-16 02:56,63.0,60.0,,1012.4,0.0,0.0,29.9,89.93,0.0,63.0,,,M,,,GNR,1055494,2023-08-16 03:00:00+00:00,8960.0,6.44,,
246885,2023-08-16 04:00:00+00:00,0.0,2023-08-16 03:56,62.0,59.0,,1012.4,0.0,0.0,29.9,89.89,0.0,62.0,,,M,,,GNR,1055498,2023-08-16 04:00:00+00:00,8960.0,6.44,,
246886,2023-08-16 05:00:00+00:00,0.0,2023-08-16 04:56,61.0,59.0,,1012.7,0.0,0.0,29.91,93.12,0.0,61.0,,,M,,,GNR,1055502,2023-08-16 05:00:00+00:00,4470.0,4.57,,
246887,2023-08-16 06:00:00+00:00,0.0,2023-08-16 05:56,62.0,59.0,,1012.5,0.0,0.0,29.91,89.89,0.0,62.0,,,M,,,GNR,1055506,2023-08-16 06:00:00+00:00,1800.0,3.14,,
246888,2023-08-16 07:00:00+00:00,0.0,2023-08-16 06:56,61.0,58.0,,1012.8,0.0,0.0,29.92,89.84,0.0,61.0,,,M,,,GNR,1055510,2023-08-16 07:00:00+00:00,1050.0,2.57,,
246889,2023-08-16 08:00:00+00:00,0.0,2023-08-16 07:56,60.0,58.0,,1012.8,0.0,0.0,29.92,93.1,0.0,60.0,,,M,,,GNR,1055514,2023-08-16 08:00:00+00:00,823.0,2.36,,
246890,2023-08-16 09:00:00+00:00,0.0,2023-08-16 08:56,60.0,58.0,,1013.0,0.0,0.0,29.92,93.1,0.0,60.0,,,M,,,GNR,1055518,2023-08-16 09:00:00+00:00,763.0,2.3,,
246891,2023-08-16 10:00:00+00:00,0.0,2023-08-16 09:56,60.0,58.0,,1013.2,0.0,0.0,29.93,93.1,0.0,60.0,,,M,,,GNR,1055522,2023-08-16 10:00:00+00:00,744.0,2.28,,
246892,2023-08-16 11:00:00+00:00,0.0,2023-08-16 10:56,63.0,61.0,,1013.4,110.0,4.6,29.94,93.18,4.0,63.0,,,M,,,GNR,1055526,2023-08-16 11:00:00+00:00,734.0,2.27,,
246893,2023-08-16 12:00:00+00:00,0.0,2023-08-16 11:56,66.0,62.0,,1014.0,130.0,5.75,29.95,86.93,5.0,66.0,,,M,,,GNR,1055530,2023-08-16 12:00:00+00:00,724.0,2.26,,
246894,2023-08-16 13:00:00+00:00,0.0,2023-08-16 12:56,68.0,61.0,,1014.4,120.0,6.9,29.96,78.3,6.0,68.0,,,M,,,GNR,1055534,2023-08-16 13:00:00+00:00,715.0,2.25,,
246895,2023-08-16 14:00:00+00:00,0.0,2023-08-16 13:56,71.0,62.0,,1014.6,,,29.97,73.21,,71.0,,,M,,,GNR,1055538,2023-08-16 14:00:00+00:00,715.0,2.25,,
246896,2023-08-16 15:00:00+00:00,0.0,2023-08-16 14:56,71.0,61.0,,1014.9,,6.9,29.98,70.66,6.0,71.0,,,M,,,GNR,1055542,2023-08-16 15:00:00+00:00,706.0,2.24,,
246897,2023-08-16 16:00:00+00:00,0.0,2023-08-16 15:56,71.0,62.0,,1014.9,140.0,9.2,29.98,73.21,8.0,71.0,,14.0,M,,,GNR,1055546,2023-08-16 16:00:00+00:00,706.0,2.24,,
246898,2023-08-16 17:00:00+00:00,0.0,2023-08-16 16:56,68.0,62.0,,1014.8,140.0,9.2,29.98,81.12,8.0,68.0,,,M,,,GNR,1055550,2023-08-16 17:00:00+00:00,5420.0,5.0,,
246899,2023-08-16 18:00:00+00:00,0.0,2023-08-16 17:56,70.0,63.0,,1014.9,130.0,5.75,29.98,78.46,5.0,70.0,,,M,,,GNR,1055554,2023-08-16 18:00:00+00:00,5460.0,5.02,,
246900,2023-08-16 19:00:00+00:00,0.0,2023-08-16 18:56,74.0,62.0,,1014.7,,5.75,29.98,66.15,5.0,74.0,,,M,,,GNR,1055558,2023-08-16 19:00:00+00:00,8170.0,6.13,,
246901,2023-08-16 20:00:00+00:00,0.0,2023-08-16 19:56,69.0,63.0,,1014.8,120.0,9.2,29.97,81.19,8.0,69.0,,,M,,,GNR,1055562,2023-08-16 20:00:00+00:00,8780.0,6.37,,
246902,2023-08-16 21:00:00+00:00,0.25,2023-08-16 20:56,66.0,63.0,,1015.3,140.0,8.05,29.98,90.05,7.0,66.0,,,M,,,GNR,1055566,2023-08-16 21:00:00+00:00,8830.0,6.39,,
246903,2023-08-16 22:00:00+00:00,0.51,2023-08-16 21:56,65.0,63.0,,1015.5,,5.75,29.99,93.24,5.0,65.0,,,M,,,GNR,1055570,2023-08-16 22:00:00+00:00,8860.0,6.4,,
246904,2023-08-16 23:00:00+00:00,0.0,2023-08-16 22:56,64.0,63.0,,1015.1,,4.6,29.98,96.55,4.0,64.0,,,M,,,GNR,1055574,2023-08-16 23:00:00+00:00,8860.0,6.4,,
246905,2023-08-17 00:00:00+00:00,0.0,2023-08-16 23:56,64.0,63.0,,1015.4,140.0,5.75,29.99,96.55,5.0,64.0,,,M,,,GNR,1055578,2023-08-17 00:00:00+00:00,8860.0,6.4,,
246906,2023-08-17 01:00:00+00:00,0.0,2023-08-17 00:56,63.0,63.0,,1015.9,150.0,5.75,30.01,100.0,5.0,63.0,,,M,,,GNR,1055582,2023-08-17 01:00:00+00:00,8880.0,6.41,,
246907,2023-08-17 02:00:00+00:00,0.0,2023-08-17 01:56,64.0,63.0,,1016.2,170.0,3.45,30.02,96.55,3.0,64.0,,,M,,,GNR,1055586,2023-08-17 02:00:00+00:00,8910.0,6.42,,
246908,2023-08-17 03:00:00+00:00,0.0,2023-08-17 02:56,64.0,63.0,,1016.4,150.0,3.45,30.02,96.55,3.0,64.0,,,M,,,GNR,1055590,2023-08-17 03:00:00+00:00,8860.0,6.4,,
246909,2023-08-17 04:00:00+00:00,0.0,2023-08-17 03:56,63.0,62.0,,1016.5,0.0,0.0,30.03,96.54,0.0,63.0,,,M,,,GNR,1055594,2023-08-17 04:00:00+00:00,4190.0,4.44,,
246910,2023-08-17 05:00:00+00:00,0.0,2023-08-17 04:56,63.0,62.0,,1016.5,,3.45,30.02,96.54,3.0,63.0,,,M,,,GNR,1055598,2023-08-17 05:00:00+00:00,1690.0,3.07,,
246911,2023-08-17 06:00:00+00:00,0.0,2023-08-17 05:56,63.0,61.0,,1016.4,,3.45,30.02,93.18,3.0,63.0,,,M,,,GNR,1055602,2023-08-17 06:00:00+00:00,987.0,2.51,,
246912,2023-08-17 07:00:00+00:00,0.0,2023-08-17 06:56,62.0,61.0,,1016.2,150.0,4.6,30.02,96.52,4.0,62.0,,,M,,,GNR,1055606,2023-08-17 07:00:00+00:00,744.0,2.28,,
246913,2023-08-17 08:00:00+00:00,0.0,2023-08-17 07:56,62.0,61.0,,1016.5,150.0,5.75,30.02,96.52,5.0,62.0,,,M,,,GNR,1055610,2023-08-17 08:00:00+00:00,696.0,2.23,,
246914,2023-08-17 09:00:00+00:00,0.0,2023-08-17 08:56,61.0,61.0,,1016.7,140.0,5.75,30.03,100.0,5.0,61.0,,,M,,,GNR,1055614,2023-08-17 09:00:00+00:00,678.0,2.21,,
246915,2023-08-17 10:00:00+00:00,0.0,2023-08-17 09:56,61.0,61.0,,1017.1,140.0,6.9,30.03,100.0,6.0,61.0,,,M,,,GNR,1055618,2023-08-17 10:00:00+00:00,678.0,2.21,,
246916,2023-08-17 11:00:00+00:00,0.0,2023-08-17 10:56,61.0,61.0,,1017.5,,5.75,30.05,100.0,5.0,61.0,,,M,,,GNR,1055622,2023-08-17 11:00:00+00:00,669.0,2.2,,
246917,2023-08-17 12:00:00+00:00,0.0,2023-08-17 11:56,62.0,62.0,,1018.0,,4.6,30.06,100.0,4.0,62.0,,,M,,,GNR,1055626,2023-08-17 12:00:00+00:00,669.0,2.2,,
246918,2023-08-17 13:00:00+00:00,0.0,2023-08-17 12:56,62.0,61.0,,1018.0,,4.6,30.06,96.52,4.0,62.0,,,M,,,GNR,1055630,2023-08-17 13:00:00+00:00,660.0,2.19,,
246919,2023-08-17 14:00:00+00:00,0.0,2023-08-17 13:56,63.0,62.0,,1017.8,,4.6,30.06,96.54,4.0,63.0,,,M,,,GNR,1055634,2023-08-17 14:00:00+00:00,660.0,2.19,,
246920,2023-08-17 15:00:00+00:00,0.0,2023-08-17 14:56,64.0,61.0,,1017.7,,4.6,30.06,89.97,4.0,64.0,,,M,,,GNR,1055638,2023-08-17 15:00:00+00:00,660.0,2.19,,
246921,2023-08-17 16:00:00+00:00,0.0,2023-08-17 15:56,64.0,61.0,,1017.4,150.0,8.05,30.05,89.97,7.0,64.0,,,M,,,GNR,1055642,2023-08-17 16:00:00+00:00,660.0,2.19,,
246922,2023-08-17 17:00:00+00:00,0.0,2023-08-17 16:56,66.0,61.0,,1016.9,140.0,8.05,30.04,83.91,7.0,66.0,,15.0,M,,,GNR,1055646,2023-08-17 17:00:00+00:00,5350.0,4.97,,
246923,2023-08-17 18:00:00+00:00,0.0,2023-08-17 17:56,66.0,61.0,,1016.8,,5.75,30.03,83.91,5.0,66.0,,,M,,,GNR,1055650,2023-08-17 18:00:00+00:00,5370.0,4.98,,
246924,2023-08-17 19:00:00+00:00,0.0,2023-08-17 18:56,66.0,61.0,,1016.7,,5.75,30.03,83.91,5.0,66.0,,,M,,,GNR,1055654,2023-08-17 19:00:00+00:00,8120.0,6.11,,
246925,2023-08-17 20:00:00+00:00,0.0,2023-08-17 19:56,65.0,61.0,,1016.5,,6.9,30.02,86.88,6.0,65.0,,,M,,,GNR,1055658,2023-08-17 20:00:00+00:00,8810.0,6.38,,
246926,2023-08-17 21:00:00+00:00,0.0,2023-08-17 20:56,65.0,61.0,,1016.5,,5.75,30.02,86.88,5.0,65.0,,,M,,,GNR,1055662,2023-08-17 21:00:00+00:00,8830.0,6.39,,
246927,2023-08-17 22:00:00+00:00,0.0,2023-08-17 21:56,65.0,61.0,,1016.0,0.0,0.0,30.0,86.88,0.0,65.0,,,M,,,GNR,1055666,2023-08-17 22:00:00+00:00,8860.0,6.4,,
246928,2023-08-17 23:00:00+00:00,0.25,2023-08-17 22:56,63.0,62.0,,1015.6,,5.75,29.99,96.54,5.0,63.0,,,M,,,GNR,1055670,2023-08-17 23:00:00+00:00,8860.0,6.4,,
246929,2023-08-18 00:00:00+00:00,0.0,2023-08-17 23:56,63.0,62.0,,1015.6,,,29.99,96.54,,63.0,,,M,,,GNR,1055674,2023-08-18 00:00:00+00:00,8910.0,6.42,,
246930,2023-08-18 01:00:00+00:00,0.0,2023-08-18 00:56,63.0,61.0,,1015.3,,4.6,29.98,93.18,4.0,63.0,,,M,,,GNR,1055678,2023-08-18 01:00:00+00:00,8940.0,6.43,,
246931,2023-08-18 02:00:00+00:00,0.0,2023-08-18 01:56,62.0,61.0,,1014.7,,6.9,29.97,96.52,6.0,62.0,,,M,,,GNR,1055682,2023-08-18 02:00:00+00:00,8940.0,6.43,,
246932,2023-08-18 03:00:00+00:00,0.25,2023-08-18 02:56,62.0,61.0,,1014.3,140.0,8.05,29.95,96.52,7.0,62.0,,,M,,,GNR,1055686,2023-08-18 03:00:00+00:00,8910.0,6.42,,
246933,2023-08-18 04:00:00+00:00,0.51,2023-08-18 03:56,62.0,61.0,,1013.8,150.0,6.9,29.94,96.52,6.0,62.0,,14.0,M,,,GNR,1055690,2023-08-18 04:00:00+00:00,3930.0,4.32,,
246934,2023-08-18 05:00:00+00:00,0.0,2023-08-18 04:56,62.0,61.0,,1013.3,160.0,10.35,29.93,96.52,9.0,62.0,,17.0,M,,,GNR,1055694,2023-08-18 05:00:00+00:00,1620.0,3.02,,
246935,2023-08-18 06:00:00+00:00,0.0,2023-08-18 05:56,62.0,62.0,,1012.7,,4.6,29.91,100.0,4.0,62.0,,,M,,,GNR,1055698,2023-08-18 06:00:00+00:00,953.0,2.48,,
246936,2023-08-18 07:00:00+00:00,0.51,2023-08-18 06:56,62.0,61.0,,1011.9,130.0,9.2,29.89,96.52,8.0,62.0,,,M,,,GNR,1055702,2023-08-18 07:00:00+00:00,744.0,2.28,,
246937,2023-08-18 08:00:00+00:00,0.0,2023-08-18 07:56,62.0,61.0,,1011.3,140.0,10.35,29.87,96.52,9.0,62.0,,,M,,,GNR,1055706,2023-08-18 08:00:00+00:00,687.0,2.22,,
246938,2023-08-18 09:00:00+00:00,0.0,2023-08-18 08:56,62.0,61.0,,1010.4,120.0,8.05,29.84,96.52,7.0,62.0,,,M,,,GNR,1055710,2023-08-18 09:00:00+00:00,669.0,2.2,,
246939,2023-08-18 10:00:00+00:00,0.25,2023-08-18 09:56,62.0,61.0,,1010.4,130.0,8.05,29.84,96.52,7.0,62.0,,,M,,,GNR,1055714,2023-08-18 10:00:00+00:00,660.0,2.19,,
246940,2023-08-18 11:00:00+00:00,0.0,2023-08-18 10:56,62.0,62.0,,1009.9,120.0,10.35,29.83,100.0,9.0,62.0,,,M,,,GNR,1055718,2023-08-18 11:00:00+00:00,660.0,2.19,,
246941,2023-08-18 12:00:00+00:00,0.0,2023-08-18 11:56,63.0,62.0,,1009.5,130.0,9.2,29.81,96.54,8.0,63.0,,,M,,,GNR,1055722,2023-08-18 12:00:00+00:00,660.0,2.19,,
246942,2023-08-18 13:00:00+00:00,0.0,2023-08-18 12:56,63.0,62.0,,1009.5,130.0,8.05,29.81,96.54,7.0,63.0,,,M,,,GNR,1055726,2023-08-18 13:00:00+00:00,651.0,2.18,,
246943,2023-08-18 14:00:00+00:00,0.0,2023-08-18 13:56,64.0,63.0,,1008.7,110.0,8.05,29.79,96.55,7.0,64.0,,,M,,,GNR,1055730,2023-08-18 14:00:00+00:00,651.0,2.18,,
246944,2023-08-18 15:00:00+00:00,0.0,2023-08-18 14:56,65.0,64.0,,1007.7,140.0,10.35,29.76,96.57,9.0,65.0,,,M,,,GNR,1055734,2023-08-18 15:00:00+00:00,651.0,2.18,,
246945,2023-08-18 16:00:00+00:00,0.25,2023-08-18 15:56,65.0,64.0,,1007.6,130.0,11.5,29.76,96.57,10.0,65.0,,,M,,,GNR,1055738,2023-08-18 16:00:00+00:00,651.0,2.18,,
246946,2023-08-18 17:00:00+00:00,0.0,2023-08-18 16:56,65.0,65.0,,1006.1,120.0,9.2,29.72,100.0,8.0,65.0,,,M,,,GNR,1055742,2023-08-18 17:00:00+00:00,5320.0,4.96,,
246947,2023-08-18 18:00:00+00:00,0.0,2023-08-18 17:56,66.0,65.0,,1005.7,130.0,10.35,29.7,96.58,9.0,66.0,,,M,,,GNR,1055746,2023-08-18 18:00:00+00:00,5370.0,4.98,,
246948,2023-08-18 19:00:00+00:00,1.52,2023-08-18 18:56,67.0,65.0,,1004.5,110.0,10.35,29.67,93.29,9.0,67.0,,,M,,,GNR,1055750,2023-08-18 19:00:00+00:00,8320.0,6.19,,
246949,2023-08-18 20:00:00+00:00,2.54,2023-08-18 19:56,67.0,65.0,,1002.8,90.0,9.2,29.62,93.29,8.0,67.0,,15.0,M,,,GNR,1055754,2023-08-18 20:00:00+00:00,8830.0,6.39,,
246950,2023-08-18 21:00:00+00:00,2.29,2023-08-18 20:56,67.0,66.0,,1002.2,90.0,8.05,29.61,96.59,7.0,67.0,,,M,,,GNR,1055758,2023-08-18 21:00:00+00:00,8880.0,6.41,,
246951,2023-08-18 22:00:00+00:00,0.25,2023-08-18 21:56,68.0,67.0,,1001.4,,3.45,29.58,96.61,3.0,68.0,,,M,,,GNR,1055762,2023-08-18 22:00:00+00:00,8940.0,6.43,,
246952,2023-08-18 23:00:00+00:00,0.51,2023-08-18 22:56,67.0,67.0,,1001.6,,,29.59,100.0,,67.0,,,M,,,GNR,1055766,2023-08-18 23:00:00+00:00,9010.0,6.46,,
246953,2023-08-19 00:00:00+00:00,2.03,2023-08-18 23:56,64.0,63.0,,1002.4,330.0,6.9,29.61,96.55,6.0,64.0,,,M,,,GNR,1055770,2023-08-19 00:00:00+00:00,9090.0,6.49,,
246954,2023-08-19 01:00:00+00:00,0.0,2023-08-19 00:56,64.0,62.0,,1003.2,0.0,0.0,29.63,93.21,0.0,64.0,,,M,,,GNR,1055774,2023-08-19 01:00:00+00:00,9210.0,6.54,,
246955,2023-08-19 02:00:00+00:00,0.0,2023-08-19 01:56,64.0,63.0,,1004.2,0.0,0.0,29.66,96.55,0.0,64.0,,,M,,,GNR,1055778,2023-08-19 02:00:00+00:00,9260.0,6.56,,
246956,2023-08-19 03:00:00+00:00,0.25,2023-08-19 02:56,63.0,61.0,,1004.4,290.0,4.6,29.67,93.18,4.0,63.0,,,M,,,GNR,1055782,2023-08-19 03:00:00+00:00,9360.0,6.6,,
246957,2023-08-19 04:00:00+00:00,0.0,2023-08-19 03:56,62.0,59.0,,1004.6,300.0,5.75,29.67,89.89,5.0,62.0,,,M,,,GNR,1055786,2023-08-19 04:00:00+00:00,4660.0,4.66,,
246958,2023-08-19 05:00:00+00:00,0.0,2023-08-19 04:56,61.0,58.0,,1005.0,0.0,0.0,29.68,89.84,0.0,61.0,,,M,,,GNR,1055790,2023-08-19 05:00:00+00:00,2110.0,3.34,,
246959,2023-08-19 06:00:00+00:00,0.0,2023-08-19 05:56,60.0,57.0,,1005.2,310.0,5.75,29.69,89.8,5.0,60.0,,,M,,,GNR,1055794,2023-08-19 06:00:00+00:00,1430.0,2.88,,
246960,2023-08-19 07:00:00+00:00,0.0,2023-08-19 06:56,60.0,56.0,,1005.0,330.0,8.05,29.68,86.61,7.0,60.0,,,M,,,GNR,1055798,2023-08-19 07:00:00+00:00,1250.0,2.74,,
246961,2023-08-19 08:00:00+00:00,0.0,2023-08-19 07:56,60.0,56.0,,1005.6,360.0,3.45,29.7,86.61,3.0,60.0,,,M,,,GNR,1055802,2023-08-19 08:00:00+00:00,1240.0,2.73,,
246962,2023-08-19 09:00:00+00:00,0.0,2023-08-19 08:56,57.0,55.0,,1005.9,0.0,0.0,29.71,93.01,0.0,57.0,,,M,,,GNR,1055806,2023-08-19 09:00:00+00:00,1230.0,2.72,,
246963,2023-08-19 10:00:00+00:00,0.0,2023-08-19 09:56,56.0,54.0,,1006.0,20.0,3.45,29.71,92.98,3.0,56.0,,,M,,,GNR,1055810,2023-08-19 10:00:00+00:00,1220.0,2.71,,
246964,2023-08-19 11:00:00+00:00,0.0,2023-08-19 10:56,60.0,57.0,,1006.6,0.0,0.0,29.73,89.8,0.0,60.0,,,M,,,GNR,1055814,2023-08-19 11:00:00+00:00,1200.0,2.7,,
246965,2023-08-19 12:00:00+00:00,0.0,2023-08-19 11:56,62.0,56.0,,1007.6,0.0,0.0,29.76,80.68,0.0,62.0,,,M,,,GNR,1055818,2023-08-19 12:00:00+00:00,1190.0,2.69,,
246966,2023-08-19 13:00:00+00:00,0.0,2023-08-19 12:56,63.0,57.0,,1008.2,350.0,4.6,29.78,80.76,4.0,63.0,,,M,,,GNR,1055822,2023-08-19 13:00:00+00:00,1180.0,2.68,,
246967,2023-08-19 14:00:00+00:00,0.0,2023-08-19 13:56,66.0,56.0,,1008.4,0.0,0.0,29.79,70.14,0.0,66.0,,,M,,,GNR,1055826,2023-08-19 14:00:00+00:00,1170.0,2.67,,
246968,2023-08-19 15:00:00+00:00,0.0,2023-08-19 14:56,67.0,54.0,,1008.6,,3.45,29.79,62.99,3.0,67.0,,,M,,,GNR,1055830,2023-08-19 15:00:00+00:00,1160.0,2.66,,
246969,2023-08-19 16:00:00+00:00,0.0,2023-08-19 15:56,69.0,57.0,,1008.2,,4.6,29.78,65.57,4.0,69.0,,,M,,,GNR,1055834,2023-08-19 16:00:00+00:00,1320.0,2.79,,
246970,2023-08-19 17:00:00+00:00,0.0,2023-08-19 16:56,68.0,54.0,,1008.0,210.0,4.6,29.77,60.86,4.0,68.0,,,M,,,GNR,1055838,2023-08-19 17:00:00+00:00,5830.0,5.18,,
246971,2023-08-19 18:00:00+00:00,0.0,2023-08-19 17:56,68.0,56.0,,1008.1,,3.45,29.77,65.45,3.0,68.0,,,M,,,GNR,1055842,2023-08-19 18:00:00+00:00,5830.0,5.18,,
246972,2023-08-19 19:00:00+00:00,0.0,2023-08-19 18:56,69.0,56.0,,1008.0,,3.45,29.77,63.24,3.0,69.0,,,M,,,GNR,1055846,2023-08-19 19:00:00+00:00,4680.0,4.67,,
246973,2023-08-19 20:00:00+00:00,0.0,2023-08-19 19:56,67.0,56.0,,1008.4,0.0,0.0,29.78,67.75,0.0,67.0,,,M,,,GNR,1055850,2023-08-19 20:00:00+00:00,3540.0,4.13,,
246974,2023-08-19 21:00:00+00:00,0.0,2023-08-19 20:56,66.0,54.0,,1008.8,,3.45,29.79,65.21,3.0,66.0,,,M,,,GNR,1055854,2023-08-19 21:00:00+00:00,8120.0,6.11,,
246975,2023-08-19 22:00:00+00:00,0.0,2023-08-19 21:56,64.0,55.0,,1009.5,,4.6,29.81,72.52,4.0,64.0,,,M,,,GNR,1055858,2023-08-19 22:00:00+00:00,9160.0,6.52,,
246976,2023-08-19 23:00:00+00:00,0.25,2023-08-19 22:56,60.0,57.0,,1009.6,0.0,0.0,29.81,89.8,0.0,60.0,,,M,,,GNR,1055862,2023-08-19 23:00:00+00:00,9240.0,6.55,,
246977,2023-08-20 00:00:00+00:00,0.25,2023-08-19 23:56,58.0,56.0,,1009.8,330.0,3.45,29.82,93.04,3.0,58.0,,,M,,,GNR,1055866,2023-08-20 00:00:00+00:00,9210.0,6.54,,
246978,2023-08-20 01:00:00+00:00,0.0,2023-08-20 00:56,58.0,56.0,,1010.4,300.0,5.75,29.84,93.04,5.0,58.0,,,M,,,GNR,1055870,2023-08-20 01:00:00+00:00,9210.0,6.54,,
246979,2023-08-20 02:00:00+00:00,0.0,2023-08-20 01:56,59.0,56.0,,1010.2,0.0,0.0,29.83,89.76,0.0,59.0,,,M,,,GNR,1055874,2023-08-20 02:00:00+00:00,9240.0,6.55,,
246980,2023-08-20 03:00:00+00:00,0.0,2023-08-20 02:56,58.0,56.0,,1010.3,0.0,0.0,29.84,93.04,0.0,58.0,,,M,,,GNR,1055878,2023-08-20 03:00:00+00:00,9210.0,6.54,,
246981,2023-08-20 04:00:00+00:00,0.25,2023-08-20 03:56,57.0,56.0,,1010.5,0.0,0.0,29.84,96.45,0.0,57.0,,,M,,,GNR,1055882,2023-08-20 04:00:00+00:00,4680.0,4.67,,
246982,2023-08-20 05:00:00+00:00,0.51,2023-08-20 04:56,57.0,56.0,,1010.2,0.0,0.0,29.83,96.45,0.0,57.0,,,M,,,GNR,1055886,2023-08-20 05:00:00+00:00,1930.0,3.23,,
246983,2023-08-20 06:00:00+00:00,0.76,2023-08-20 05:56,57.0,56.0,,1010.0,0.0,0.0,29.83,96.45,0.0,57.0,,,M,,,GNR,1055890,2023-08-20 06:00:00+00:00,1230.0,2.72,,
246984,2023-08-20 07:00:00+00:00,1.52,2023-08-20 06:56,57.0,56.0,,1010.0,200.0,3.45,29.83,96.45,3.0,57.0,,,M,,,GNR,1055894,2023-08-20 07:00:00+00:00,1030.0,2.55,,
246985,2023-08-20 08:00:00+00:00,0.0,2023-08-20 07:56,57.0,56.0,,1010.1,190.0,3.45,29.83,96.45,3.0,57.0,,,M,,,GNR,1055898,2023-08-20 08:00:00+00:00,1010.0,2.53,,
246986,2023-08-20 09:00:00+00:00,0.0,2023-08-20 08:56,58.0,56.0,,1010.4,0.0,0.0,29.84,93.04,0.0,58.0,,,M,,,GNR,1055902,2023-08-20 09:00:00+00:00,1010.0,2.53,,
246987,2023-08-20 10:00:00+00:00,0.0,2023-08-20 09:56,58.0,56.0,,1011.1,,,29.86,93.04,,58.0,,,M,,,GNR,1055906,2023-08-20 10:00:00+00:00,1010.0,2.53,,
246988,2023-08-20 11:00:00+00:00,0.0,2023-08-20 10:56,59.0,57.0,,1011.7,,,29.87,93.07,,59.0,,,M,,,GNR,1055910,2023-08-20 11:00:00+00:00,1010.0,2.53,,
246989,2023-08-20 12:00:00+00:00,0.0,2023-08-20 11:56,60.0,57.0,,1012.3,280.0,4.6,29.89,89.8,4.0,60.0,,,M,,,GNR,1055914,2023-08-20 12:00:00+00:00,1010.0,2.53,,
246990,2023-08-20 13:00:00+00:00,0.0,2023-08-20 12:56,61.0,57.0,,1012.5,300.0,8.05,29.9,86.67,7.0,61.0,,19.0,M,,,GNR,1055918,2023-08-20 13:00:00+00:00,999.0,2.52,,
246991,2023-08-20 14:00:00+00:00,0.0,2023-08-20 13:56,62.0,58.0,,1013.4,,5.75,29.92,86.72,5.0,62.0,,,M,,,GNR,1055922,2023-08-20 14:00:00+00:00,987.0,2.51,,
246992,2023-08-20 15:00:00+00:00,0.0,2023-08-20 14:56,65.0,57.0,,1013.9,310.0,10.35,29.94,75.3,9.0,65.0,,17.0,M,,,GNR,1055926,2023-08-20 15:00:00+00:00,976.0,2.5,,
246993,2023-08-20 16:00:00+00:00,0.0,2023-08-20 15:56,68.0,58.0,,1014.3,310.0,9.2,29.95,70.35,8.0,68.0,,15.0,M,,,GNR,1055930,2023-08-20 16:00:00+00:00,1020.0,2.54,2023-08-20 16:00:00+00:00,gs://gcp-public-data-sentinel-2/tiles/19/T/DL/S2A_MSIL1C_20230820T153821_N0509_R011_T19TDL_20230820T205751.SAFE
246994,2023-08-20 17:00:00+00:00,0.0,2023-08-20 16:56,70.0,58.0,,1014.2,300.0,6.9,29.95,65.69,6.0,70.0,,,M,,,GNR,1055934,2023-08-20 17:00:00+00:00,5670.0,5.11,,
246995,2023-08-20 18:00:00+00:00,0.0,2023-08-20 17:56,70.0,59.0,,1014.1,,5.75,29.95,68.09,5.0,70.0,,,M,,,GNR,1055938,2023-08-20 18:00:00+00:00,5690.0,5.12,,
246996,2023-08-20 19:00:00+00:00,0.0,2023-08-20 18:56,71.0,60.0,,1014.3,330.0,8.05,29.96,68.2,7.0,71.0,,,M,,,GNR,1055942,2023-08-20 19:00:00+00:00,4550.0,4.61,,
246997,2023-08-20 20:00:00+00:00,0.0,2023-08-20 19:56,75.0,59.0,,1013.8,,4.6,29.95,57.5,4.0,75.0,,,M,,,GNR,1055946,2023-08-20 20:00:00+00:00,3440.0,4.08,,
246998,2023-08-20 21:00:00+00:00,0.0,2023-08-20 20:56,75.0,58.0,,1013.7,,4.6,29.94,55.48,4.0,75.0,,,M,,,GNR,1055950,2023-08-20 21:00:00+00:00,8020.0,6.07,,
246999,2023-08-20 22:00:00+00:00,0.0,2023-08-20 21:56,74.0,58.0,,1014.0,,3.45,29.95,57.37,3.0,74.0,,,M,,,GNR,1055954,2023-08-20 22:00:00+00:00,9040.0,6.47,,
247000,2023-08-20 23:00:00+00:00,0.0,2023-08-20 22:56,68.0,60.0,,1014.0,0.0,0.0,29.95,75.57,0.0,68.0,,,M,,,GNR,1055958,2023-08-20 23:00:00+00:00,9040.0,6.47,,
247001,2023-08-21 00:00:00+00:00,0.0,2023-08-20 23:56,69.0,58.0,,1014.3,290.0,4.6,29.96,67.97,4.0,69.0,,,M,,,GNR,1055962,2023-08-21 00:00:00+00:00,9090.0,6.49,,
247002,2023-08-21 01:00:00+00:00,0.0,2023-08-21 00:56,67.0,58.0,,1015.1,,3.45,29.98,72.82,3.0,67.0,,,M,,,GNR,1055966,2023-08-21 01:00:00+00:00,9110.0,6.5,,
247003,2023-08-21 02:00:00+00:00,0.0,2023-08-21 01:56,68.0,58.0,,1014.4,,6.9,29.96,70.35,6.0,68.0,,,M,,,GNR,1055970,2023-08-21 02:00:00+00:00,9110.0,6.5,,
247004,2023-08-21 03:00:00+00:00,0.0,2023-08-21 02:56,67.0,58.0,,1014.5,,4.6,29.97,72.82,4.0,67.0,,,M,,,GNR,1055974,2023-08-21 03:00:00+00:00,9090.0,6.49,,
247005,2023-08-21 04:00:00+00:00,0.0,2023-08-21 03:56,68.0,58.0,,1014.7,,4.6,29.97,70.35,4.0,68.0,,,M,,,GNR,1055978,2023-08-21 04:00:00+00:00,4380.0,4.53,,
247006,2023-08-21 05:00:00+00:00,0.0,2023-08-21 04:56,67.0,59.0,,1014.4,0.0,0.0,29.97,75.48,0.0,67.0,,,M,,,GNR,1055982,2023-08-21 05:00:00+00:00,1840.0,3.17,,
247007,2023-08-21 06:00:00+00:00,0.0,2023-08-21 05:56,68.0,59.0,,1013.7,,3.45,29.95,72.92,3.0,68.0,,,M,,,GNR,1055986,2023-08-21 06:00:00+00:00,1160.0,2.66,,
247008,2023-08-21 07:00:00+00:00,0.0,2023-08-21 06:56,68.0,59.0,,1013.3,0.0,0.0,29.94,72.92,0.0,68.0,,,M,,,GNR,1055990,2023-08-21 07:00:00+00:00,953.0,2.48,,
247009,2023-08-21 08:00:00+00:00,0.0,2023-08-21 07:56,68.0,58.0,,1013.3,0.0,0.0,29.94,70.35,0.0,68.0,,,M,,,GNR,1055994,2023-08-21 08:00:00+00:00,919.0,2.45,,
247010,2023-08-21 09:00:00+00:00,0.0,2023-08-21 08:56,67.0,59.0,,1013.1,0.0,0.0,29.93,75.48,0.0,67.0,,,M,,,GNR,1055998,2023-08-21 09:00:00+00:00,908.0,2.44,,
247011,2023-08-21 10:00:00+00:00,0.0,2023-08-21 09:56,67.0,61.0,,1013.4,,5.75,29.94,81.05,5.0,67.0,,,M,,,GNR,1056002,2023-08-21 10:00:00+00:00,897.0,2.43,,
247012,2023-08-21 11:00:00+00:00,0.0,2023-08-21 10:56,67.0,62.0,,1014.0,,5.75,29.95,83.97,5.0,67.0,,,M,,,GNR,1056006,2023-08-21 11:00:00+00:00,897.0,2.43,,
247013,2023-08-21 12:00:00+00:00,0.0,2023-08-21 11:56,66.0,62.0,,1014.2,310.0,9.2,29.96,86.93,8.0,66.0,,16.0,M,,,GNR,1056010,2023-08-21 12:00:00+00:00,887.0,2.42,,
247014,2023-08-21 13:00:00+00:00,0.0,2023-08-21 12:56,67.0,63.0,,1014.4,320.0,10.35,29.97,86.98,9.0,67.0,,15.0,M,,,GNR,1056014,2023-08-21 13:00:00+00:00,887.0,2.42,,
247015,2023-08-21 14:00:00+00:00,0.0,2023-08-21 13:56,69.0,63.0,,1014.6,320.0,11.5,29.97,81.19,10.0,69.0,,19.0,M,,,GNR,1056018,2023-08-21 14:00:00+00:00,876.0,2.41,,
247016,2023-08-21 15:00:00+00:00,0.0,2023-08-21 14:56,71.0,63.0,,1014.8,320.0,16.1,29.98,75.84,14.0,71.0,,22.0,M,,,GNR,1056022,2023-08-21 15:00:00+00:00,876.0,2.41,,
247017,2023-08-21 16:00:00+00:00,0.0,2023-08-21 15:56,72.0,61.0,,1015.1,320.0,11.5,29.99,68.31,10.0,72.0,,17.0,M,,,GNR,1056026,2023-08-21 16:00:00+00:00,865.0,2.4,,
247018,2023-08-21 17:00:00+00:00,0.0,2023-08-21 16:56,72.0,59.0,,1015.2,340.0,9.2,29.99,63.61,8.0,72.0,,18.0,M,,,GNR,1056030,2023-08-21 17:00:00+00:00,5530.0,5.05,,
247019,2023-08-21 18:00:00+00:00,0.0,2023-08-21 17:56,71.0,57.0,,1015.3,330.0,14.95,29.99,61.24,13.0,71.0,,21.0,M,,,GNR,1056034,2023-08-21 18:00:00+00:00,5530.0,5.05,,
247020,2023-08-21 19:00:00+00:00,0.0,2023-08-21 18:56,71.0,55.0,,1015.4,320.0,10.35,30.0,56.96,9.0,71.0,,16.0,M,,,GNR,1056038,2023-08-21 19:00:00+00:00,8070.0,6.09,,
247021,2023-08-21 20:00:00+00:00,0.0,2023-08-21 19:56,69.0,53.0,,1015.3,340.0,10.35,30.0,56.69,9.0,69.0,,,M,,,GNR,1056042,2023-08-21 20:00:00+00:00,8910.0,6.42,,
247022,2023-08-21 21:00:00+00:00,0.0,2023-08-21 20:56,68.0,53.0,,1015.8,330.0,8.05,30.01,58.67,7.0,68.0,,,M,,,GNR,1056046,2023-08-21 21:00:00+00:00,8940.0,6.43,,
247023,2023-08-21 22:00:00+00:00,0.0,2023-08-21 21:56,66.0,54.0,,1016.2,330.0,10.35,30.02,65.21,9.0,66.0,,,M,,,GNR,1056050,2023-08-21 22:00:00+00:00,8940.0,6.43,,
247024,2023-08-21 23:00:00+00:00,0.0,2023-08-21 22:56,64.0,54.0,,1016.8,320.0,8.05,30.03,69.92,7.0,64.0,,,M,,,GNR,1056054,2023-08-21 23:00:00+00:00,8940.0,6.43,,
247025,2023-08-22 00:00:00+00:00,0.0,2023-08-21 23:56,63.0,52.0,,1017.4,340.0,12.65,30.05,67.29,11.0,63.0,,,M,,,GNR,1056058,2023-08-22 00:00:00+00:00,9110.0,6.5,,
247026,2023-08-22 01:00:00+00:00,0.0,2023-08-22 00:56,61.0,52.0,,1017.3,340.0,8.05,30.05,72.22,7.0,61.0,,19.0,M,,,GNR,1056062,2023-08-22 01:00:00+00:00,9160.0,6.52,,
247027,2023-08-22 02:00:00+00:00,0.0,2023-08-22 01:56,60.0,51.0,,1017.6,330.0,13.8,30.06,72.12,12.0,60.0,,,M,,,GNR,1056066,2023-08-22 02:00:00+00:00,9090.0,6.49,,
247028,2023-08-22 03:00:00+00:00,0.0,2023-08-22 02:56,60.0,50.0,,1017.7,340.0,11.5,30.06,69.49,10.0,60.0,,,M,,,GNR,1056070,2023-08-22 03:00:00+00:00,4170.0,4.43,,
247029,2023-08-22 04:00:00+00:00,0.0,2023-08-22 03:56,58.0,50.0,,1017.7,360.0,8.05,30.06,74.64,7.0,58.0,,,M,,,GNR,1056074,2023-08-22 04:00:00+00:00,1750.0,3.11,,
247030,2023-08-22 05:00:00+00:00,0.0,2023-08-22 04:56,56.0,49.0,,1017.7,360.0,4.6,30.06,77.29,4.0,56.0,,,M,,,GNR,1056078,2023-08-22 05:00:00+00:00,1080.0,2.59,,
247031,2023-08-22 06:00:00+00:00,0.0,2023-08-22 05:56,55.0,49.0,,1018.0,360.0,4.6,30.06,80.15,4.0,55.0,,,M,,,GNR,1056082,2023-08-22 06:00:00+00:00,865.0,2.4,,
247032,2023-08-22 07:00:00+00:00,0.0,2023-08-22 06:56,55.0,48.0,,1017.6,330.0,9.2,30.05,77.21,8.0,55.0,,,M,,,GNR,1056086,2023-08-22 07:00:00+00:00,834.0,2.37,,
247033,2023-08-22 08:00:00+00:00,0.0,2023-08-22 07:56,53.0,48.0,,1017.8,0.0,0.0,30.05,83.06,0.0,53.0,,,M,,,GNR,1056090,2023-08-22 08:00:00+00:00,823.0,2.36,,
247034,2023-08-22 09:00:00+00:00,0.0,2023-08-22 08:56,52.0,48.0,,1017.8,0.0,0.0,30.05,86.17,0.0,52.0,,,M,,,GNR,1056094,2023-08-22 09:00:00+00:00,813.0,2.35,,
247035,2023-08-22 10:00:00+00:00,0.0,2023-08-22 09:56,52.0,49.0,,1018.2,0.0,0.0,30.06,89.46,0.0,52.0,,,M,,,GNR,1056098,2023-08-22 10:00:00+00:00,803.0,2.34,,
247036,2023-08-22 11:00:00+00:00,0.0,2023-08-22 10:56,56.0,50.0,,1018.4,320.0,9.2,30.07,80.23,8.0,56.0,,,M,,,GNR,1056102,2023-08-22 11:00:00+00:00,803.0,2.34,,
247037,2023-08-22 12:00:00+00:00,0.0,2023-08-22 11:56,59.0,50.0,,1018.6,330.0,12.65,30.08,72.01,11.0,59.0,,19.0,M,,,GNR,1056106,2023-08-22 12:00:00+00:00,793.0,2.33,,
247038,2023-08-22 13:00:00+00:00,0.0,2023-08-22 12:56,62.0,51.0,,1018.3,330.0,11.5,30.07,67.18,10.0,62.0,,17.0,M,,,GNR,1056110,2023-08-22 13:00:00+00:00,793.0,2.33,,
247039,2023-08-22 14:00:00+00:00,0.0,2023-08-22 13:56,63.0,51.0,,1018.4,330.0,12.65,30.07,64.85,11.0,63.0,,22.0,M,,,GNR,1056114,2023-08-22 14:00:00+00:00,793.0,2.33,,
247040,2023-08-22 15:00:00+00:00,0.0,2023-08-22 14:56,65.0,50.0,,1018.5,330.0,12.65,30.08,58.26,11.0,65.0,,19.0,M,,,GNR,1056118,2023-08-22 15:00:00+00:00,783.0,2.32,,
247041,2023-08-22 16:00:00+00:00,0.0,2023-08-22 15:56,67.0,48.0,,1018.3,330.0,16.1,30.07,50.44,14.0,67.0,,24.0,M,,,GNR,1056122,2023-08-22 16:00:00+00:00,783.0,2.32,2023-08-22 16:00:00+00:00,gs://gcp-public-data-sentinel-2/tiles/19/T/DL/S2B_MSIL1C_20230822T153559_N0509_R111_T19TDL_20230822T201838.SAFE
247042,2023-08-22 17:00:00+00:00,0.0,2023-08-22 16:56,67.0,47.0,,1017.9,320.0,12.65,30.06,48.58,11.0,67.0,,19.0,M,,,GNR,1056126,2023-08-22 17:00:00+00:00,5440.0,5.01,,
247043,2023-08-22 18:00:00+00:00,0.0,2023-08-22 17:56,67.0,46.0,,1017.9,330.0,16.1,30.06,46.78,14.0,67.0,,24.0,M,27.0,,GNR,1056130,2023-08-22 18:00:00+00:00,5460.0,5.02,,
247044,2023-08-22 19:00:00+00:00,0.0,2023-08-22 18:56,68.0,46.0,,1017.7,360.0,11.5,30.05,45.19,10.0,68.0,,21.0,M,27.0,,GNR,1056134,2023-08-22 19:00:00+00:00,8190.0,6.14,,
247045,2023-08-22 20:00:00+00:00,0.0,2023-08-22 19:56,67.0,45.0,,1017.8,340.0,12.65,30.05,45.04,11.0,67.0,,19.0,M,,,GNR,1056138,2023-08-22 20:00:00+00:00,8860.0,6.4,,
247046,2023-08-22 21:00:00+00:00,0.0,2023-08-22 20:56,66.0,44.0,,1018.1,340.0,10.35,30.06,44.88,9.0,66.0,,18.0,M,,,GNR,1056142,2023-08-22 21:00:00+00:00,8860.0,6.4,,
247047,2023-08-22 22:00:00+00:00,0.0,2023-08-22 21:56,65.0,44.0,,1018.2,340.0,10.35,30.06,46.47,9.0,65.0,,18.0,M,,,GNR,1056146,2023-08-22 22:00:00+00:00,8880.0,6.41,,
247048,2023-08-22 23:00:00+00:00,0.0,2023-08-22 22:56,62.0,44.0,,1018.4,340.0,12.65,30.07,51.63,11.0,62.0,,16.0,M,,,GNR,1056150,2023-08-22 23:00:00+00:00,8910.0,6.42,,
247049,2023-08-23 00:00:00+00:00,0.0,2023-08-22 23:56,59.0,46.0,,1019.0,360.0,5.75,30.08,61.98,5.0,59.0,,,M,,,GNR,1056154,2023-08-23 00:00:00+00:00,8940.0,6.43,,
247050,2023-08-23 01:00:00+00:00,0.0,2023-08-23 00:56,58.0,45.0,,1019.4,350.0,8.05,30.1,61.85,7.0,58.0,,,M,,,GNR,1056158,2023-08-23 01:00:00+00:00,8940.0,6.43,,
247051,2023-08-23 02:00:00+00:00,0.0,2023-08-23 01:56,56.0,45.0,,1019.5,350.0,9.2,30.1,66.48,8.0,56.0,,,M,,,GNR,1056162,2023-08-23 02:00:00+00:00,8940.0,6.43,,
247052,2023-08-23 03:00:00+00:00,0.0,2023-08-23 02:56,55.0,45.0,,1019.7,350.0,6.9,30.11,68.93,6.0,55.0,,,M,,,GNR,1056166,2023-08-23 03:00:00+00:00,8940.0,6.43,,
247053,2023-08-23 04:00:00+00:00,0.0,2023-08-23 03:56,55.0,45.0,,1019.7,350.0,9.2,30.11,68.93,8.0,55.0,,,M,,,GNR,1056170,2023-08-23 04:00:00+00:00,4190.0,4.44,,
247054,2023-08-23 05:00:00+00:00,0.0,2023-08-23 04:56,52.0,46.0,,1019.6,0.0,0.0,30.1,79.92,0.0,52.0,,,M,,,GNR,1056174,2023-08-23 05:00:00+00:00,1720.0,3.09,,
247055,2023-08-23 06:00:00+00:00,0.0,2023-08-23 05:56,51.0,46.0,,1019.6,0.0,0.0,30.1,82.93,0.0,51.0,,,M,,,GNR,1056178,2023-08-23 06:00:00+00:00,1040.0,2.56,,
247056,2023-08-23 07:00:00+00:00,0.0,2023-08-23 06:56,51.0,46.0,,1019.4,310.0,3.45,30.1,82.93,3.0,51.0,,,M,,,GNR,1056182,2023-08-23 07:00:00+00:00,823.0,2.36,,
247057,2023-08-23 08:00:00+00:00,0.0,2023-08-23 07:56,50.0,46.0,,1019.3,0.0,0.0,30.09,86.06,0.0,50.0,,,M,,,GNR,1056186,2023-08-23 08:00:00+00:00,793.0,2.33,,
247058,2023-08-23 09:00:00+00:00,0.0,2023-08-23 08:56,49.0,45.0,,1019.4,0.0,0.0,30.1,86.0,0.0,49.0,,,M,,,GNR,1056190,2023-08-23 09:00:00+00:00,783.0,2.32,,
247059,2023-08-23 10:00:00+00:00,0.0,2023-08-23 09:56,48.0,45.0,,1019.8,0.0,0.0,30.11,89.29,0.0,48.0,,,M,,,GNR,1056194,2023-08-23 10:00:00+00:00,773.0,2.31,,
247060,2023-08-23 11:00:00+00:00,0.0,2023-08-23 10:56,53.0,49.0,,1020.0,0.0,0.0,30.12,86.23,0.0,53.0,,,M,,,GNR,1056198,2023-08-23 11:00:00+00:00,773.0,2.31,,
247061,2023-08-23 13:00:00+00:00,0.0,2023-08-23 12:56,59.0,47.0,,1019.9,0.0,0.0,30.11,64.36,0.0,59.0,,,M,,,GNR,1056205,2023-08-23 13:00:00+00:00,753.0,2.29,,
247062,2023-08-23 14:00:00+00:00,0.0,2023-08-23 13:56,62.0,47.0,,1019.6,,4.6,30.1,57.85,4.0,62.0,,,M,,,GNR,1056209,2023-08-23 14:00:00+00:00,724.0,2.26,,
247063,2023-08-23 15:00:00+00:00,0.0,2023-08-23 14:56,66.0,48.0,,1019.1,310.0,8.05,30.09,52.22,7.0,66.0,,,M,,,GNR,1056213,2023-08-23 15:00:00+00:00,715.0,2.25,,
247064,2023-08-23 16:00:00+00:00,0.0,2023-08-23 15:56,70.0,49.0,,1018.3,300.0,8.05,30.07,47.24,7.0,70.0,,15.0,M,,,GNR,1056217,2023-08-23 16:00:00+00:00,715.0,2.25,,
247065,2023-08-23 17:00:00+00:00,0.0,2023-08-23 16:56,71.0,50.0,,1017.7,310.0,9.2,30.05,47.39,8.0,71.0,,17.0,M,,,GNR,1056221,2023-08-23 17:00:00+00:00,5390.0,4.99,,
247066,2023-08-23 18:00:00+00:00,0.0,2023-08-23 17:56,73.0,50.0,,1017.1,310.0,9.2,30.04,44.29,8.0,73.0,,19.0,M,,,GNR,1056225,2023-08-23 18:00:00+00:00,5420.0,5.0,,
247067,2023-08-23 19:00:00+00:00,0.0,2023-08-23 18:56,73.0,51.0,,1016.6,,6.9,30.02,45.96,6.0,73.0,,,M,,,GNR,1056229,2023-08-23 19:00:00+00:00,8220.0,6.15,,
247068,2023-08-23 20:00:00+00:00,0.0,2023-08-23 19:56,74.0,51.0,,1016.3,310.0,9.2,30.01,44.44,8.0,74.0,,18.0,M,,,GNR,1056233,2023-08-23 20:00:00+00:00,8860.0,6.4,,
247069,2023-08-23 21:00:00+00:00,0.0,2023-08-23 20:56,72.0,52.0,,1016.2,,6.9,30.01,49.33,6.0,72.0,,,M,,,GNR,1056237,2023-08-23 21:00:00+00:00,8860.0,6.4,,
247070,2023-08-23 22:00:00+00:00,0.0,2023-08-23 21:56,66.0,52.0,,1016.4,320.0,5.75,30.01,60.6,5.0,66.0,,,M,,,GNR,1056241,2023-08-23 22:00:00+00:00,8860.0,6.4,,
247071,2023-08-23 23:00:00+00:00,0.0,2023-08-23 22:56,66.0,53.0,,1016.4,300.0,3.45,30.01,62.87,3.0,66.0,,,M,,,GNR,1056245,2023-08-23 23:00:00+00:00,8880.0,6.41,,
247072,2023-08-24 00:00:00+00:00,0.0,2023-08-23 23:56,63.0,51.0,,1016.7,300.0,3.45,30.02,64.85,3.0,63.0,,,M,,,GNR,1056249,2023-08-24 00:00:00+00:00,8910.0,6.42,,
247073,2023-08-24 01:00:00+00:00,0.0,2023-08-24 00:56,61.0,50.0,,1017.2,300.0,3.45,30.04,67.06,3.0,61.0,,,M,,,GNR,1056253,2023-08-24 01:00:00+00:00,8940.0,6.43,,
247074,2023-08-24 02:00:00+00:00,0.0,2023-08-24 01:56,62.0,51.0,,1017.0,320.0,4.6,30.03,67.18,4.0,62.0,,,M,,,GNR,1056257,2023-08-24 02:00:00+00:00,8960.0,6.44,,
247075,2023-08-24 03:00:00+00:00,0.0,2023-08-24 02:56,61.0,53.0,,1016.8,310.0,6.9,30.03,74.93,6.0,61.0,,,M,,,GNR,1056261,2023-08-24 03:00:00+00:00,8960.0,6.44,,
247076,2023-08-24 04:00:00+00:00,0.0,2023-08-24 03:56,59.0,52.0,,1017.2,360.0,5.75,30.04,77.55,5.0,59.0,,,M,,,GNR,1056265,2023-08-24 04:00:00+00:00,9010.0,6.46,,
247077,2023-08-24 05:00:00+00:00,0.0,2023-08-24 04:56,57.0,52.0,,1017.4,10.0,4.6,30.05,83.33,4.0,57.0,,,M,,,GNR,1056269,2023-08-24 05:00:00+00:00,8960.0,6.44,,
247078,2023-08-24 06:00:00+00:00,0.0,2023-08-24 05:56,56.0,50.0,,1017.3,0.0,0.0,30.05,80.23,0.0,56.0,,,M,,,GNR,1056273,2023-08-24 06:00:00+00:00,4210.0,4.45,,
247079,2023-08-24 07:00:00+00:00,0.0,2023-08-24 06:56,57.0,52.0,,1017.2,350.0,3.45,30.04,83.33,3.0,57.0,,,M,,,GNR,1056277,2023-08-24 07:00:00+00:00,1740.0,3.1,,
247080,2023-08-24 08:00:00+00:00,0.0,2023-08-24 07:56,55.0,51.0,,1017.2,20.0,5.75,30.04,86.34,5.0,55.0,,,M,,,GNR,1056281,2023-08-24 08:00:00+00:00,1020.0,2.54,,
247081,2023-08-24 09:00:00+00:00,0.0,2023-08-24 08:56,56.0,51.0,,1017.4,0.0,0.0,30.05,83.26,0.0,56.0,,,M,,,GNR,1056285,2023-08-24 09:00:00+00:00,763.0,2.3,,
247082,2023-08-24 10:00:00+00:00,0.0,2023-08-24 09:56,53.0,51.0,,1018.1,0.0,0.0,30.06,92.89,0.0,53.0,,,M,,,GNR,1056289,2023-08-24 10:00:00+00:00,706.0,2.24,,
247083,2023-08-24 11:00:00+00:00,0.0,2023-08-24 10:56,58.0,53.0,,1018.4,0.0,0.0,30.07,83.39,0.0,58.0,,,M,,,GNR,1056293,2023-08-24 11:00:00+00:00,696.0,2.23,,
247084,2023-08-24 12:00:00+00:00,0.0,2023-08-24 11:56,64.0,55.0,,1018.5,0.0,0.0,30.08,72.52,0.0,64.0,,,M,,,GNR,1056297,2023-08-24 12:00:00+00:00,687.0,2.22,,
247085,2023-08-24 13:00:00+00:00,0.0,2023-08-24 12:56,67.0,56.0,,1018.7,0.0,0.0,30.09,67.75,0.0,67.0,,,M,,,GNR,1056301,2023-08-24 13:00:00+00:00,687.0,2.22,,
247086,2023-08-24 14:00:00+00:00,0.0,2023-08-24 13:56,69.0,55.0,,1019.0,,3.45,30.1,60.99,3.0,69.0,,,M,,,GNR,1056305,2023-08-24 14:00:00+00:00,678.0,2.21,,
247087,2023-08-24 15:00:00+00:00,0.0,2023-08-24 14:56,72.0,55.0,,1018.8,0.0,0.0,30.09,55.06,0.0,72.0,,,M,,,GNR,1056309,2023-08-24 15:00:00+00:00,678.0,2.21,,
247088,2023-08-24 16:00:00+00:00,0.0,2023-08-24 15:56,72.0,53.0,,1018.5,0.0,0.0,30.08,51.18,0.0,72.0,,,M,,,GNR,1056313,2023-08-24 16:00:00+00:00,678.0,2.21,,
247089,2023-08-24 17:00:00+00:00,0.0,2023-08-24 16:56,73.0,54.0,,1018.2,0.0,0.0,30.07,51.33,0.0,73.0,,,M,,,GNR,1056317,2023-08-24 17:00:00+00:00,5440.0,5.01,,
247090,2023-08-24 18:00:00+00:00,0.0,2023-08-24 17:56,74.0,54.0,,1017.6,140.0,5.75,30.06,49.63,5.0,74.0,,,M,,,GNR,1056321,2023-08-24 18:00:00+00:00,5440.0,5.01,,
247091,2023-08-24 19:00:00+00:00,0.0,2023-08-24 18:56,72.0,54.0,,1017.3,120.0,5.75,30.05,53.09,5.0,72.0,,,M,,,GNR,1056325,2023-08-24 19:00:00+00:00,7920.0,6.03,,
247092,2023-08-24 20:00:00+00:00,0.0,2023-08-24 19:56,73.0,55.0,,1017.0,0.0,0.0,30.04,53.23,0.0,73.0,,,M,,,GNR,1056329,2023-08-24 20:00:00+00:00,8910.0,6.42,,
247093,2023-08-24 21:00:00+00:00,0.0,2023-08-24 20:56,71.0,55.0,,1017.0,0.0,0.0,30.03,56.96,0.0,71.0,,,M,,,GNR,1056333,2023-08-24 21:00:00+00:00,8880.0,6.41,,
247094,2023-08-24 22:00:00+00:00,0.0,2023-08-24 21:56,63.0,58.0,,1017.7,,,30.05,83.72,,63.0,,,M,,,GNR,1056337,2023-08-24 22:00:00+00:00,8880.0,6.41,,
247095,2023-08-24 23:00:00+00:00,1.52,2023-08-24 22:56,64.0,58.0,,1017.7,60.0,8.05,30.05,80.83,7.0,64.0,,,M,,,GNR,1056341,2023-08-24 23:00:00+00:00,8940.0,6.43,,
247096,2023-08-25 00:00:00+00:00,0.0,2023-08-24 23:56,65.0,57.0,,1017.5,,3.45,30.05,75.3,3.0,65.0,,,M,,,GNR,1056345,2023-08-25 00:00:00+00:00,8940.0,6.43,,
247097,2023-08-25 01:00:00+00:00,0.0,2023-08-25 00:56,63.0,54.0,,1017.4,,3.45,30.05,72.42,3.0,63.0,,,M,,,GNR,1056349,2023-08-25 01:00:00+00:00,8960.0,6.44,,
247098,2023-08-25 02:00:00+00:00,0.0,2023-08-25 01:56,61.0,52.0,,1017.6,,3.45,30.06,72.22,3.0,61.0,,,M,,,GNR,1056353,2023-08-25 02:00:00+00:00,8960.0,6.44,,
247099,2023-08-25 03:00:00+00:00,0.0,2023-08-25 02:56,60.0,51.0,,1017.5,120.0,5.75,30.05,72.12,5.0,60.0,,,M,,,GNR,1056357,2023-08-25 03:00:00+00:00,9010.0,6.46,,
247100,2023-08-25 04:00:00+00:00,0.0,2023-08-25 03:56,59.0,51.0,,1017.1,140.0,5.75,30.04,74.74,5.0,59.0,,,M,,,GNR,1056361,2023-08-25 04:00:00+00:00,9060.0,6.48,,
247101,2023-08-25 05:00:00+00:00,0.0,2023-08-25 04:56,59.0,52.0,,1016.3,130.0,8.05,30.02,77.55,7.0,59.0,,,M,,,GNR,1056365,2023-08-25 05:00:00+00:00,5930.0,5.22,,
247102,2023-08-25 06:00:00+00:00,0.0,2023-08-25 05:56,58.0,54.0,,1016.1,0.0,0.0,30.01,86.51,0.0,58.0,,,M,,,GNR,1056369,2023-08-25 06:00:00+00:00,2120.0,3.35,,
247103,2023-08-25 07:00:00+00:00,0.0,2023-08-25 06:56,58.0,55.0,,1015.5,140.0,5.75,29.99,89.72,5.0,58.0,,,M,,,GNR,1056373,2023-08-25 07:00:00+00:00,1130.0,2.64,,
247104,2023-08-25 08:00:00+00:00,0.0,2023-08-25 07:56,58.0,51.0,,1016.2,190.0,10.35,30.01,77.47,9.0,58.0,,23.0,M,,,GNR,1056377,2023-08-25 08:00:00+00:00,803.0,2.34,,
247105,2023-08-25 09:00:00+00:00,0.0,2023-08-25 08:56,57.0,47.0,,1016.4,,,30.02,69.16,,57.0,,,M,,,GNR,1056381,2023-08-25 09:00:00+00:00,724.0,2.26,,
247106,2023-08-25 10:00:00+00:00,0.0,2023-08-25 09:56,55.0,48.0,,1016.8,,5.75,30.02,77.21,5.0,55.0,,16.0,M,,,GNR,1056385,2023-08-25 10:00:00+00:00,715.0,2.25,,
247107,2023-08-25 11:00:00+00:00,0.0,2023-08-25 10:56,53.0,50.0,,1016.8,150.0,6.9,30.02,89.51,6.0,53.0,,,M,,,GNR,1056389,2023-08-25 11:00:00+00:00,706.0,2.24,,
247108,2023-08-25 12:00:00+00:00,1.02,2023-08-25 11:56,53.0,51.0,,1016.5,160.0,8.05,30.01,92.89,7.0,53.0,,23.0,M,,,GNR,1056393,2023-08-25 12:00:00+00:00,706.0,2.24,,
247109,2023-08-25 13:00:00+00:00,0.25,2023-08-25 12:56,53.0,52.0,,1015.9,140.0,10.35,29.99,96.39,9.0,53.0,,20.0,M,,,GNR,1056397,2023-08-25 13:00:00+00:00,687.0,2.22,,
247110,2023-08-25 14:00:00+00:00,0.76,2023-08-25 13:56,54.0,52.0,,1015.7,160.0,8.05,29.99,92.92,7.0,54.0,,,M,,,GNR,1056401,2023-08-25 14:00:00+00:00,678.0,2.21,,
247111,2023-08-25 15:00:00+00:00,1.02,2023-08-25 14:56,54.0,52.0,,1015.5,160.0,8.05,29.98,92.92,7.0,54.0,,19.0,M,,,GNR,1056405,2023-08-25 15:00:00+00:00,678.0,2.21,,
247112,2023-08-25 16:00:00+00:00,0.76,2023-08-25 15:56,54.0,52.0,,1014.8,140.0,12.65,29.96,92.92,11.0,54.0,,23.0,M,,,GNR,1056409,2023-08-25 16:00:00+00:00,687.0,2.22,2023-08-25 16:00:00+00:00,gs://gcp-public-data-sentinel-2/tiles/19/T/DL/S2B_MSIL1C_20230825T153819_N0509_R011_T19TDL_20230825T191933.SAFE
247113,2023-08-25 17:00:00+00:00,0.51,2023-08-25 16:56,54.0,53.0,,1014.2,150.0,11.5,29.94,96.4,10.0,54.0,,19.0,M,,,GNR,1056413,2023-08-25 17:00:00+00:00,5390.0,4.99,,
247114,2023-08-25 18:00:00+00:00,0.25,2023-08-25 17:56,55.0,54.0,,1013.7,140.0,11.5,29.93,96.42,10.0,55.0,,20.0,M,,,GNR,1056417,2023-08-25 18:00:00+00:00,5440.0,5.01,,
247115,2023-08-25 19:00:00+00:00,0.0,2023-08-25 18:56,56.0,55.0,,1013.0,130.0,12.65,29.91,96.43,11.0,56.0,,19.0,M,,,GNR,1056421,2023-08-25 19:00:00+00:00,8240.0,6.16,,
247116,2023-08-25 20:00:00+00:00,0.25,2023-08-25 19:56,57.0,56.0,,1012.5,150.0,8.05,29.9,96.45,7.0,57.0,,14.0,M,,,GNR,1056425,2023-08-25 20:00:00+00:00,8830.0,6.39,,
247117,2023-08-25 21:00:00+00:00,0.25,2023-08-25 20:56,58.0,58.0,,1012.3,160.0,6.9,29.89,100.0,6.0,58.0,,,M,,,GNR,1056429,2023-08-25 21:00:00+00:00,8860.0,6.4,,
247118,2023-08-25 22:00:00+00:00,0.51,2023-08-25 21:56,58.0,58.0,,1012.0,150.0,8.05,29.88,100.0,7.0,58.0,,14.0,M,,,GNR,1056433,2023-08-25 22:00:00+00:00,8910.0,6.42,,
247119,2023-08-25 23:00:00+00:00,0.51,2023-08-25 22:56,58.0,57.0,,1012.1,140.0,10.35,29.88,96.46,9.0,58.0,,17.0,M,,,GNR,1056437,2023-08-25 23:00:00+00:00,8910.0,6.42,,
247120,2023-08-26 00:00:00+00:00,0.0,2023-08-25 23:56,57.0,56.0,,1011.9,140.0,10.35,29.87,96.45,9.0,57.0,,18.0,M,,,GNR,1056441,2023-08-26 00:00:00+00:00,8960.0,6.44,,
247121,2023-08-26 01:00:00+00:00,0.25,2023-08-26 00:56,58.0,57.0,,1012.0,140.0,9.2,29.87,96.46,8.0,58.0,,,M,,,GNR,1056445,2023-08-26 01:00:00+00:00,8990.0,6.45,,
247122,2023-08-26 02:00:00+00:00,0.51,2023-08-26 01:56,58.0,57.0,,1011.5,130.0,6.9,29.86,96.46,6.0,58.0,,,M,,,GNR,1056449,2023-08-26 02:00:00+00:00,8990.0,6.45,,
247123,2023-08-26 03:00:00+00:00,0.0,2023-08-26 02:56,58.0,57.0,,1010.9,130.0,9.2,29.84,96.46,8.0,58.0,,,M,,,GNR,1056453,2023-08-26 03:00:00+00:00,8990.0,6.45,,
247124,2023-08-26 04:00:00+00:00,0.0,2023-08-26 03:56,58.0,58.0,,1010.6,130.0,6.9,29.84,100.0,6.0,58.0,,,M,,,GNR,1056457,2023-08-26 04:00:00+00:00,9010.0,6.46,,
247125,2023-08-26 05:00:00+00:00,0.25,2023-08-26 04:56,59.0,58.0,,1010.2,130.0,4.6,29.82,96.48,4.0,59.0,,,M,,,GNR,1056461,2023-08-26 05:00:00+00:00,4210.0,4.45,,
247126,2023-08-26 06:00:00+00:00,1.78,2023-08-26 05:56,59.0,58.0,,1009.6,120.0,4.6,29.81,96.48,4.0,59.0,,,M,,,GNR,1056465,2023-08-26 06:00:00+00:00,1750.0,3.11,,
247127,2023-08-26 07:00:00+00:00,6.1,2023-08-26 06:56,59.0,59.0,,1009.2,0.0,0.0,29.8,100.0,0.0,59.0,,,M,,,GNR,1056469,2023-08-26 07:00:00+00:00,1040.0,2.56,,
247128,2023-08-26 08:00:00+00:00,0.0,2023-08-26 07:56,60.0,59.0,,1008.9,0.0,0.0,29.79,96.49,0.0,60.0,,,M,,,GNR,1056473,2023-08-26 08:00:00+00:00,803.0,2.34,,
247129,2023-08-26 09:00:00+00:00,0.0,2023-08-26 08:56,60.0,58.0,,1008.5,60.0,3.45,29.78,93.1,3.0,60.0,,,M,,,GNR,1056477,2023-08-26 09:00:00+00:00,773.0,2.31,,
247130,2023-08-26 10:00:00+00:00,0.0,2023-08-26 09:56,59.0,59.0,,1008.7,310.0,3.45,29.78,100.0,3.0,59.0,,,M,,,GNR,1056481,2023-08-26 10:00:00+00:00,763.0,2.3,,
247131,2023-08-26 11:00:00+00:00,0.0,2023-08-26 10:56,60.0,59.0,,1009.5,310.0,3.45,29.81,96.49,3.0,60.0,,,M,,,GNR,1056485,2023-08-26 11:00:00+00:00,773.0,2.31,,
247132,2023-08-26 12:00:00+00:00,0.0,2023-08-26 11:56,61.0,60.0,,1009.6,340.0,8.05,29.81,96.51,7.0,61.0,,,M,,,GNR,1056489,2023-08-26 12:00:00+00:00,763.0,2.3,,
247133,2023-08-26 13:00:00+00:00,0.0,2023-08-26 12:56,63.0,60.0,,1009.2,10.0,5.75,29.8,89.93,5.0,63.0,,,M,,,GNR,1056493,2023-08-26 13:00:00+00:00,763.0,2.3,,
247134,2023-08-26 14:00:00+00:00,0.0,2023-08-26 13:56,64.0,60.0,,1009.9,330.0,5.75,29.82,86.83,5.0,64.0,,,M,,,GNR,1056497,2023-08-26 14:00:00+00:00,763.0,2.3,,
247135,2023-08-26 15:00:00+00:00,0.0,2023-08-26 14:56,66.0,60.0,,1009.9,310.0,5.75,29.82,80.98,5.0,66.0,,,M,,,GNR,1056501,2023-08-26 15:00:00+00:00,763.0,2.3,,
247136,2023-08-26 16:00:00+00:00,0.0,2023-08-26 15:56,67.0,60.0,,1009.9,0.0,0.0,29.83,78.22,0.0,67.0,,,M,,,GNR,1056505,2023-08-26 16:00:00+00:00,763.0,2.3,,
247137,2023-08-26 17:00:00+00:00,0.0,2023-08-26 16:56,67.0,60.0,,1009.8,330.0,5.75,29.82,78.22,5.0,67.0,,,M,,,GNR,1056509,2023-08-26 17:00:00+00:00,5510.0,5.04,,
247138,2023-08-26 18:00:00+00:00,0.0,2023-08-26 17:56,66.0,61.0,,1009.6,350.0,3.45,29.82,83.91,3.0,66.0,,,M,,,GNR,1056513,2023-08-26 18:00:00+00:00,5530.0,5.05,,
247139,2023-08-26 19:00:00+00:00,0.0,2023-08-26 18:56,69.0,61.0,,1009.3,310.0,6.9,29.81,75.66,6.0,69.0,,,M,,,GNR,1056517,2023-08-26 19:00:00+00:00,4450.0,4.56,,
247140,2023-08-26 20:00:00+00:00,0.0,2023-08-26 19:56,64.0,60.0,,1009.8,300.0,4.6,29.82,86.83,4.0,64.0,,,M,,,GNR,1056521,2023-08-26 20:00:00+00:00,3360.0,4.04,,
247141,2023-08-26 21:00:00+00:00,0.25,2023-08-26 20:56,67.0,62.0,,1009.8,310.0,6.9,29.83,83.97,6.0,67.0,,,M,,,GNR,1056525,2023-08-26 21:00:00+00:00,7920.0,6.03,,
247142,2023-08-26 22:00:00+00:00,0.0,2023-08-26 21:56,65.0,61.0,,1010.2,,5.75,29.83,86.88,5.0,65.0,,,M,,,GNR,1056529,2023-08-26 22:00:00+00:00,9010.0,6.46,,
247143,2023-08-26 23:00:00+00:00,0.0,2023-08-26 22:56,64.0,61.0,,1010.8,320.0,3.45,29.85,89.97,3.0,64.0,,,M,,,GNR,1056533,2023-08-26 23:00:00+00:00,9040.0,6.47,,
247144,2023-08-27 00:00:00+00:00,0.0,2023-08-26 23:56,64.0,61.0,,1011.2,340.0,9.2,29.86,89.97,8.0,64.0,,,M,,,GNR,1056537,2023-08-27 00:00:00+00:00,9060.0,6.48,,
247145,2023-08-27 01:00:00+00:00,0.0,2023-08-27 00:56,62.0,60.0,,1011.9,340.0,8.05,29.88,93.15,7.0,62.0,,,M,,,GNR,1056541,2023-08-27 01:00:00+00:00,9090.0,6.49,,
247146,2023-08-27 02:00:00+00:00,0.0,2023-08-27 01:56,62.0,60.0,,1012.1,330.0,6.9,29.89,93.15,6.0,62.0,,,M,,,GNR,1056545,2023-08-27 02:00:00+00:00,9160.0,6.52,,
247147,2023-08-27 03:00:00+00:00,0.0,2023-08-27 02:56,62.0,60.0,,1012.1,350.0,4.6,29.89,93.15,4.0,62.0,,,M,,,GNR,1056549,2023-08-27 03:00:00+00:00,9160.0,6.52,,
247148,2023-08-27 04:00:00+00:00,0.0,2023-08-27 03:56,62.0,59.0,,1012.1,330.0,4.6,29.89,89.89,4.0,62.0,,,M,,,GNR,1056553,2023-08-27 04:00:00+00:00,9210.0,6.54,,
247149,2023-08-27 05:00:00+00:00,0.0,2023-08-27 04:56,61.0,57.0,,1012.3,340.0,6.9,29.9,86.67,6.0,61.0,,,M,,,GNR,1056557,2023-08-27 05:00:00+00:00,5860.0,5.19,,
247150,2023-08-27 06:00:00+00:00,0.0,2023-08-27 05:56,60.0,56.0,,1012.7,350.0,8.05,29.91,86.61,7.0,60.0,,,M,,,GNR,1056561,2023-08-27 06:00:00+00:00,3720.0,4.22,,
247151,2023-08-27 07:00:00+00:00,0.0,2023-08-27 06:56,59.0,56.0,,1012.8,340.0,5.75,29.91,89.76,5.0,59.0,,,M,,,GNR,1056565,2023-08-27 07:00:00+00:00,1720.0,3.09,,
247152,2023-08-27 08:00:00+00:00,0.0,2023-08-27 07:56,58.0,55.0,,1012.9,340.0,4.6,29.91,89.72,4.0,58.0,,,M,,,GNR,1056569,2023-08-27 08:00:00+00:00,1080.0,2.59,,
247153,2023-08-27 09:00:00+00:00,0.0,2023-08-27 08:56,58.0,56.0,,1013.1,330.0,6.9,29.92,93.04,6.0,58.0,,,M,,,GNR,1056573,2023-08-27 09:00:00+00:00,876.0,2.41,,
247154,2023-08-27 10:00:00+00:00,0.0,2023-08-27 09:56,56.0,55.0,,1013.3,320.0,8.05,29.92,96.43,7.0,56.0,,,M,,,GNR,1056577,2023-08-27 10:00:00+00:00,844.0,2.38,,
247155,2023-08-27 11:00:00+00:00,0.0,2023-08-27 10:56,58.0,55.0,,1014.4,350.0,9.2,29.95,89.72,8.0,58.0,,,M,,,GNR,1056581,2023-08-27 11:00:00+00:00,834.0,2.37,,
247156,2023-08-27 12:00:00+00:00,0.0,2023-08-27 11:56,59.0,54.0,,1014.9,360.0,6.9,29.97,83.46,6.0,59.0,,,M,,,GNR,1056585,2023-08-27 12:00:00+00:00,834.0,2.37,,
247157,2023-08-27 13:00:00+00:00,0.0,2023-08-27 12:56,61.0,55.0,,1015.2,340.0,5.75,29.98,80.61,5.0,61.0,,,M,,,GNR,1056589,2023-08-27 13:00:00+00:00,813.0,2.35,,
247158,2023-08-27 14:00:00+00:00,0.0,2023-08-27 13:56,63.0,55.0,,1015.3,350.0,8.05,29.98,75.11,7.0,63.0,,,M,,,GNR,1056593,2023-08-27 14:00:00+00:00,803.0,2.34,,
247159,2023-08-27 15:00:00+00:00,0.0,2023-08-27 14:56,65.0,57.0,,1015.1,340.0,10.35,29.98,75.3,9.0,65.0,,,M,,,GNR,1056597,2023-08-27 15:00:00+00:00,793.0,2.33,,
247160,2023-08-27 16:00:00+00:00,0.0,2023-08-27 15:56,66.0,55.0,,1014.8,330.0,10.35,29.97,67.64,9.0,66.0,,,M,,,GNR,1056601,2023-08-27 16:00:00+00:00,793.0,2.33,2023-08-27 16:00:00+00:00,gs://gcp-public-data-sentinel-2/tiles/19/T/DL/S2A_MSIL1C_20230827T153601_N0509_R111_T19TDL_20230827T204745.SAFE
247161,2023-08-27 17:00:00+00:00,0.0,2023-08-27 16:56,67.0,54.0,,1014.7,310.0,9.2,29.97,62.99,8.0,67.0,,17.0,M,,,GNR,1056605,2023-08-27 17:00:00+00:00,5510.0,5.04,,
247162,2023-08-27 18:00:00+00:00,0.0,2023-08-27 17:56,69.0,55.0,,1014.3,330.0,9.2,29.96,60.99,8.0,69.0,,16.0,M,,,GNR,1056609,2023-08-27 18:00:00+00:00,5530.0,5.05,,
247163,2023-08-27 19:00:00+00:00,0.0,2023-08-27 18:56,71.0,55.0,,1014.1,350.0,9.2,29.95,56.96,8.0,71.0,,,M,,,GNR,1056613,2023-08-27 19:00:00+00:00,8390.0,6.22,,
247164,2023-08-27 20:00:00+00:00,0.0,2023-08-27 19:56,71.0,55.0,,1013.9,360.0,6.9,29.95,56.96,6.0,71.0,,,M,,,GNR,1056617,2023-08-27 20:00:00+00:00,8960.0,6.44,,
247165,2023-08-27 21:00:00+00:00,0.0,2023-08-27 20:56,70.0,54.0,,1014.1,10.0,8.05,29.95,56.82,7.0,70.0,,,M,,,GNR,1056621,2023-08-27 21:00:00+00:00,9010.0,6.46,,
247166,2023-08-27 22:00:00+00:00,0.0,2023-08-27 21:56,69.0,53.0,,1014.6,350.0,6.9,29.96,56.69,6.0,69.0,,,M,,,GNR,1056625,2023-08-27 22:00:00+00:00,9010.0,6.46,,
247167,2023-08-27 23:00:00+00:00,0.0,2023-08-27 22:56,64.0,54.0,,1015.2,360.0,4.6,29.98,69.92,4.0,64.0,,,M,,,GNR,1056629,2023-08-27 23:00:00+00:00,9040.0,6.47,,
247168,2023-08-28 00:00:00+00:00,0.0,2023-08-27 23:56,62.0,53.0,,1015.6,0.0,0.0,29.99,72.32,0.0,62.0,,,M,,,GNR,1056633,2023-08-28 00:00:00+00:00,9090.0,6.49,,
247169,2023-08-28 01:00:00+00:00,0.0,2023-08-28 00:56,61.0,53.0,,1016.0,40.0,3.45,30.0,74.93,3.0,61.0,,,M,,,GNR,1056637,2023-08-28 01:00:00+00:00,9090.0,6.49,,
247170,2023-08-28 02:00:00+00:00,0.0,2023-08-28 01:56,58.0,53.0,,1016.6,0.0,0.0,30.02,83.39,0.0,58.0,,,M,,,GNR,1056641,2023-08-28 02:00:00+00:00,9110.0,6.5,,
247171,2023-08-28 03:00:00+00:00,0.0,2023-08-28 02:56,56.0,52.0,,1016.5,40.0,4.6,30.02,86.4,4.0,56.0,,,M,,,GNR,1056645,2023-08-28 03:00:00+00:00,9160.0,6.52,,
247172,2023-08-28 04:00:00+00:00,0.0,2023-08-28 03:56,55.0,52.0,,1016.9,0.0,0.0,30.03,89.59,0.0,55.0,,,M,,,GNR,1056649,2023-08-28 04:00:00+00:00,9140.0,6.51,,
247173,2023-08-28 05:00:00+00:00,0.0,2023-08-28 04:56,55.0,51.0,,1017.0,30.0,3.45,30.03,86.34,3.0,55.0,,,M,,,GNR,1056653,2023-08-28 05:00:00+00:00,4280.0,4.48,,
247174,2023-08-28 06:00:00+00:00,0.0,2023-08-28 05:56,53.0,50.0,,1017.1,0.0,0.0,30.03,89.51,0.0,53.0,,,M,,,GNR,1056657,2023-08-28 06:00:00+00:00,1740.0,3.1,,
247175,2023-08-28 07:00:00+00:00,0.0,2023-08-28 06:56,53.0,49.0,,1017.0,40.0,4.6,30.03,86.23,4.0,53.0,,,M,,,GNR,1056661,2023-08-28 07:00:00+00:00,1050.0,2.57,,
247176,2023-08-28 08:00:00+00:00,0.0,2023-08-28 07:56,53.0,49.0,,1017.2,0.0,0.0,30.04,86.23,0.0,53.0,,,M,,,GNR,1056665,2023-08-28 08:00:00+00:00,834.0,2.37,,
247177,2023-08-28 09:00:00+00:00,0.0,2023-08-28 08:56,52.0,48.0,,1017.6,30.0,3.45,30.05,86.17,3.0,52.0,,,M,,,GNR,1056669,2023-08-28 09:00:00+00:00,783.0,2.32,,
247178,2023-08-28 10:00:00+00:00,0.0,2023-08-28 09:56,52.0,49.0,,1017.8,40.0,3.45,30.05,89.46,3.0,52.0,,,M,,,GNR,1056673,2023-08-28 10:00:00+00:00,773.0,2.31,,
247179,2023-08-28 11:00:00+00:00,0.0,2023-08-28 10:56,55.0,51.0,,1018.3,40.0,3.45,30.07,86.34,3.0,55.0,,,M,,,GNR,1056677,2023-08-28 11:00:00+00:00,773.0,2.31,,
247180,2023-08-28 12:00:00+00:00,0.0,2023-08-28 11:56,60.0,52.0,,1018.7,0.0,0.0,30.08,74.83,0.0,60.0,,,M,,,GNR,1056681,2023-08-28 12:00:00+00:00,763.0,2.3,,
247181,2023-08-28 13:00:00+00:00,0.0,2023-08-28 12:56,63.0,53.0,,1018.7,0.0,0.0,30.08,69.82,0.0,63.0,,,M,,,GNR,1056685,2023-08-28 13:00:00+00:00,753.0,2.29,,
247182,2023-08-28 14:00:00+00:00,0.0,2023-08-28 13:56,66.0,53.0,,1019.0,310.0,5.75,30.09,62.87,5.0,66.0,,,M,,,GNR,1056689,2023-08-28 14:00:00+00:00,753.0,2.29,,
247183,2023-08-28 15:00:00+00:00,0.0,2023-08-28 14:56,68.0,54.0,,1018.8,0.0,0.0,30.09,60.86,0.0,68.0,,,M,,,GNR,1056693,2023-08-28 15:00:00+00:00,753.0,2.29,,
247184,2023-08-28 16:00:00+00:00,0.0,2023-08-28 15:56,70.0,55.0,,1018.6,,5.75,30.08,58.94,5.0,70.0,,,M,,,GNR,1056697,2023-08-28 16:00:00+00:00,1050.0,2.57,,
247185,2023-08-28 17:00:00+00:00,0.0,2023-08-28 16:56,72.0,55.0,,1018.0,,3.45,30.06,55.06,3.0,72.0,,,M,,,GNR,1056701,2023-08-28 17:00:00+00:00,5440.0,5.01,,
247186,2023-08-28 18:00:00+00:00,0.0,2023-08-28 17:56,73.0,55.0,,1017.7,,3.45,30.05,53.23,3.0,73.0,,,M,,,GNR,1056705,2023-08-28 18:00:00+00:00,5510.0,5.04,,
247187,2023-08-28 19:00:00+00:00,0.0,2023-08-28 18:56,74.0,54.0,,1017.2,0.0,0.0,30.04,49.63,0.0,74.0,,,M,,,GNR,1056709,2023-08-28 19:00:00+00:00,8370.0,6.21,,
247188,2023-08-28 20:00:00+00:00,0.0,2023-08-28 19:56,74.0,54.0,,1016.7,,3.45,30.03,49.63,3.0,74.0,,,M,,,GNR,1056713,2023-08-28 20:00:00+00:00,8910.0,6.42,,
247189,2023-08-28 21:00:00+00:00,0.0,2023-08-28 20:56,74.0,57.0,,1017.0,,5.75,30.03,55.34,5.0,74.0,,,M,,,GNR,1056717,2023-08-28 21:00:00+00:00,8960.0,6.44,,
247190,2023-08-28 22:00:00+00:00,0.0,2023-08-28 21:56,70.0,58.0,,1017.2,190.0,4.6,30.03,65.69,4.0,70.0,,,M,,,GNR,1056721,2023-08-28 22:00:00+00:00,8960.0,6.44,,
247191,2023-08-28 23:00:00+00:00,0.0,2023-08-28 22:56,69.0,59.0,,1017.3,190.0,4.6,30.04,70.46,4.0,69.0,,,M,,,GNR,1056725,2023-08-28 23:00:00+00:00,8990.0,6.45,,
247192,2023-08-29 00:00:00+00:00,0.0,2023-08-28 23:56,67.0,59.0,,1017.5,,,30.05,75.48,,67.0,,,M,,,GNR,1056729,2023-08-29 00:00:00+00:00,9010.0,6.46,,
247193,2023-08-29 01:00:00+00:00,0.0,2023-08-29 00:56,65.0,57.0,,1017.6,,4.6,30.05,75.3,4.0,65.0,,,M,,,GNR,1056733,2023-08-29 01:00:00+00:00,9040.0,6.47,,
247194,2023-08-29 02:00:00+00:00,0.0,2023-08-29 01:56,62.0,57.0,,1017.8,,4.6,30.06,83.65,4.0,62.0,,,M,,,GNR,1056737,2023-08-29 02:00:00+00:00,9040.0,6.47,,
247195,2023-08-29 03:00:00+00:00,0.0,2023-08-29 02:56,60.0,55.0,,1017.7,,6.9,30.06,83.53,6.0,60.0,,,M,,,GNR,1056741,2023-08-29 03:00:00+00:00,9060.0,6.48,,
247196,2023-08-29 04:00:00+00:00,0.0,2023-08-29 03:56,58.0,55.0,,1018.0,,4.6,30.06,89.72,4.0,58.0,,,M,,,GNR,1056745,2023-08-29 04:00:00+00:00,4320.0,4.5,,
247197,2023-08-29 05:00:00+00:00,0.0,2023-08-29 04:56,58.0,56.0,,1017.6,140.0,5.75,30.06,93.04,5.0,58.0,,,M,,,GNR,1056749,2023-08-29 05:00:00+00:00,1750.0,3.11,,
247198,2023-08-29 06:00:00+00:00,0.0,2023-08-29 05:56,59.0,58.0,,1017.6,120.0,5.75,30.05,96.48,5.0,59.0,,,M,,,GNR,1056753,2023-08-29 06:00:00+00:00,1030.0,2.55,,
247199,2023-08-29 07:00:00+00:00,0.0,2023-08-29 06:56,59.0,58.0,,1017.0,140.0,5.75,30.04,96.48,5.0,59.0,,,M,,,GNR,1056757,2023-08-29 07:00:00+00:00,793.0,2.33,,
247200,2023-08-29 08:00:00+00:00,0.0,2023-08-29 07:56,60.0,59.0,,1016.9,130.0,5.75,30.04,96.49,5.0,60.0,,,M,,,GNR,1056761,2023-08-29 08:00:00+00:00,753.0,2.29,,
247201,2023-08-29 09:00:00+00:00,0.0,2023-08-29 08:56,60.0,59.0,,1016.6,150.0,4.6,30.03,96.49,4.0,60.0,,,M,,,GNR,1056765,2023-08-29 09:00:00+00:00,734.0,2.27,,
247202,2023-08-29 10:00:00+00:00,0.0,2023-08-29 09:56,60.0,60.0,,1016.7,150.0,5.75,30.03,100.0,5.0,60.0,,,M,,,GNR,1056769,2023-08-29 10:00:00+00:00,734.0,2.27,,
247203,2023-08-29 11:00:00+00:00,0.25,2023-08-29 10:56,60.0,60.0,,1016.4,130.0,3.45,30.02,100.0,3.0,60.0,,,M,,,GNR,1056773,2023-08-29 11:00:00+00:00,724.0,2.26,,
247204,2023-08-29 12:00:00+00:00,0.0,2023-08-29 11:56,61.0,60.0,,1016.6,140.0,5.75,30.02,96.51,5.0,61.0,,,M,,,GNR,1056777,2023-08-29 12:00:00+00:00,724.0,2.26,,
247205,2023-08-29 13:00:00+00:00,0.0,2023-08-29 12:56,61.0,61.0,,1016.9,,4.6,30.03,100.0,4.0,61.0,,,M,,,GNR,1056781,2023-08-29 13:00:00+00:00,715.0,2.25,,
247206,2023-08-29 14:00:00+00:00,0.0,2023-08-29 13:56,62.0,61.0,,1016.7,140.0,5.75,30.02,96.52,5.0,62.0,,,M,,,GNR,1056785,2023-08-29 14:00:00+00:00,715.0,2.25,,
247207,2023-08-29 15:00:00+00:00,0.0,2023-08-29 14:56,63.0,62.0,,1016.7,140.0,8.05,30.02,96.54,7.0,63.0,,,M,,,GNR,1056789,2023-08-29 15:00:00+00:00,715.0,2.25,,
247208,2023-08-29 16:00:00+00:00,0.0,2023-08-29 15:56,66.0,63.0,,1016.4,150.0,5.75,30.01,90.05,5.0,66.0,,,M,,,GNR,1056793,2023-08-29 16:00:00+00:00,1090.0,2.6,,
247209,2023-08-29 17:00:00+00:00,0.0,2023-08-29 16:56,67.0,63.0,,1016.0,140.0,8.05,30.0,86.98,7.0,67.0,,16.0,M,,,GNR,1056797,2023-08-29 17:00:00+00:00,5440.0,5.01,,
247210,2023-08-29 18:00:00+00:00,0.0,2023-08-29 17:56,68.0,63.0,,1015.7,,4.6,30.0,84.03,4.0,68.0,,,M,,,GNR,1056801,2023-08-29 18:00:00+00:00,5480.0,5.03,,
247211,2023-08-29 19:00:00+00:00,0.0,2023-08-29 18:56,70.0,64.0,,1014.8,190.0,9.2,29.97,81.27,8.0,70.0,,,M,,,GNR,1056805,2023-08-29 19:00:00+00:00,8320.0,6.19,,
247212,2023-08-29 20:00:00+00:00,0.0,2023-08-29 19:56,71.0,62.0,,1014.4,,5.75,29.96,73.21,5.0,71.0,,,M,,,GNR,1056809,2023-08-29 20:00:00+00:00,8880.0,6.41,,
247213,2023-08-29 21:00:00+00:00,0.0,2023-08-29 20:56,71.0,62.0,,1013.7,160.0,8.05,29.94,73.21,7.0,71.0,,,M,,,GNR,1056813,2023-08-29 21:00:00+00:00,8940.0,6.43,,
247214,2023-08-29 22:00:00+00:00,0.0,2023-08-29 21:56,71.0,63.0,,1013.2,,5.75,29.93,75.84,5.0,71.0,,,M,,,GNR,1056817,2023-08-29 22:00:00+00:00,8990.0,6.45,,
247215,2023-08-29 23:00:00+00:00,0.0,2023-08-29 22:56,68.0,62.0,,1012.8,150.0,4.6,29.91,81.12,4.0,68.0,,,M,,,GNR,1056821,2023-08-29 23:00:00+00:00,8990.0,6.45,,
247216,2023-08-30 00:00:00+00:00,0.0,2023-08-29 23:56,66.0,63.0,,1012.7,140.0,6.9,29.91,90.05,6.0,66.0,,,M,,,GNR,1056825,2023-08-30 00:00:00+00:00,9010.0,6.46,,
247217,2023-08-30 01:00:00+00:00,0.0,2023-08-30 00:56,64.0,61.0,,1013.0,140.0,9.2,29.92,89.97,8.0,64.0,,,M,,,GNR,1056829,2023-08-30 01:00:00+00:00,9040.0,6.47,,
247218,2023-08-30 02:00:00+00:00,0.0,2023-08-30 01:56,62.0,60.0,,1012.6,150.0,9.2,29.9,93.15,8.0,62.0,,,M,,,GNR,1056833,2023-08-30 02:00:00+00:00,9010.0,6.46,,
247219,2023-08-30 03:00:00+00:00,0.0,2023-08-30 02:56,61.0,59.0,,1012.8,,4.6,29.91,93.12,4.0,61.0,,,M,,,GNR,1056837,2023-08-30 03:00:00+00:00,9090.0,6.49,,
247220,2023-08-30 04:00:00+00:00,0.0,2023-08-30 03:56,61.0,60.0,,1012.0,110.0,4.6,29.89,96.51,4.0,61.0,,,M,,,GNR,1056841,2023-08-30 04:00:00+00:00,4450.0,4.56,,
247221,2023-08-30 05:00:00+00:00,0.0,2023-08-30 04:56,62.0,61.0,,1011.2,0.0,0.0,29.87,96.52,0.0,62.0,,,M,,,GNR,1056845,2023-08-30 05:00:00+00:00,1780.0,3.13,,
247222,2023-08-30 06:00:00+00:00,0.0,2023-08-30 05:56,62.0,61.0,,1010.5,150.0,4.6,29.85,96.52,4.0,62.0,,,M,,,GNR,1056849,2023-08-30 06:00:00+00:00,1060.0,2.58,,
247223,2023-08-30 07:00:00+00:00,0.0,2023-08-30 06:56,61.0,60.0,,1009.4,140.0,6.9,29.81,96.51,6.0,61.0,,,M,,,GNR,1056853,2023-08-30 07:00:00+00:00,813.0,2.35,,
247224,2023-08-30 08:00:00+00:00,0.0,2023-08-30 07:56,62.0,61.0,,1008.7,,3.45,29.8,96.52,3.0,62.0,,,M,,,GNR,1056857,2023-08-30 08:00:00+00:00,763.0,2.3,,
247225,2023-08-30 09:00:00+00:00,0.0,2023-08-30 08:56,61.0,60.0,,1007.5,140.0,4.6,29.76,96.51,4.0,61.0,,,M,,,GNR,1056861,2023-08-30 09:00:00+00:00,753.0,2.29,,
247226,2023-08-30 10:00:00+00:00,0.0,2023-08-30 09:56,62.0,61.0,,1007.2,150.0,3.45,29.75,96.52,3.0,62.0,,,M,,,GNR,1056865,2023-08-30 10:00:00+00:00,744.0,2.28,,
247227,2023-08-30 11:00:00+00:00,0.0,2023-08-30 10:56,62.0,61.0,,1007.3,0.0,0.0,29.76,96.52,0.0,62.0,,,M,,,GNR,1056869,2023-08-30 11:00:00+00:00,734.0,2.27,,
247228,2023-08-30 12:00:00+00:00,0.0,2023-08-30 11:56,62.0,62.0,,1006.8,,3.45,29.74,100.0,3.0,62.0,,,M,,,GNR,1056873,2023-08-30 12:00:00+00:00,724.0,2.26,,
247229,2023-08-30 13:00:00+00:00,0.0,2023-08-30 12:56,63.0,61.0,,1005.8,120.0,5.75,29.71,93.18,5.0,63.0,,,M,,,GNR,1056877,2023-08-30 13:00:00+00:00,715.0,2.25,,
247230,2023-08-30 14:00:00+00:00,0.0,2023-08-30 13:56,64.0,62.0,,1004.9,,4.6,29.68,93.21,4.0,64.0,,,M,,,GNR,1056881,2023-08-30 14:00:00+00:00,715.0,2.25,,
247231,2023-08-30 15:00:00+00:00,0.51,2023-08-30 14:56,64.0,63.0,,1004.7,0.0,0.0,29.67,96.55,0.0,64.0,,,M,,,GNR,1056885,2023-08-30 15:00:00+00:00,715.0,2.25,,
247232,2023-08-30 16:00:00+00:00,0.25,2023-08-30 15:56,64.0,63.0,,1003.7,0.0,0.0,29.64,96.55,0.0,64.0,,,M,,,GNR,1056889,2023-08-30 16:00:00+00:00,724.0,2.26,2023-08-30 16:00:00+00:00,gs://gcp-public-data-sentinel-2/tiles/19/T/DL/S2A_MSIL1C_20230830T153821_N0509_R011_T19TDL_20230830T221127.SAFE
247233,2023-08-30 17:00:00+00:00,0.51,2023-08-30 16:56,65.0,64.0,,1001.2,110.0,9.2,29.57,96.57,8.0,65.0,,,M,,,GNR,1056893,2023-08-30 17:00:00+00:00,5620.0,5.09,,
247234,2023-08-30 18:00:00+00:00,0.25,2023-08-30 17:56,65.0,64.0,,1001.3,,4.6,29.58,96.57,4.0,65.0,,,M,,,GNR,1056897,2023-08-30 18:00:00+00:00,5650.0,5.1,,
247235,2023-08-30 19:00:00+00:00,0.0,2023-08-30 18:56,67.0,64.0,,1000.0,,6.9,29.54,90.09,6.0,67.0,,,M,,,GNR,1056901,2023-08-30 19:00:00+00:00,8390.0,6.22,,
247236,2023-08-30 20:00:00+00:00,5.59,2023-08-30 19:56,64.0,60.0,,1000.1,0.0,0.0,29.54,86.83,0.0,64.0,,,M,,,GNR,1056905,2023-08-30 20:00:00+00:00,9240.0,6.55,,
247237,2023-08-30 21:00:00+00:00,1.02,2023-08-30 20:56,65.0,61.0,,1000.1,,4.6,29.54,86.88,4.0,65.0,,,M,,,GNR,1056909,2023-08-30 21:00:00+00:00,9310.0,6.58,,
247238,2023-08-30 22:00:00+00:00,0.0,2023-08-30 21:56,64.0,61.0,,1000.6,300.0,8.05,29.55,89.97,7.0,64.0,,,M,,,GNR,1056913,2023-08-30 22:00:00+00:00,9260.0,6.56,,
247239,2023-08-30 23:00:00+00:00,0.0,2023-08-30 22:56,63.0,60.0,,1000.6,310.0,8.05,29.55,89.93,7.0,63.0,,,M,,,GNR,1056917,2023-08-30 23:00:00+00:00,9290.0,6.57,,
247240,2023-08-31 00:00:00+00:00,0.0,2023-08-30 23:56,62.0,59.0,,1001.5,310.0,9.2,29.58,89.89,8.0,62.0,,,M,,,GNR,1056921,2023-08-31 00:00:00+00:00,9340.0,6.59,,
247241,2023-08-31 01:00:00+00:00,0.0,2023-08-31 00:56,61.0,59.0,,1002.5,310.0,6.9,29.61,93.12,6.0,61.0,,,M,,,GNR,1056925,2023-08-31 01:00:00+00:00,9340.0,6.59,,
247242,2023-08-31 02:00:00+00:00,0.0,2023-08-31 01:56,60.0,58.0,,1003.1,310.0,5.75,29.63,93.1,5.0,60.0,,,M,,,GNR,1056929,2023-08-31 02:00:00+00:00,9310.0,6.58,,
247243,2023-08-31 03:00:00+00:00,0.25,2023-08-31 02:56,59.0,57.0,,1003.4,300.0,6.9,29.63,93.07,6.0,59.0,,,M,,,GNR,1056933,2023-08-31 03:00:00+00:00,9360.0,6.6,,
247244,2023-08-31 04:00:00+00:00,0.51,2023-08-31 03:56,57.0,55.0,,1004.3,330.0,13.8,29.66,93.01,12.0,57.0,,22.0,M,26.0,,GNR,1056937,2023-08-31 04:00:00+00:00,4660.0,4.66,,
247245,2023-08-31 05:00:00+00:00,0.0,2023-08-31 04:56,57.0,55.0,,1004.8,320.0,5.75,29.67,93.01,5.0,57.0,,,M,,,GNR,1056941,2023-08-31 05:00:00+00:00,1990.0,3.27,,
247246,2023-08-31 06:00:00+00:00,0.76,2023-08-31 05:56,56.0,55.0,,1005.1,310.0,10.35,29.68,96.43,9.0,56.0,,20.0,M,,,GNR,1056945,2023-08-31 06:00:00+00:00,1270.0,2.75,,
247247,2023-08-31 07:00:00+00:00,0.0,2023-08-31 06:56,55.0,53.0,,1005.8,310.0,13.8,29.7,92.95,12.0,55.0,,22.0,M,,,GNR,1056949,2023-08-31 07:00:00+00:00,1040.0,2.56,,
247248,2023-08-31 08:00:00+00:00,0.0,2023-08-31 07:56,54.0,50.0,,1006.2,320.0,14.95,29.71,86.29,13.0,54.0,,31.0,M,31.0,,GNR,1056953,2023-08-31 08:00:00+00:00,999.0,2.52,,
247249,2023-08-31 09:00:00+00:00,0.0,2023-08-31 08:56,52.0,49.0,,1006.7,310.0,12.65,29.73,89.46,11.0,52.0,,31.0,M,31.0,,GNR,1056957,2023-08-31 09:00:00+00:00,976.0,2.5,,
247250,2023-08-31 10:00:00+00:00,0.0,2023-08-31 09:56,51.0,47.0,,1007.8,320.0,19.55,29.76,86.12,17.0,51.0,,28.0,M,30.0,,GNR,1056961,2023-08-31 10:00:00+00:00,964.0,2.49,,
247251,2023-08-31 11:00:00+00:00,0.0,2023-08-31 10:56,51.0,47.0,,1009.1,320.0,14.95,29.79,86.12,13.0,51.0,,28.0,M,28.0,,GNR,1056965,2023-08-31 11:00:00+00:00,942.0,2.47,,
247252,2023-08-31 12:00:00+00:00,0.0,2023-08-31 11:56,51.0,47.0,,1009.9,320.0,12.65,29.82,86.12,11.0,51.0,,20.0,M,,,GNR,1056969,2023-08-31 12:00:00+00:00,919.0,2.45,,
247253,2023-08-31 13:00:00+00:00,0.0,2023-08-31 12:56,54.0,46.0,,1010.5,320.0,12.65,29.84,74.26,11.0,54.0,,23.0,M,27.0,,GNR,1056973,2023-08-31 13:00:00+00:00,908.0,2.44,,
247254,2023-08-31 14:00:00+00:00,0.0,2023-08-31 13:56,56.0,47.0,,1011.8,330.0,12.65,29.88,71.7,11.0,56.0,,25.0,M,28.0,,GNR,1056977,2023-08-31 14:00:00+00:00,897.0,2.43,,
247255,2023-08-31 15:00:00+00:00,0.0,2023-08-31 14:56,57.0,45.0,,1012.5,330.0,13.8,29.89,64.12,12.0,57.0,,24.0,M,,,GNR,1056981,2023-08-31 15:00:00+00:00,887.0,2.42,,
247256,2023-08-31 16:00:00+00:00,0.0,2023-08-31 15:56,60.0,45.0,,1013.1,330.0,13.8,29.91,57.58,12.0,60.0,,29.0,M,29.0,,GNR,1056985,2023-08-31 16:00:00+00:00,887.0,2.42,,
247257,2023-08-31 17:00:00+00:00,0.0,2023-08-31 16:56,61.0,42.0,,1013.1,330.0,13.8,29.91,49.54,12.0,61.0,,25.0,M,28.0,,GNR,1056989,2023-08-31 17:00:00+00:00,5550.0,5.06,,
247258,2023-08-31 18:00:00+00:00,0.0,2023-08-31 17:56,62.0,42.0,,1013.5,330.0,14.95,29.92,47.82,13.0,62.0,,26.0,M,29.0,,GNR,1056993,2023-08-31 18:00:00+00:00,5530.0,5.05,,
247259,2023-08-31 19:00:00+00:00,0.0,2023-08-31 18:56,62.0,43.0,,1013.8,350.0,14.95,29.93,49.69,13.0,62.0,,25.0,M,26.0,,GNR,1056997,2023-08-31 19:00:00+00:00,4100.0,4.4,,
247260,2023-08-31 20:00:00+00:00,0.0,2023-08-31 19:56,62.0,43.0,,1014.5,330.0,14.95,29.96,49.69,13.0,62.0,,22.0,M,,,GNR,1057001,2023-08-31 20:00:00+00:00,1830.0,3.16,,
247261,2023-08-31 21:00:00+00:00,0.0,2023-08-31 20:56,62.0,43.0,,1015.0,310.0,11.5,29.97,49.69,10.0,62.0,,20.0,M,,,GNR,1057005,2023-08-31 21:00:00+00:00,1100.0,2.61,,
247262,2023-08-31 22:00:00+00:00,0.0,2023-08-31 21:56,60.0,43.0,,1015.9,330.0,11.5,29.99,53.34,10.0,60.0,,16.0,M,,,GNR,1057009,2023-08-31 22:00:00+00:00,3360.0,4.04,,
247263,2023-08-31 23:00:00+00:00,0.0,2023-08-31 22:56,57.0,43.0,,1016.8,320.0,9.2,30.01,59.4,8.0,57.0,,18.0,M,,,GNR,1057013,2023-08-31 23:00:00+00:00,8880.0,6.41,,
247264,2023-09-01 00:00:00+00:00,0.0,2023-08-31 23:56,54.0,45.0,,1017.4,330.0,6.9,30.03,71.5,6.0,54.0,,,M,,,GNR,1057017,2023-09-01 00:00:00+00:00,8940.0,6.43,,
247265,2023-09-01 01:00:00+00:00,0.0,2023-09-01 00:56,53.0,45.0,,1018.3,300.0,4.6,30.06,74.16,4.0,53.0,,,M,,,GNR,1057021,2023-09-01 01:00:00+00:00,8910.0,6.42,,
247266,2023-09-01 02:00:00+00:00,0.0,2023-09-01 01:56,52.0,44.0,,1019.0,320.0,6.9,30.08,74.07,6.0,52.0,,,M,,,GNR,1057025,2023-09-01 02:00:00+00:00,8990.0,6.45,,
247267,2023-09-01 03:00:00+00:00,0.0,2023-09-01 02:56,51.0,44.0,,1019.8,330.0,4.6,30.1,76.85,4.0,51.0,,,M,,,GNR,1057029,2023-09-01 03:00:00+00:00,8940.0,6.43,,
247268,2023-09-01 04:00:00+00:00,0.0,2023-09-01 03:56,50.0,44.0,,1020.4,360.0,4.6,30.12,79.76,4.0,50.0,,,M,,,GNR,1057033,2023-09-01 04:00:00+00:00,4210.0,4.45,,
247269,2023-09-01 05:00:00+00:00,0.0,2023-09-01 04:56,50.0,45.0,,1021.1,330.0,3.45,30.14,82.86,3.0,50.0,,,M,,,GNR,1057037,2023-09-01 05:00:00+00:00,1740.0,3.1,,
247270,2023-09-01 06:00:00+00:00,0.0,2023-09-01 05:56,47.0,44.0,,1021.2,0.0,0.0,30.14,89.24,0.0,47.0,,,M,,,GNR,1057041,2023-09-01 06:00:00+00:00,1040.0,2.56,,
247271,2023-09-01 07:00:00+00:00,0.0,2023-09-01 06:56,48.0,44.0,,1021.4,0.0,0.0,30.15,85.95,0.0,48.0,,,M,,,GNR,1057045,2023-09-01 07:00:00+00:00,813.0,2.35,,
247272,2023-09-01 08:00:00+00:00,0.0,2023-09-01 07:56,47.0,44.0,,1021.8,350.0,5.75,30.16,89.24,5.0,44.21,,,M,,,GNR,1057049,2023-09-01 08:00:00+00:00,773.0,2.31,,
247273,2023-09-01 09:00:00+00:00,0.0,2023-09-01 08:56,47.0,44.0,,1022.1,0.0,0.0,30.17,89.24,0.0,47.0,,,M,,,GNR,1057053,2023-09-01 09:00:00+00:00,753.0,2.29,,
247274,2023-09-01 10:00:00+00:00,0.0,2023-09-01 09:56,46.0,43.0,,1022.7,0.0,0.0,30.18,89.2,0.0,46.0,,,M,,,GNR,1057057,2023-09-01 10:00:00+00:00,744.0,2.28,,
247275,2023-09-01 11:00:00+00:00,0.0,2023-09-01 10:56,49.0,46.0,,1023.0,0.0,0.0,30.19,89.33,0.0,49.0,,,M,,,GNR,1057061,2023-09-01 11:00:00+00:00,744.0,2.28,,
247276,2023-09-01 12:00:00+00:00,0.0,2023-09-01 11:56,54.0,48.0,,1023.2,0.0,0.0,30.2,80.07,0.0,54.0,,,M,,,GNR,1057065,2023-09-01 12:00:00+00:00,734.0,2.27,,
247277,2023-09-01 13:00:00+00:00,0.0,2023-09-01 12:56,59.0,49.0,,1023.8,0.0,0.0,30.22,69.38,0.0,59.0,,,M,,,GNR,1057069,2023-09-01 13:00:00+00:00,724.0,2.26,,
247278,2023-09-01 14:00:00+00:00,0.0,2023-09-01 13:56,62.0,51.0,,1024.0,,5.75,30.23,67.18,5.0,62.0,,,M,,,GNR,1057073,2023-09-01 14:00:00+00:00,724.0,2.26,,
247279,2023-09-01 15:00:00+00:00,0.0,2023-09-01 14:56,64.0,51.0,,1023.8,330.0,9.2,30.22,62.62,8.0,64.0,,,M,,,GNR,1057077,2023-09-01 15:00:00+00:00,724.0,2.26,,
247280,2023-09-01 16:00:00+00:00,0.0,2023-09-01 15:56,67.0,51.0,,1023.7,330.0,9.2,30.22,56.41,8.0,67.0,,20.0,M,,,GNR,1057081,2023-09-01 16:00:00+00:00,724.0,2.26,2023-09-01 16:00:00+00:00,gs://gcp-public-data-sentinel-2/tiles/19/T/DL/S2B_MSIL1C_20230901T153559_N0509_R111_T19TDL_20230901T201924.SAFE
247281,2023-09-01 17:00:00+00:00,0.0,2023-09-01 16:56,69.0,48.0,,1023.5,320.0,6.9,30.22,47.09,6.0,69.0,,15.0,M,,,GNR,1057085,2023-09-01 17:00:00+00:00,5420.0,5.0,,
247282,2023-09-01 18:00:00+00:00,0.0,2023-09-01 17:56,70.0,47.0,,1023.3,330.0,8.05,30.21,43.82,7.0,70.0,,16.0,M,,,GNR,1057089,2023-09-01 18:00:00+00:00,5460.0,5.02,,
247283,2023-09-01 19:00:00+00:00,0.0,2023-09-01 18:56,71.0,48.0,,1023.1,320.0,8.05,30.21,43.98,7.0,71.0,,,M,,,GNR,1057093,2023-09-01 19:00:00+00:00,4080.0,4.39,,
247284,2023-09-01 20:00:00+00:00,0.0,2023-09-01 19:56,71.0,49.0,,1022.7,300.0,9.2,30.19,45.66,8.0,71.0,,,M,,,GNR,1057097,2023-09-01 20:00:00+00:00,1770.0,3.12,,
247285,2023-09-01 21:00:00+00:00,0.0,2023-09-01 20:56,70.0,50.0,,1022.2,290.0,5.75,30.18,49.03,5.0,70.0,,,M,,,GNR,1057101,2023-09-01 21:00:00+00:00,1020.0,2.54,,
247286,2023-09-01 22:00:00+00:00,0.0,2023-09-01 21:56,67.0,51.0,,1022.0,300.0,3.45,30.17,56.41,3.0,67.0,,,M,,,GNR,1057105,2023-09-01 22:00:00+00:00,3810.0,4.26,,
247287,2023-09-01 23:00:00+00:00,0.0,2023-09-01 22:56,63.0,51.0,,1022.2,300.0,4.6,30.17,64.85,4.0,63.0,,,M,,,GNR,1057109,2023-09-01 23:00:00+00:00,8780.0,6.37,,
247288,2023-09-02 00:00:00+00:00,0.0,2023-09-01 23:56,62.0,50.0,,1022.5,,3.45,30.19,64.73,3.0,62.0,,,M,,,GNR,1057113,2023-09-02 00:00:00+00:00,8860.0,6.4,,
247289,2023-09-02 01:00:00+00:00,0.0,2023-09-02 00:56,61.0,50.0,,1022.5,310.0,4.6,30.19,67.06,4.0,61.0,,,M,,,GNR,1057117,2023-09-02 01:00:00+00:00,8860.0,6.4,,
247290,2023-09-02 02:00:00+00:00,0.0,2023-09-02 01:56,60.0,50.0,,1022.6,310.0,4.6,30.19,69.49,4.0,60.0,,,M,,,GNR,1057121,2023-09-02 02:00:00+00:00,8880.0,6.41,,
247291,2023-09-02 03:00:00+00:00,0.0,2023-09-02 02:56,56.0,50.0,,1022.3,0.0,0.0,30.19,80.23,0.0,56.0,,,M,,,GNR,1057125,2023-09-02 03:00:00+00:00,8940.0,6.43,,
247292,2023-09-02 04:00:00+00:00,0.0,2023-09-02 03:56,57.0,50.0,,1022.1,0.0,0.0,30.18,77.38,0.0,57.0,,,M,,,GNR,1057129,2023-09-02 04:00:00+00:00,4340.0,4.51,,
247293,2023-09-02 05:00:00+00:00,0.0,2023-09-02 04:56,56.0,50.0,,1021.8,200.0,3.45,30.17,80.23,3.0,56.0,,,M,,,GNR,1057133,2023-09-02 05:00:00+00:00,1720.0,3.09,,
247294,2023-09-02 06:00:00+00:00,0.0,2023-09-02 05:56,57.0,50.0,,1021.4,0.0,0.0,30.17,77.38,0.0,57.0,,,M,,,GNR,1057137,2023-09-02 06:00:00+00:00,1010.0,2.53,,
247295,2023-09-02 07:00:00+00:00,0.0,2023-09-02 06:56,57.0,50.0,,1021.1,0.0,0.0,30.16,77.38,0.0,57.0,,,M,,,GNR,1057141,2023-09-02 07:00:00+00:00,753.0,2.29,,
247296,2023-09-02 08:00:00+00:00,0.0,2023-09-02 07:56,54.0,49.0,,1021.0,0.0,0.0,30.15,83.13,0.0,54.0,,,M,,,GNR,1057145,2023-09-02 08:00:00+00:00,706.0,2.24,,
247297,2023-09-02 09:00:00+00:00,0.0,2023-09-02 08:56,54.0,49.0,,1020.9,0.0,0.0,30.15,83.13,0.0,54.0,,,M,,,GNR,1057149,2023-09-02 09:00:00+00:00,696.0,2.23,,
247298,2023-09-02 10:00:00+00:00,0.0,2023-09-02 09:56,53.0,47.0,,1021.0,0.0,0.0,30.15,80.0,0.0,53.0,,,M,,,GNR,1057153,2023-09-02 10:00:00+00:00,687.0,2.22,,
247299,2023-09-02 11:00:00+00:00,0.0,2023-09-02 10:56,54.0,50.0,,1020.9,0.0,0.0,30.14,86.29,0.0,54.0,,,M,,,GNR,1057157,2023-09-02 11:00:00+00:00,687.0,2.22,,
247300,2023-09-02 12:00:00+00:00,0.0,2023-09-02 11:56,60.0,51.0,,1020.8,0.0,0.0,30.14,72.12,0.0,60.0,,,M,,,GNR,1057161,2023-09-02 12:00:00+00:00,678.0,2.21,,
247301,2023-09-02 13:00:00+00:00,0.0,2023-09-02 12:56,63.0,54.0,,1020.0,0.0,0.0,30.12,72.42,0.0,63.0,,,M,,,GNR,1057165,2023-09-02 13:00:00+00:00,678.0,2.21,,
247302,2023-09-02 14:00:00+00:00,0.0,2023-09-02 13:56,67.0,54.0,,1019.6,0.0,0.0,30.11,62.99,0.0,67.0,,,M,,,GNR,1057169,2023-09-02 14:00:00+00:00,669.0,2.2,,
247303,2023-09-02 15:00:00+00:00,0.0,2023-09-02 14:56,70.0,56.0,,1018.7,,4.6,30.08,61.11,4.0,70.0,,,M,,,GNR,1057173,2023-09-02 15:00:00+00:00,669.0,2.2,,
247304,2023-09-02 16:00:00+00:00,0.0,2023-09-02 15:56,71.0,55.0,,1017.5,,4.6,30.05,56.96,4.0,71.0,,,M,,,GNR,1057177,2023-09-02 16:00:00+00:00,669.0,2.2,,
247305,2023-09-02 17:00:00+00:00,0.0,2023-09-02 16:56,73.0,54.0,,1016.4,,5.75,30.02,51.33,5.0,73.0,,,M,,,GNR,1057181,2023-09-02 17:00:00+00:00,5370.0,4.98,,
247306,2023-09-02 18:00:00+00:00,0.0,2023-09-02 17:56,75.0,57.0,,1015.8,,4.6,30.0,53.52,4.0,75.0,,,M,,,GNR,1057185,2023-09-02 18:00:00+00:00,5420.0,5.0,,
247307,2023-09-02 19:00:00+00:00,0.0,2023-09-02 18:56,75.0,57.0,,1014.7,,,29.97,53.52,,75.0,,,M,,,GNR,1057189,2023-09-02 19:00:00+00:00,4340.0,4.51,,
247308,2023-09-02 20:00:00+00:00,0.0,2023-09-02 19:56,73.0,59.0,,1014.0,180.0,5.75,29.95,61.5,5.0,73.0,,,M,,,GNR,1057193,2023-09-02 20:00:00+00:00,3130.0,3.92,,
247309,2023-09-02 21:00:00+00:00,0.0,2023-09-02 20:56,73.0,57.0,,1013.7,190.0,9.2,29.94,57.23,8.0,73.0,,,M,,,GNR,1057197,2023-09-02 21:00:00+00:00,2860.0,3.78,,
247310,2023-09-02 22:00:00+00:00,0.0,2023-09-02 21:56,69.0,56.0,,1013.7,190.0,4.6,29.93,63.24,4.0,69.0,,,M,,,GNR,1057201,2023-09-02 22:00:00+00:00,1550.0,2.97,,
247311,2023-09-02 23:00:00+00:00,0.0,2023-09-02 22:56,67.0,57.0,,1013.4,0.0,0.0,29.92,70.24,0.0,67.0,,,M,,,GNR,1057205,2023-09-02 23:00:00+00:00,930.0,2.46,,
247312,2023-09-03 00:00:00+00:00,0.0,2023-09-02 23:56,65.0,57.0,,1013.5,0.0,0.0,29.93,75.3,0.0,65.0,,,M,,,GNR,1057209,2023-09-03 00:00:00+00:00,3500.0,4.11,,
247313,2023-09-03 01:00:00+00:00,0.0,2023-09-03 00:56,63.0,57.0,,1013.7,0.0,0.0,29.94,80.76,0.0,63.0,,,M,,,GNR,1057213,2023-09-03 01:00:00+00:00,8680.0,6.33,,
247314,2023-09-03 02:00:00+00:00,0.0,2023-09-03 01:56,63.0,58.0,,1013.4,140.0,3.45,29.93,83.72,3.0,63.0,,,M,,,GNR,1057217,2023-09-03 02:00:00+00:00,4150.0,4.42,,
247315,2023-09-03 03:00:00+00:00,0.0,2023-09-03 02:56,63.0,58.0,,1013.1,0.0,0.0,29.93,83.72,0.0,63.0,,,M,,,GNR,1057221,2023-09-03 03:00:00+00:00,1650.0,3.04,,
247316,2023-09-03 04:00:00+00:00,0.0,2023-09-03 03:56,62.0,57.0,,1012.6,0.0,0.0,29.91,83.65,0.0,62.0,,,M,,,GNR,1057225,2023-09-03 04:00:00+00:00,964.0,2.49,,
247317,2023-09-03 05:00:00+00:00,0.0,2023-09-03 04:56,62.0,56.0,,1012.4,0.0,0.0,29.91,80.68,0.0,62.0,,,M,,,GNR,1057229,2023-09-03 05:00:00+00:00,724.0,2.26,,
247318,2023-09-03 06:00:00+00:00,0.0,2023-09-03 05:56,62.0,55.0,,1012.1,0.0,0.0,29.9,77.81,0.0,62.0,,,M,,,GNR,1057233,2023-09-03 06:00:00+00:00,669.0,2.2,,
247319,2023-09-03 07:00:00+00:00,0.0,2023-09-03 06:56,64.0,55.0,,1011.8,0.0,0.0,29.89,72.52,0.0,64.0,,,M,,,GNR,1057237,2023-09-03 07:00:00+00:00,660.0,2.19,,
247320,2023-09-03 08:00:00+00:00,0.0,2023-09-03 07:56,64.0,56.0,,1011.8,0.0,0.0,29.89,75.2,0.0,64.0,,,M,,,GNR,1057241,2023-09-03 08:00:00+00:00,651.0,2.18,,
247321,2023-09-03 09:00:00+00:00,0.0,2023-09-03 08:56,64.0,56.0,,1011.5,,3.45,29.88,75.2,3.0,64.0,,,M,,,GNR,1057245,2023-09-03 09:00:00+00:00,651.0,2.18,,
247322,2023-09-03 10:00:00+00:00,0.0,2023-09-03 09:56,61.0,55.0,,1012.2,0.0,0.0,29.9,80.61,0.0,61.0,,,M,,,GNR,1057249,2023-09-03 10:00:00+00:00,651.0,2.18,,
247323,2023-09-03 11:00:00+00:00,0.0,2023-09-03 10:56,64.0,56.0,,1012.8,0.0,0.0,29.91,75.2,0.0,64.0,,,M,,,GNR,1057253,2023-09-03 11:00:00+00:00,642.0,2.17,,
247324,2023-09-03 12:00:00+00:00,0.0,2023-09-03 11:56,66.0,57.0,,1012.8,0.0,0.0,29.92,72.72,0.0,66.0,,,M,,,GNR,1057257,2023-09-03 12:00:00+00:00,642.0,2.17,,
247325,2023-09-03 13:00:00+00:00,0.0,2023-09-03 12:56,69.0,58.0,,1012.8,0.0,0.0,29.92,67.97,0.0,69.0,,,M,,,GNR,1057261,2023-09-03 13:00:00+00:00,642.0,2.17,,
247326,2023-09-03 14:00:00+00:00,0.0,2023-09-03 13:56,71.0,60.0,,1012.7,0.0,0.0,29.91,68.2,0.0,71.0,,,M,,,GNR,1057265,2023-09-03 14:00:00+00:00,642.0,2.17,,
247327,2023-09-03 15:00:00+00:00,0.0,2023-09-03 14:56,73.0,61.0,,1012.4,,3.45,29.91,66.04,3.0,73.0,,,M,,,GNR,1057269,2023-09-03 15:00:00+00:00,633.0,2.16,,
247328,2023-09-03 16:00:00+00:00,0.0,2023-09-03 15:56,75.0,61.0,,1012.1,0.0,0.0,29.9,61.75,0.0,75.0,,,M,,,GNR,1057273,2023-09-03 16:00:00+00:00,633.0,2.16,,
247329,2023-09-03 17:00:00+00:00,0.0,2023-09-03 16:56,75.0,63.0,,1011.9,320.0,5.75,29.89,66.27,5.0,75.0,,,M,,,GNR,1057277,2023-09-03 17:00:00+00:00,5320.0,4.96,,
247330,2023-09-03 18:00:00+00:00,0.0,2023-09-03 17:56,77.0,63.0,,1011.6,0.0,0.0,29.89,62.0,0.0,77.0,,,M,,,GNR,1057281,2023-09-03 18:00:00+00:00,5390.0,4.99,,
247331,2023-09-03 19:00:00+00:00,0.0,2023-09-03 18:56,76.0,62.0,,1011.0,,,29.87,61.87,,76.0,,,M,,,GNR,1057285,2023-09-03 19:00:00+00:00,4000.0,4.35,,
247332,2023-09-03 20:00:00+00:00,0.0,2023-09-03 19:56,76.0,63.0,,1010.7,330.0,5.75,29.86,64.09,5.0,76.0,,,M,,,GNR,1057289,2023-09-03 20:00:00+00:00,1710.0,3.08,,
247333,2023-09-03 21:00:00+00:00,0.0,2023-09-03 20:56,75.0,63.0,,1010.7,320.0,3.45,29.86,66.27,3.0,75.0,,,M,,,GNR,1057293,2023-09-03 21:00:00+00:00,964.0,2.49,,
247334,2023-09-03 22:00:00+00:00,0.0,2023-09-03 21:56,75.0,63.0,,1010.7,0.0,0.0,29.86,66.27,0.0,75.0,,,M,,,GNR,1057297,2023-09-03 22:00:00+00:00,706.0,2.24,,
247335,2023-09-03 23:00:00+00:00,0.0,2023-09-03 22:56,71.0,63.0,,1010.6,310.0,3.45,29.85,75.84,3.0,71.0,,,M,,,GNR,1057301,2023-09-03 23:00:00+00:00,642.0,2.17,,
247336,2023-09-04 00:00:00+00:00,0.0,2023-09-03 23:56,68.0,61.0,,1010.9,0.0,0.0,29.86,78.3,0.0,68.0,,,M,,,GNR,1057305,2023-09-04 00:00:00+00:00,8680.0,6.33,,
247337,2023-09-04 01:00:00+00:00,0.0,2023-09-04 00:56,68.0,61.0,,1011.3,300.0,3.45,29.88,78.3,3.0,68.0,,,M,,,GNR,1057309,2023-09-04 01:00:00+00:00,8700.0,6.34,,
247338,2023-09-04 02:00:00+00:00,0.0,2023-09-04 01:56,66.0,61.0,,1011.4,0.0,0.0,29.88,83.91,0.0,66.0,,,M,,,GNR,1057313,2023-09-04 02:00:00+00:00,4100.0,4.4,,
247339,2023-09-04 03:00:00+00:00,0.0,2023-09-04 02:56,66.0,60.0,,1011.3,310.0,3.45,29.88,80.98,3.0,66.0,,,M,,,GNR,1057317,2023-09-04 03:00:00+00:00,1630.0,3.03,,
247340,2023-09-04 04:00:00+00:00,0.0,2023-09-04 03:56,66.0,61.0,,1011.1,330.0,3.45,29.87,83.91,3.0,66.0,,,M,,,GNR,1057321,2023-09-04 04:00:00+00:00,942.0,2.47,,
247341,2023-09-04 05:00:00+00:00,0.0,2023-09-04 04:56,63.0,61.0,,1011.2,0.0,0.0,29.87,93.18,0.0,63.0,,,M,,,GNR,1057325,2023-09-04 05:00:00+00:00,696.0,2.23,,
247342,2023-09-04 06:00:00+00:00,0.0,2023-09-04 05:56,61.0,58.0,,1010.9,0.0,0.0,29.87,89.84,0.0,61.0,,,M,,,GNR,1057329,2023-09-04 06:00:00+00:00,651.0,2.18,,
247343,2023-09-04 07:00:00+00:00,0.0,2023-09-04 06:56,63.0,60.0,,1010.8,0.0,0.0,29.86,89.93,0.0,63.0,,,M,,,GNR,1057333,2023-09-04 07:00:00+00:00,633.0,2.16,,
247344,2023-09-04 08:00:00+00:00,0.0,2023-09-04 07:56,61.0,59.0,,1010.6,0.0,0.0,29.86,93.12,0.0,61.0,,,M,,,GNR,1057337,2023-09-04 08:00:00+00:00,633.0,2.16,,
247345,2023-09-04 09:00:00+00:00,0.0,2023-09-04 08:56,61.0,59.0,,1010.7,0.0,0.0,29.86,93.12,0.0,61.0,,,M,,,GNR,1057341,2023-09-04 09:00:00+00:00,633.0,2.16,,
247346,2023-09-04 10:00:00+00:00,0.0,2023-09-04 09:56,61.0,59.0,,1011.2,0.0,0.0,29.87,93.12,0.0,61.0,,,M,,,GNR,1057345,2023-09-04 10:00:00+00:00,625.0,2.15,,
247347,2023-09-04 11:00:00+00:00,0.0,2023-09-04 10:56,64.0,62.0,,1011.6,350.0,3.45,29.88,93.21,3.0,64.0,,,M,,,GNR,1057349,2023-09-04 11:00:00+00:00,625.0,2.15,,
247348,2023-09-04 12:00:00+00:00,0.0,2023-09-04 11:56,69.0,65.0,,1011.7,,3.45,29.89,87.08,3.0,69.0,,,M,,,GNR,1057353,2023-09-04 12:00:00+00:00,625.0,2.15,,
247349,2023-09-04 13:00:00+00:00,0.0,2023-09-04 12:56,72.0,65.0,,1011.9,50.0,3.45,29.89,78.62,3.0,72.0,,,M,,,GNR,1057357,2023-09-04 13:00:00+00:00,616.0,2.14,,
247350,2023-09-04 14:00:00+00:00,0.0,2023-09-04 13:56,74.0,66.0,,1012.0,0.0,0.0,29.9,76.1,0.0,74.0,,,M,,,GNR,1057361,2023-09-04 14:00:00+00:00,616.0,2.14,,
247351,2023-09-04 15:00:00+00:00,0.0,2023-09-04 14:56,76.0,65.0,,1011.8,330.0,5.75,29.89,68.74,5.0,76.0,,,M,,,GNR,1057365,2023-09-04 15:00:00+00:00,616.0,2.14,,
247352,2023-09-04 16:00:00+00:00,0.0,2023-09-04 15:56,78.0,66.0,,1011.2,0.0,0.0,29.88,66.61,0.0,78.0,,,M,,,GNR,1057369,2023-09-04 16:00:00+00:00,616.0,2.14,2023-09-04 16:00:00+00:00,gs://gcp-public-data-sentinel-2/tiles/19/T/DL/S2B_MSIL1C_20230904T153819_N0509_R011_T19TDL_20230904T191938.SAFE
247353,2023-09-04 17:00:00+00:00,0.0,2023-09-04 16:56,80.0,66.0,,1010.8,,6.9,29.87,62.37,6.0,82.07,,,M,,,GNR,1057373,2023-09-04 17:00:00+00:00,5320.0,4.96,,
247354,2023-09-04 18:00:00+00:00,0.0,2023-09-04 17:56,81.0,65.0,,1010.5,330.0,3.45,29.86,58.3,3.0,82.82,,,M,,,GNR,1057377,2023-09-04 18:00:00+00:00,5320.0,4.96,,
247355,2023-09-04 19:00:00+00:00,0.0,2023-09-04 18:56,83.0,67.0,,1010.0,340.0,5.75,29.84,58.56,5.0,85.6,,,M,,,GNR,1057381,2023-09-04 19:00:00+00:00,4000.0,4.35,,
247356,2023-09-04 20:00:00+00:00,0.0,2023-09-04 19:56,82.0,66.0,,1010.5,20.0,4.6,29.86,58.43,4.0,84.15,,,M,,,GNR,1057385,2023-09-04 20:00:00+00:00,1690.0,3.07,,
247357,2023-09-04 21:00:00+00:00,0.0,2023-09-04 20:56,81.0,65.0,,1010.8,80.0,3.45,29.86,58.3,3.0,82.82,,,M,,,GNR,1057389,2023-09-04 21:00:00+00:00,953.0,2.48,,
247358,2023-09-04 22:00:00+00:00,0.0,2023-09-04 21:56,81.0,67.0,,1011.0,0.0,0.0,29.87,62.49,0.0,83.43,,,M,,,GNR,1057393,2023-09-04 22:00:00+00:00,687.0,2.22,,
247359,2023-09-04 23:00:00+00:00,0.0,2023-09-04 22:56,77.0,68.0,,1011.3,0.0,0.0,29.88,73.78,0.0,77.0,,,M,,,GNR,1057397,2023-09-04 23:00:00+00:00,1840.0,3.17,,
247360,2023-09-05 00:00:00+00:00,0.0,2023-09-04 23:56,76.0,66.0,,1011.3,290.0,3.45,29.88,71.18,3.0,76.0,,,M,,,GNR,1057401,2023-09-05 00:00:00+00:00,8700.0,6.34,,
247361,2023-09-05 01:00:00+00:00,0.0,2023-09-05 00:56,72.0,66.0,,1011.7,10.0,4.6,29.89,81.41,4.0,72.0,,,M,,,GNR,1057405,2023-09-05 01:00:00+00:00,8730.0,6.35,,
247362,2023-09-05 02:00:00+00:00,0.0,2023-09-05 01:56,73.0,67.0,,1011.7,320.0,5.75,29.89,81.48,5.0,73.0,,,M,,,GNR,1057409,2023-09-05 02:00:00+00:00,4340.0,4.51,,
247363,2023-09-05 03:00:00+00:00,0.0,2023-09-05 02:56,73.0,67.0,,1011.8,340.0,8.05,29.9,81.48,7.0,73.0,,,M,,,GNR,1057413,2023-09-05 03:00:00+00:00,1680.0,3.06,,
247364,2023-09-05 04:00:00+00:00,0.0,2023-09-05 03:56,71.0,68.0,,1012.0,340.0,4.6,29.91,90.25,4.0,71.0,,,M,,,GNR,1057417,2023-09-05 04:00:00+00:00,953.0,2.48,,
247365,2023-09-05 05:00:00+00:00,0.0,2023-09-05 04:56,69.0,67.0,,1012.1,320.0,4.6,29.91,93.35,4.0,69.0,,,M,,,GNR,1057421,2023-09-05 05:00:00+00:00,687.0,2.22,,
247366,2023-09-05 06:00:00+00:00,0.0,2023-09-05 05:56,70.0,67.0,,1012.3,10.0,4.6,29.91,90.21,4.0,70.0,,,M,,,GNR,1057425,2023-09-05 06:00:00+00:00,633.0,2.16,,
247367,2023-09-05 07:00:00+00:00,0.0,2023-09-05 06:56,70.0,67.0,,1012.6,330.0,5.75,29.93,90.21,5.0,70.0,,,M,,,GNR,1057429,2023-09-05 07:00:00+00:00,625.0,2.15,,
247368,2023-09-05 08:00:00+00:00,0.0,2023-09-05 07:56,70.0,67.0,,1012.8,340.0,9.2,29.93,90.21,8.0,70.0,,,M,,,GNR,1057433,2023-09-05 08:00:00+00:00,616.0,2.14,,
247369,2023-09-05 09:00:00+00:00,0.0,2023-09-05 08:56,70.0,67.0,,1013.2,330.0,5.75,29.94,90.21,5.0,70.0,,,M,,,GNR,1057437,2023-09-05 09:00:00+00:00,608.0,2.13,,
247370,2023-09-05 10:00:00+00:00,0.0,2023-09-05 09:56,68.0,66.0,,1013.6,340.0,4.6,29.95,93.32,4.0,68.0,,,M,,,GNR,1057441,2023-09-05 10:00:00+00:00,608.0,2.13,,
247371,2023-09-05 11:00:00+00:00,0.0,2023-09-05 10:56,70.0,67.0,,1014.2,0.0,0.0,29.97,90.21,0.0,70.0,,,M,,,GNR,1057445,2023-09-05 11:00:00+00:00,608.0,2.13,,
247372,2023-09-05 12:00:00+00:00,0.0,2023-09-05 11:56,71.0,68.0,,1014.2,10.0,3.45,29.97,90.25,3.0,71.0,,,M,,,GNR,1057449,2023-09-05 12:00:00+00:00,608.0,2.13,,
247373,2023-09-05 13:00:00+00:00,0.0,2023-09-05 12:56,75.0,69.0,,1014.4,320.0,4.6,29.97,81.62,4.0,75.0,,,M,,,GNR,1057453,2023-09-05 13:00:00+00:00,608.0,2.13,,
247374,2023-09-05 14:00:00+00:00,0.0,2023-09-05 13:56,77.0,70.0,,1014.5,320.0,6.9,29.98,79.02,6.0,77.0,,,M,,,GNR,1057457,2023-09-05 14:00:00+00:00,599.0,2.12,,
247375,2023-09-05 15:00:00+00:00,0.0,2023-09-05 14:56,80.0,70.0,,1014.6,,4.6,29.98,71.58,4.0,83.15,,,M,,,GNR,1057461,2023-09-05 15:00:00+00:00,599.0,2.12,,
247376,2023-09-05 16:00:00+00:00,0.0,2023-09-05 15:56,81.0,70.0,,1014.3,310.0,8.05,29.97,69.28,7.0,84.5,,,M,,,GNR,1057465,2023-09-05 16:00:00+00:00,599.0,2.12,,
247377,2023-09-05 17:00:00+00:00,0.0,2023-09-05 16:56,82.0,69.0,,1014.3,320.0,8.05,29.97,64.8,7.0,85.35,,,M,,,GNR,1057469,2023-09-05 17:00:00+00:00,5300.0,4.95,,
247378,2023-09-05 18:00:00+00:00,0.0,2023-09-05 17:56,84.0,69.0,,1013.8,310.0,8.05,29.96,60.74,7.0,87.72,,,M,,,GNR,1057473,2023-09-05 18:00:00+00:00,5320.0,4.96,,
247379,2023-09-05 19:00:00+00:00,0.0,2023-09-05 18:56,85.0,69.0,,1013.2,,6.9,29.95,58.82,6.0,88.89,,,M,,,GNR,1057477,2023-09-05 19:00:00+00:00,3980.0,4.34,,
247380,2023-09-05 20:00:00+00:00,0.0,2023-09-05 19:56,86.0,67.0,,1012.7,330.0,6.9,29.93,53.18,6.0,88.83,,15.0,M,,,GNR,1057481,2023-09-05 20:00:00+00:00,1680.0,3.06,,
247381,2023-09-05 21:00:00+00:00,0.0,2023-09-05 20:56,83.0,66.0,,1012.2,350.0,8.05,29.92,56.57,7.0,85.17,,,M,,,GNR,1057485,2023-09-05 21:00:00+00:00,942.0,2.47,,
247382,2023-09-05 22:00:00+00:00,0.0,2023-09-05 21:56,81.0,67.0,,1012.2,360.0,5.75,29.91,62.49,5.0,83.43,,,M,,,GNR,1057489,2023-09-05 22:00:00+00:00,2370.0,3.5,,
247383,2023-09-05 23:00:00+00:00,0.0,2023-09-05 22:56,78.0,66.0,,1012.3,360.0,5.75,29.91,66.61,5.0,78.0,,,M,,,GNR,1057493,2023-09-05 23:00:00+00:00,8730.0,6.35,,
247384,2023-09-06 00:00:00+00:00,0.0,2023-09-05 23:56,77.0,67.0,,1012.7,20.0,4.6,29.92,71.28,4.0,77.0,,,M,,,GNR,1057497,2023-09-06 00:00:00+00:00,8880.0,6.41,,
247385,2023-09-06 01:00:00+00:00,0.0,2023-09-06 00:56,74.0,66.0,,1012.7,360.0,4.6,29.93,76.1,4.0,74.0,,,M,,,GNR,1057501,2023-09-06 01:00:00+00:00,8910.0,6.42,,
247386,2023-09-06 02:00:00+00:00,0.0,2023-09-06 01:56,71.0,67.0,,1012.9,240.0,3.45,29.93,87.19,3.0,71.0,,,M,,,GNR,1057505,2023-09-06 02:00:00+00:00,8960.0,6.44,,
247387,2023-09-06 03:00:00+00:00,0.0,2023-09-06 02:56,71.0,67.0,,1012.8,290.0,4.6,29.93,87.19,4.0,71.0,,,M,,,GNR,1057509,2023-09-06 03:00:00+00:00,8960.0,6.44,,
247388,2023-09-06 04:00:00+00:00,0.0,2023-09-06 03:56,70.0,66.0,,1012.7,290.0,3.45,29.93,87.14,3.0,70.0,,,M,,,GNR,1057513,2023-09-06 04:00:00+00:00,4190.0,4.44,,
247389,2023-09-06 05:00:00+00:00,0.0,2023-09-06 04:56,68.0,64.0,,1012.8,340.0,3.45,29.93,87.03,3.0,68.0,,,M,,,GNR,1057517,2023-09-06 05:00:00+00:00,1630.0,3.03,,
247390,2023-09-06 06:00:00+00:00,0.0,2023-09-06 05:56,68.0,65.0,,1012.6,0.0,0.0,29.92,90.13,0.0,68.0,,,M,,,GNR,1057521,2023-09-06 06:00:00+00:00,930.0,2.46,,
247391,2023-09-06 07:00:00+00:00,0.0,2023-09-06 06:56,67.0,65.0,,1012.3,320.0,4.6,29.92,93.29,4.0,67.0,,,M,,,GNR,1057525,2023-09-06 07:00:00+00:00,678.0,2.21,,
247392,2023-09-06 08:00:00+00:00,0.0,2023-09-06 07:56,68.0,66.0,,1012.0,340.0,4.6,29.91,93.32,4.0,68.0,,,M,,,GNR,1057529,2023-09-06 08:00:00+00:00,616.0,2.14,,
247393,2023-09-06 09:00:00+00:00,0.0,2023-09-06 08:56,67.0,65.0,,1011.8,20.0,3.45,29.9,93.29,3.0,67.0,,,M,,,GNR,1057533,2023-09-06 09:00:00+00:00,608.0,2.13,,
247394,2023-09-06 10:00:00+00:00,0.0,2023-09-06 09:56,66.0,65.0,,1011.6,0.0,0.0,29.89,96.58,0.0,66.0,,,M,,,GNR,1057537,2023-09-06 10:00:00+00:00,599.0,2.12,,
247395,2023-09-06 11:00:00+00:00,0.0,2023-09-06 10:56,67.0,65.0,,1011.4,350.0,4.6,29.88,93.29,4.0,67.0,,,M,,,GNR,1057541,2023-09-06 11:00:00+00:00,599.0,2.12,,
247396,2023-09-06 12:00:00+00:00,0.0,2023-09-06 11:56,70.0,66.0,,1011.2,0.0,0.0,29.88,87.14,0.0,70.0,,,M,,,GNR,1057545,2023-09-06 12:00:00+00:00,582.0,2.1,,
247397,2023-09-06 13:00:00+00:00,0.0,2023-09-06 12:56,73.0,66.0,,1011.0,310.0,3.45,29.87,78.7,3.0,73.0,,,M,,,GNR,1057549,2023-09-06 13:00:00+00:00,574.0,2.09,,
247398,2023-09-06 14:00:00+00:00,0.0,2023-09-06 13:56,75.0,67.0,,1010.8,0.0,0.0,29.87,76.19,0.0,75.0,,,M,,,GNR,1057553,2023-09-06 14:00:00+00:00,574.0,2.09,,
247399,2023-09-06 15:00:00+00:00,0.0,2023-09-06 14:56,77.0,67.0,,1010.3,310.0,5.75,29.85,71.28,5.0,77.0,,,M,,,GNR,1057557,2023-09-06 15:00:00+00:00,574.0,2.09,,
247400,2023-09-06 16:00:00+00:00,0.0,2023-09-06 15:56,79.0,68.0,,1009.7,320.0,6.9,29.84,69.07,6.0,79.0,,,M,,,GNR,1057561,2023-09-06 16:00:00+00:00,566.0,2.08,2023-09-06 16:00:00+00:00,gs://gcp-public-data-sentinel-2/tiles/19/T/DL/S2A_MSIL1C_20230906T153601_N0509_R111_T19TDL_20230906T204635.SAFE
247401,2023-09-06 17:00:00+00:00,0.0,2023-09-06 16:56,80.0,68.0,,1009.3,350.0,9.2,29.82,66.84,8.0,82.58,,,M,,,GNR,1057565,2023-09-06 17:00:00+00:00,5440.0,5.01,,
247402,2023-09-06 18:00:00+00:00,0.0,2023-09-06 17:56,82.0,68.0,,1008.6,20.0,9.2,29.81,62.62,8.0,84.92,,,M,,,GNR,1057569,2023-09-06 18:00:00+00:00,5440.0,5.01,,
247403,2023-09-06 19:00:00+00:00,0.0,2023-09-06 18:56,84.0,69.0,,1008.0,,,29.79,60.74,,87.72,,,M,,,GNR,1057573,2023-09-06 19:00:00+00:00,3950.0,4.33,,
247404,2023-09-06 20:00:00+00:00,0.0,2023-09-06 19:56,84.0,69.0,,1007.6,30.0,5.75,29.78,60.74,5.0,87.72,,,M,,,GNR,1057577,2023-09-06 20:00:00+00:00,1660.0,3.05,,
247405,2023-09-06 21:00:00+00:00,0.0,2023-09-06 20:56,82.0,68.0,,1007.2,20.0,4.6,29.77,62.62,4.0,84.92,,,M,,,GNR,1057581,2023-09-06 21:00:00+00:00,919.0,2.45,,
247406,2023-09-06 22:00:00+00:00,0.0,2023-09-06 21:56,81.0,68.0,,1007.0,50.0,3.45,29.76,64.69,3.0,83.76,,,M,,,GNR,1057585,2023-09-06 22:00:00+00:00,669.0,2.2,,
247407,2023-09-06 23:00:00+00:00,0.0,2023-09-06 22:56,76.0,68.0,,1007.2,70.0,3.45,29.76,76.27,3.0,76.0,,,M,,,GNR,1057589,2023-09-06 23:00:00+00:00,8730.0,6.35,,
247408,2023-09-07 00:00:00+00:00,0.0,2023-09-06 23:56,75.0,68.0,,1007.3,0.0,0.0,29.77,78.86,0.0,75.0,,,M,,,GNR,1057593,2023-09-07 00:00:00+00:00,8860.0,6.4,,
247409,2023-09-07 01:00:00+00:00,0.0,2023-09-07 00:56,72.0,67.0,,1007.7,0.0,0.0,29.78,84.28,0.0,72.0,,,M,,,GNR,1057597,2023-09-07 01:00:00+00:00,8910.0,6.42,,
247410,2023-09-07 02:00:00+00:00,0.0,2023-09-07 01:56,72.0,67.0,,1007.7,0.0,0.0,29.78,84.28,0.0,72.0,,,M,,,GNR,1057601,2023-09-07 02:00:00+00:00,8960.0,6.44,,
247411,2023-09-07 03:00:00+00:00,0.0,2023-09-07 02:56,70.0,67.0,,1007.6,0.0,0.0,29.77,90.21,0.0,70.0,,,M,,,GNR,1057605,2023-09-07 03:00:00+00:00,8940.0,6.43,,
247412,2023-09-07 04:00:00+00:00,0.0,2023-09-07 03:56,70.0,67.0,,1007.1,0.0,0.0,29.76,90.21,0.0,70.0,,,M,,,GNR,1057609,2023-09-07 04:00:00+00:00,4470.0,4.57,,
247413,2023-09-07 05:00:00+00:00,0.0,2023-09-07 04:56,71.0,67.0,,1006.8,0.0,0.0,29.75,87.19,0.0,71.0,,,M,,,GNR,1057613,2023-09-07 05:00:00+00:00,1690.0,3.07,,
247414,2023-09-07 06:00:00+00:00,0.0,2023-09-07 05:56,69.0,65.0,,1006.6,0.0,0.0,29.75,87.08,0.0,69.0,,,M,,,GNR,1057617,2023-09-07 06:00:00+00:00,942.0,2.47,,
247415,2023-09-07 07:00:00+00:00,0.0,2023-09-07 06:56,69.0,67.0,,1006.4,0.0,0.0,29.75,93.35,0.0,69.0,,,M,,,GNR,1057621,2023-09-07 07:00:00+00:00,669.0,2.2,,
247416,2023-09-07 08:00:00+00:00,0.0,2023-09-07 07:56,70.0,66.0,,1006.5,0.0,0.0,29.75,87.14,0.0,70.0,,,M,,,GNR,1057625,2023-09-07 08:00:00+00:00,608.0,2.13,,
247417,2023-09-07 09:00:00+00:00,0.0,2023-09-07 08:56,67.0,65.0,,1006.8,0.0,0.0,29.75,93.29,0.0,67.0,,,M,,,GNR,1057629,2023-09-07 09:00:00+00:00,591.0,2.11,,
247418,2023-09-07 10:00:00+00:00,0.0,2023-09-07 09:56,68.0,66.0,,1007.1,0.0,0.0,29.76,93.32,0.0,68.0,,,M,,,GNR,1057633,2023-09-07 10:00:00+00:00,591.0,2.11,,
247419,2023-09-07 11:00:00+00:00,0.0,2023-09-07 10:56,68.0,66.0,,1007.6,0.0,0.0,29.77,93.32,0.0,68.0,,,M,,,GNR,1057637,2023-09-07 11:00:00+00:00,582.0,2.1,,
247420,2023-09-07 12:00:00+00:00,0.0,2023-09-07 11:56,73.0,69.0,,1007.9,0.0,0.0,29.78,87.29,0.0,73.0,,,M,,,GNR,1057641,2023-09-07 12:00:00+00:00,582.0,2.1,,
247421,2023-09-07 13:00:00+00:00,0.0,2023-09-07 12:56,77.0,70.0,,1008.3,0.0,0.0,29.8,79.02,0.0,77.0,,,M,,,GNR,1057645,2023-09-07 13:00:00+00:00,574.0,2.09,,
247422,2023-09-07 14:00:00+00:00,0.0,2023-09-07 13:56,79.0,70.0,,1008.2,0.0,0.0,29.8,73.97,0.0,79.0,,,M,,,GNR,1057649,2023-09-07 14:00:00+00:00,558.0,2.07,,
247423,2023-09-07 15:00:00+00:00,0.0,2023-09-07 14:56,82.0,71.0,,1008.0,0.0,0.0,29.79,69.38,0.0,86.3,,,M,,,GNR,1057653,2023-09-07 15:00:00+00:00,558.0,2.07,,
247424,2023-09-07 16:00:00+00:00,0.0,2023-09-07 15:56,83.0,71.0,,1008.1,0.0,0.0,29.79,67.17,0.0,87.64,,,M,,,GNR,1057657,2023-09-07 16:00:00+00:00,558.0,2.07,,
247425,2023-09-07 17:00:00+00:00,0.0,2023-09-07 16:56,85.0,69.0,,1007.8,310.0,5.75,29.79,58.82,5.0,88.89,,,M,,,GNR,1057661,2023-09-07 17:00:00+00:00,5230.0,4.92,,
247426,2023-09-07 18:00:00+00:00,0.0,2023-09-07 17:56,87.0,68.0,,1007.7,,4.6,29.78,53.32,4.0,90.53,,,M,,,GNR,1057665,2023-09-07 18:00:00+00:00,5320.0,4.96,,
247427,2023-09-07 19:00:00+00:00,0.0,2023-09-07 18:56,87.0,67.0,,1007.4,,4.6,29.77,51.51,4.0,89.91,,,M,,,GNR,1057669,2023-09-07 19:00:00+00:00,3980.0,4.34,,
247428,2023-09-07 20:00:00+00:00,0.0,2023-09-07 19:56,85.0,69.0,,1007.4,0.0,0.0,29.77,58.82,0.0,88.89,,,M,,,GNR,1057673,2023-09-07 20:00:00+00:00,1680.0,3.06,,
247429,2023-09-07 21:00:00+00:00,6.86,2023-09-07 20:56,79.0,72.0,,1007.5,,,29.77,79.17,,79.0,,,M,,,GNR,1057677,2023-09-07 21:00:00+00:00,919.0,2.45,,
247430,2023-09-07 22:00:00+00:00,0.0,2023-09-07 21:56,77.0,70.0,,1008.1,0.0,0.0,29.79,79.02,0.0,77.0,,,M,,,GNR,1057681,2023-09-07 22:00:00+00:00,1460.0,2.9,,
247431,2023-09-07 23:00:00+00:00,0.0,2023-09-07 22:56,74.0,71.0,,1008.8,0.0,0.0,29.81,90.36,0.0,74.0,,,M,,,GNR,1057685,2023-09-07 23:00:00+00:00,8860.0,6.4,,
247432,2023-09-08 00:00:00+00:00,0.0,2023-09-07 23:56,74.0,70.0,,1009.2,340.0,3.45,29.82,87.34,3.0,74.0,,,M,,,GNR,1057689,2023-09-08 00:00:00+00:00,8780.0,6.37,,
247433,2023-09-08 01:00:00+00:00,0.0,2023-09-08 00:56,68.0,65.0,,1010.5,30.0,4.6,29.86,90.13,4.0,68.0,,,M,,,GNR,1057693,2023-09-08 01:00:00+00:00,8810.0,6.38,,
247434,2023-09-08 02:00:00+00:00,0.0,2023-09-08 01:56,68.0,64.0,,1010.7,60.0,3.45,29.86,87.03,3.0,68.0,,,M,,,GNR,1057697,2023-09-08 02:00:00+00:00,4150.0,4.42,,
247435,2023-09-08 03:00:00+00:00,0.0,2023-09-08 02:56,68.0,63.0,,1010.6,0.0,0.0,29.86,84.03,0.0,68.0,,,M,,,GNR,1057701,2023-09-08 03:00:00+00:00,1620.0,3.02,,
247436,2023-09-08 04:00:00+00:00,0.0,2023-09-08 03:56,68.0,65.0,,1010.5,0.0,0.0,29.86,90.13,0.0,68.0,,,M,,,GNR,1057705,2023-09-08 04:00:00+00:00,908.0,2.44,,
247437,2023-09-08 05:00:00+00:00,0.0,2023-09-08 04:56,67.0,64.0,,1011.5,130.0,5.75,29.89,90.09,5.0,67.0,,,M,,,GNR,1057709,2023-09-08 05:00:00+00:00,660.0,2.19,,
247438,2023-09-08 06:00:00+00:00,0.0,2023-09-08 05:56,66.0,65.0,,1011.5,130.0,6.9,29.9,96.58,6.0,66.0,,,M,,,GNR,1057713,2023-09-08 06:00:00+00:00,599.0,2.12,,
247439,2023-09-08 07:00:00+00:00,0.0,2023-09-08 06:56,66.0,65.0,,1011.5,70.0,4.6,29.89,96.58,4.0,66.0,,,M,,,GNR,1057717,2023-09-08 07:00:00+00:00,591.0,2.11,,
247440,2023-09-08 08:00:00+00:00,0.0,2023-09-08 07:56,66.0,64.0,,1011.5,0.0,0.0,29.89,93.26,0.0,66.0,,,M,,,GNR,1057721,2023-09-08 08:00:00+00:00,582.0,2.1,,
247441,2023-09-08 09:00:00+00:00,0.0,2023-09-08 08:56,65.0,63.0,,1011.8,120.0,3.45,29.9,93.24,3.0,65.0,,,M,,,GNR,1057725,2023-09-08 09:00:00+00:00,582.0,2.1,,
247442,2023-09-08 10:00:00+00:00,0.0,2023-09-08 09:56,66.0,64.0,,1012.0,130.0,9.2,29.9,93.26,8.0,66.0,,,M,,,GNR,1057729,2023-09-08 10:00:00+00:00,574.0,2.09,,
247443,2023-09-08 11:00:00+00:00,0.0,2023-09-08 10:56,66.0,66.0,,1012.7,130.0,6.9,29.92,100.0,6.0,66.0,,,M,,,GNR,1057733,2023-09-08 11:00:00+00:00,574.0,2.09,,
247444,2023-09-08 12:00:00+00:00,0.0,2023-09-08 11:56,67.0,67.0,,1012.9,130.0,5.75,29.93,100.0,5.0,67.0,,,M,,,GNR,1057737,2023-09-08 12:00:00+00:00,574.0,2.09,,
247445,2023-09-08 13:00:00+00:00,3.56,2023-09-08 12:56,68.0,67.0,,1013.5,120.0,6.9,29.94,96.61,6.0,68.0,,,M,,,GNR,1057741,2023-09-08 13:00:00+00:00,574.0,2.09,,
247446,2023-09-08 14:00:00+00:00,0.25,2023-09-08 13:56,69.0,69.0,,1013.9,,3.45,29.95,100.0,3.0,69.0,,,M,,,GNR,1057745,2023-09-08 14:00:00+00:00,574.0,2.09,,
247447,2023-09-08 15:00:00+00:00,0.0,2023-09-08 14:56,71.0,69.0,,1014.3,,3.45,29.97,93.4,3.0,71.0,,,M,,,GNR,1057749,2023-09-08 15:00:00+00:00,574.0,2.09,,
247448,2023-09-08 16:00:00+00:00,0.0,2023-09-08 15:56,74.0,67.0,,1014.2,190.0,6.9,29.96,78.78,6.0,74.0,,,M,,,GNR,1057753,2023-09-08 16:00:00+00:00,574.0,2.09,,
247449,2023-09-08 17:00:00+00:00,0.0,2023-09-08 16:56,76.0,68.0,,1013.8,,3.45,29.95,76.27,3.0,76.0,,,M,,,GNR,1057757,2023-09-08 17:00:00+00:00,5230.0,4.92,,
247450,2023-09-08 18:00:00+00:00,0.0,2023-09-08 17:56,76.0,68.0,,1013.4,200.0,8.05,29.94,76.27,7.0,76.0,,,M,,,GNR,1057761,2023-09-08 18:00:00+00:00,5280.0,4.94,,
247451,2023-09-08 19:00:00+00:00,0.0,2023-09-08 18:56,80.0,68.0,,1013.3,190.0,8.05,29.94,66.84,7.0,82.58,,,M,,,GNR,1057765,2023-09-08 19:00:00+00:00,3950.0,4.33,,
247452,2023-09-08 20:00:00+00:00,0.0,2023-09-08 19:56,80.0,67.0,,1013.2,,4.6,29.94,64.57,4.0,82.32,,,M,,,GNR,1057769,2023-09-08 20:00:00+00:00,1680.0,3.06,,
247453,2023-09-08 21:00:00+00:00,0.0,2023-09-08 20:56,80.0,68.0,,1013.3,,5.75,29.94,66.84,5.0,82.58,,,M,,,GNR,1057773,2023-09-08 21:00:00+00:00,1470.0,2.91,,
247454,2023-09-08 22:00:00+00:00,0.0,2023-09-08 21:56,77.0,69.0,,1014.0,180.0,3.45,29.96,76.36,3.0,77.0,,,M,,,GNR,1057777,2023-09-08 22:00:00+00:00,8730.0,6.35,,
247455,2023-09-08 23:00:00+00:00,0.0,2023-09-08 22:56,75.0,68.0,,1013.9,,3.45,29.96,78.86,3.0,75.0,,,M,,,GNR,1057781,2023-09-08 23:00:00+00:00,8810.0,6.38,,
247456,2023-09-09 00:00:00+00:00,0.0,2023-09-08 23:56,73.0,67.0,,1014.5,,3.45,29.97,81.48,3.0,73.0,,,M,,,GNR,1057785,2023-09-09 00:00:00+00:00,8810.0,6.38,,
247457,2023-09-09 01:00:00+00:00,0.0,2023-09-09 00:56,72.0,68.0,,1014.4,0.0,0.0,29.97,87.24,0.0,72.0,,,M,,,GNR,1057789,2023-09-09 01:00:00+00:00,4260.0,4.47,,
247458,2023-09-09 02:00:00+00:00,0.0,2023-09-09 01:56,71.0,68.0,,1015.2,140.0,4.6,29.99,90.25,4.0,71.0,,,M,,,GNR,1057793,2023-09-09 02:00:00+00:00,1650.0,3.04,,
247459,2023-09-09 03:00:00+00:00,0.0,2023-09-09 02:56,70.0,68.0,,1015.5,0.0,0.0,30.0,93.37,0.0,70.0,,,M,,,GNR,1057797,2023-09-09 03:00:00+00:00,930.0,2.46,,
247460,2023-09-09 04:00:00+00:00,0.0,2023-09-09 03:56,70.0,68.0,,1015.9,110.0,3.45,30.01,93.37,3.0,70.0,,,M,,,GNR,1057801,2023-09-09 04:00:00+00:00,669.0,2.2,,
247461,2023-09-09 05:00:00+00:00,0.0,2023-09-09 04:56,69.0,67.0,,1015.5,0.0,0.0,30.01,93.35,0.0,69.0,,,M,,,GNR,1057805,2023-09-09 05:00:00+00:00,599.0,2.12,,
247462,2023-09-09 06:00:00+00:00,0.0,2023-09-09 05:56,69.0,65.0,,1015.4,340.0,3.45,30.0,87.08,3.0,69.0,,,M,,,GNR,1057809,2023-09-09 06:00:00+00:00,582.0,2.1,,
247463,2023-09-09 07:00:00+00:00,0.0,2023-09-09 06:56,67.0,66.0,,1015.5,0.0,0.0,30.0,96.59,0.0,67.0,,,M,,,GNR,1057813,2023-09-09 07:00:00+00:00,574.0,2.09,,
247464,2023-09-09 08:00:00+00:00,0.0,2023-09-09 07:56,66.0,65.0,,1015.5,0.0,0.0,30.01,96.58,0.0,66.0,,,M,,,GNR,1057817,2023-09-09 08:00:00+00:00,566.0,2.08,,
247465,2023-09-09 09:00:00+00:00,0.0,2023-09-09 08:56,66.0,65.0,,1016.1,0.0,0.0,30.02,96.58,0.0,66.0,,,M,,,GNR,1057821,2023-09-09 09:00:00+00:00,566.0,2.08,,
247466,2023-09-09 10:00:00+00:00,0.0,2023-09-09 09:56,67.0,64.0,,1016.6,190.0,3.45,30.04,90.09,3.0,67.0,,,M,,,GNR,1057825,2023-09-09 10:00:00+00:00,558.0,2.07,,
247467,2023-09-09 11:00:00+00:00,0.0,2023-09-09 10:56,66.0,65.0,,1017.3,0.0,0.0,30.06,96.58,0.0,66.0,,,M,,,GNR,1057829,2023-09-09 11:00:00+00:00,558.0,2.07,,
247468,2023-09-09 12:00:00+00:00,0.0,2023-09-09 11:56,69.0,65.0,,1017.5,310.0,3.45,30.06,87.08,3.0,69.0,,,M,,,GNR,1057833,2023-09-09 12:00:00+00:00,558.0,2.07,,
247469,2023-09-09 13:00:00+00:00,0.0,2023-09-09 12:56,69.0,63.0,,1017.9,340.0,9.2,30.07,81.19,8.0,69.0,,,M,,,GNR,1057837,2023-09-09 13:00:00+00:00,550.0,2.06,,
247470,2023-09-09 14:00:00+00:00,0.0,2023-09-09 13:56,70.0,63.0,,1018.5,,6.9,30.09,78.46,6.0,70.0,,,M,,,GNR,1057841,2023-09-09 14:00:00+00:00,550.0,2.06,,
247471,2023-09-09 15:00:00+00:00,0.0,2023-09-09 14:56,67.0,61.0,,1018.9,320.0,9.2,30.1,81.05,8.0,67.0,,,M,,,GNR,1057845,2023-09-09 15:00:00+00:00,550.0,2.06,,
247472,2023-09-09 16:00:00+00:00,0.0,2023-09-09 15:56,71.0,62.0,,1018.8,300.0,8.05,30.1,73.21,7.0,71.0,,,M,,,GNR,1057849,2023-09-09 16:00:00+00:00,1860.0,3.18,2023-09-09 16:00:00+00:00,gs://gcp-public-data-sentinel-2/tiles/19/T/DL/S2A_MSIL1C_20230909T153821_N0509_R011_T19TDL_20230909T210043.SAFE
247473,2023-09-09 17:00:00+00:00,0.0,2023-09-09 16:56,70.0,61.0,,1018.9,310.0,6.9,30.1,73.11,6.0,70.0,,,M,,,GNR,1057853,2023-09-09 17:00:00+00:00,8680.0,6.33,,
247474,2023-09-09 18:00:00+00:00,0.0,2023-09-09 17:56,70.0,59.0,,1019.1,320.0,8.05,30.11,68.09,7.0,70.0,,18.0,M,,,GNR,1057857,2023-09-09 18:00:00+00:00,8700.0,6.34,,
247475,2023-09-09 19:00:00+00:00,0.0,2023-09-09 18:56,69.0,57.0,,1019.5,310.0,13.8,30.11,65.57,12.0,69.0,,22.0,M,,,GNR,1057861,2023-09-09 19:00:00+00:00,5100.0,4.86,,
247476,2023-09-09 20:00:00+00:00,0.0,2023-09-09 19:56,66.0,55.0,,1019.9,320.0,14.95,30.12,67.64,13.0,66.0,,21.0,M,,,GNR,1057865,2023-09-09 20:00:00+00:00,3090.0,3.9,,
247477,2023-09-09 21:00:00+00:00,0.0,2023-09-09 20:56,66.0,53.0,,1019.8,310.0,13.8,30.12,62.87,12.0,66.0,,21.0,M,,,GNR,1057869,2023-09-09 21:00:00+00:00,2760.0,3.72,,
247478,2023-09-09 22:00:00+00:00,0.0,2023-09-09 21:56,64.0,54.0,,1020.3,320.0,6.9,30.13,69.92,6.0,64.0,,,M,,,GNR,1057873,2023-09-09 22:00:00+00:00,1450.0,2.89,,
247479,2023-09-09 23:00:00+00:00,0.0,2023-09-09 22:56,62.0,55.0,,1020.8,300.0,6.9,30.15,77.81,6.0,62.0,,,M,,,GNR,1057877,2023-09-09 23:00:00+00:00,1170.0,2.67,,
247480,2023-09-10 00:00:00+00:00,0.0,2023-09-09 23:56,60.0,56.0,,1021.0,,3.45,30.16,86.61,3.0,60.0,,,M,,,GNR,1057881,2023-09-10 00:00:00+00:00,8650.0,6.32,,
247481,2023-09-10 01:00:00+00:00,0.0,2023-09-10 00:56,59.0,56.0,,1021.5,0.0,0.0,30.17,89.76,0.0,59.0,,,M,,,GNR,1057885,2023-09-10 01:00:00+00:00,8700.0,6.34,,
247482,2023-09-10 02:00:00+00:00,0.0,2023-09-10 01:56,59.0,56.0,,1021.6,360.0,3.45,30.17,89.76,3.0,59.0,,,M,,,GNR,1057889,2023-09-10 02:00:00+00:00,8730.0,6.35,,
247483,2023-09-10 03:00:00+00:00,0.0,2023-09-10 02:56,59.0,55.0,,1022.1,320.0,3.45,30.18,86.56,3.0,59.0,,,M,,,GNR,1057893,2023-09-10 03:00:00+00:00,8730.0,6.35,,
247484,2023-09-10 04:00:00+00:00,0.0,2023-09-10 03:56,58.0,55.0,,1021.8,340.0,8.05,30.18,89.72,7.0,58.0,,,M,,,GNR,1057897,2023-09-10 04:00:00+00:00,4230.0,4.46,,
247485,2023-09-10 05:00:00+00:00,0.0,2023-09-10 04:56,57.0,55.0,,1021.9,360.0,4.6,30.18,93.01,4.0,57.0,,,M,,,GNR,1057901,2023-09-10 05:00:00+00:00,1630.0,3.03,,
247486,2023-09-10 06:00:00+00:00,0.0,2023-09-10 05:56,58.0,55.0,,1021.8,10.0,3.45,30.18,89.72,3.0,58.0,,,M,,,GNR,1057905,2023-09-10 06:00:00+00:00,908.0,2.44,,
247487,2023-09-10 07:00:00+00:00,0.0,2023-09-10 06:56,58.0,54.0,,1021.5,40.0,3.45,30.17,86.51,3.0,58.0,,,M,,,GNR,1057909,2023-09-10 07:00:00+00:00,642.0,2.17,,
247488,2023-09-10 08:00:00+00:00,0.0,2023-09-10 07:56,56.0,54.0,,1021.7,20.0,3.45,30.17,92.98,3.0,56.0,,,M,,,GNR,1057913,2023-09-10 08:00:00+00:00,566.0,2.08,,
247489,2023-09-10 09:00:00+00:00,0.0,2023-09-10 08:56,57.0,54.0,,1021.8,30.0,3.45,30.17,89.68,3.0,57.0,,,M,,,GNR,1057917,2023-09-10 09:00:00+00:00,558.0,2.07,,
247490,2023-09-10 10:00:00+00:00,0.0,2023-09-10 09:56,56.0,53.0,,1021.8,0.0,0.0,30.17,89.64,0.0,56.0,,,M,,,GNR,1057921,2023-09-10 10:00:00+00:00,550.0,2.06,,
247491,2023-09-10 11:00:00+00:00,0.0,2023-09-10 10:56,58.0,54.0,,1022.5,0.0,0.0,30.19,86.51,0.0,58.0,,,M,,,GNR,1057925,2023-09-10 11:00:00+00:00,542.0,2.05,,
247492,2023-09-10 12:00:00+00:00,0.0,2023-09-10 11:56,59.0,56.0,,1022.7,0.0,0.0,30.2,89.76,0.0,59.0,,,M,,,GNR,1057929,2023-09-10 12:00:00+00:00,542.0,2.05,,
247493,2023-09-10 13:00:00+00:00,0.0,2023-09-10 12:56,60.0,55.0,,1022.4,130.0,4.6,30.19,83.53,4.0,60.0,,,M,,,GNR,1057933,2023-09-10 13:00:00+00:00,542.0,2.05,,
247494,2023-09-10 14:00:00+00:00,0.0,2023-09-10 13:56,60.0,56.0,,1022.5,0.0,0.0,30.19,86.61,0.0,60.0,,,M,,,GNR,1057937,2023-09-10 14:00:00+00:00,542.0,2.05,,
247495,2023-09-10 15:00:00+00:00,0.51,2023-09-10 14:56,60.0,57.0,,1022.6,140.0,5.75,30.19,89.8,5.0,60.0,,,M,,,GNR,1057941,2023-09-10 15:00:00+00:00,542.0,2.05,,
247496,2023-09-10 16:00:00+00:00,0.0,2023-09-10 15:56,61.0,59.0,,1022.2,,4.6,30.18,93.12,4.0,61.0,,,M,,,GNR,1057945,2023-09-10 16:00:00+00:00,542.0,2.05,,
247497,2023-09-10 17:00:00+00:00,0.0,2023-09-10 16:56,62.0,58.0,,1021.8,140.0,5.75,30.17,86.72,5.0,62.0,,,M,,,GNR,1057949,2023-09-10 17:00:00+00:00,5300.0,4.95,,
247498,2023-09-10 18:00:00+00:00,0.0,2023-09-10 17:56,62.0,59.0,,1021.3,130.0,5.75,30.15,89.89,5.0,62.0,,,M,,,GNR,1057953,2023-09-10 18:00:00+00:00,5320.0,4.96,,
247499,2023-09-10 19:00:00+00:00,1.52,2023-09-10 18:56,61.0,60.0,,1021.0,120.0,5.75,30.15,96.51,5.0,61.0,,,M,,,GNR,1057957,2023-09-10 19:00:00+00:00,4280.0,4.48,,
247500,2023-09-10 20:00:00+00:00,0.0,2023-09-10 19:56,62.0,60.0,,1020.8,140.0,4.6,30.14,93.15,4.0,62.0,,,M,,,GNR,1057961,2023-09-10 20:00:00+00:00,3030.0,3.87,,
247501,2023-09-10 21:00:00+00:00,0.0,2023-09-10 20:56,62.0,60.0,,1020.6,,3.45,30.14,93.15,3.0,62.0,,,M,,,GNR,1057965,2023-09-10 21:00:00+00:00,7450.0,5.84,,
247502,2023-09-10 22:00:00+00:00,0.0,2023-09-10 21:56,62.0,60.0,,1020.8,140.0,3.45,30.14,93.15,3.0,62.0,,,M,,,GNR,1057969,2023-09-10 22:00:00+00:00,8780.0,6.37,,
247503,2023-09-10 23:00:00+00:00,0.25,2023-09-10 22:56,61.0,60.0,,1020.3,140.0,3.45,30.13,96.51,3.0,61.0,,,M,,,GNR,1057973,2023-09-10 23:00:00+00:00,8780.0,6.37,,
247504,2023-09-11 00:00:00+00:00,0.0,2023-09-10 23:56,61.0,60.0,,1020.4,130.0,4.6,30.13,96.51,4.0,61.0,,,M,,,GNR,1057977,2023-09-11 00:00:00+00:00,8830.0,6.39,,
247505,2023-09-11 01:00:00+00:00,0.51,2023-09-11 00:56,61.0,60.0,,1020.1,120.0,5.75,30.12,96.51,5.0,61.0,,,M,,,GNR,1057981,2023-09-11 01:00:00+00:00,8880.0,6.41,,
247506,2023-09-11 02:00:00+00:00,0.25,2023-09-11 01:56,61.0,60.0,,1020.0,150.0,3.45,30.12,96.51,3.0,61.0,,,M,,,GNR,1057985,2023-09-11 02:00:00+00:00,8860.0,6.4,,
247507,2023-09-11 03:00:00+00:00,0.0,2023-09-11 02:56,61.0,60.0,,1020.0,0.0,0.0,30.12,96.51,0.0,61.0,,,M,,,GNR,1057989,2023-09-11 03:00:00+00:00,8910.0,6.42,,
247508,2023-09-11 04:00:00+00:00,0.0,2023-09-11 03:56,61.0,60.0,,1019.8,130.0,5.75,30.11,96.51,5.0,61.0,,,M,,,GNR,1057993,2023-09-11 04:00:00+00:00,8880.0,6.41,,
247509,2023-09-11 05:00:00+00:00,0.0,2023-09-11 04:56,61.0,60.0,,1019.2,140.0,4.6,30.1,96.51,4.0,61.0,,,M,,,GNR,1057997,2023-09-11 05:00:00+00:00,4190.0,4.44,,
247510,2023-09-11 06:00:00+00:00,0.0,2023-09-11 05:56,61.0,60.0,,1018.8,0.0,0.0,30.09,96.51,0.0,61.0,,,M,,,GNR,1058001,2023-09-11 06:00:00+00:00,1630.0,3.03,,
247511,2023-09-11 07:00:00+00:00,0.0,2023-09-11 06:56,61.0,60.0,,1018.5,0.0,0.0,30.07,96.51,0.0,61.0,,,M,,,GNR,1058005,2023-09-11 07:00:00+00:00,930.0,2.46,,
247512,2023-09-11 08:00:00+00:00,0.0,2023-09-11 07:56,61.0,60.0,,1018.4,130.0,3.45,30.07,96.51,3.0,61.0,,,M,,,GNR,1058009,2023-09-11 08:00:00+00:00,669.0,2.2,,
247513,2023-09-11 09:00:00+00:00,0.25,2023-09-11 08:56,61.0,60.0,,1018.0,0.0,0.0,30.06,96.51,0.0,61.0,,,M,,,GNR,1058013,2023-09-11 09:00:00+00:00,616.0,2.14,,
247514,2023-09-11 10:00:00+00:00,0.51,2023-09-11 09:56,61.0,60.0,,1018.1,0.0,0.0,30.06,96.51,0.0,61.0,,,M,,,GNR,1058017,2023-09-11 10:00:00+00:00,608.0,2.13,,
247515,2023-09-11 11:00:00+00:00,1.52,2023-09-11 10:56,61.0,60.0,,1018.2,130.0,3.45,30.06,96.51,3.0,61.0,,,M,,,GNR,1058021,2023-09-11 11:00:00+00:00,599.0,2.12,,
247516,2023-09-11 12:00:00+00:00,0.25,2023-09-11 11:56,62.0,61.0,,1018.2,120.0,3.45,30.07,96.52,3.0,62.0,,,M,,,GNR,1058025,2023-09-11 12:00:00+00:00,599.0,2.12,,
247517,2023-09-11 13:00:00+00:00,0.25,2023-09-11 12:56,63.0,62.0,,1018.1,140.0,3.45,30.06,96.54,3.0,63.0,,,M,,,GNR,1058029,2023-09-11 13:00:00+00:00,599.0,2.12,,
247518,2023-09-11 14:00:00+00:00,0.0,2023-09-11 13:56,63.0,63.0,,1018.2,0.0,0.0,30.07,100.0,0.0,63.0,,,M,,,GNR,1058033,2023-09-11 14:00:00+00:00,599.0,2.12,,
247519,2023-09-11 15:00:00+00:00,0.0,2023-09-11 14:56,64.0,64.0,,1018.2,0.0,0.0,30.07,100.0,0.0,64.0,,,M,,,GNR,1058037,2023-09-11 15:00:00+00:00,599.0,2.12,,
247520,2023-09-11 16:00:00+00:00,0.0,2023-09-11 15:56,65.0,63.0,,1018.3,130.0,3.45,30.07,93.24,3.0,65.0,,,M,,,GNR,1058041,2023-09-11 16:00:00+00:00,599.0,2.12,2023-09-11 16:00:00+00:00,gs://gcp-public-data-sentinel-2/tiles/19/T/DL/S2B_MSIL1C_20230911T153559_N0509_R111_T19TDL_20230911T201849.SAFE
247521,2023-09-11 17:00:00+00:00,0.51,2023-09-11 16:56,65.0,64.0,,1018.1,0.0,0.0,30.06,96.57,0.0,65.0,,,M,,,GNR,1058045,2023-09-11 17:00:00+00:00,5280.0,4.94,,
247522,2023-09-11 18:00:00+00:00,0.51,2023-09-11 17:56,64.0,63.0,,1018.1,310.0,4.6,30.07,96.55,4.0,64.0,,,M,,,GNR,1058049,2023-09-11 18:00:00+00:00,5300.0,4.95,,
247523,2023-09-11 19:00:00+00:00,0.25,2023-09-11 18:56,64.0,62.0,,1018.1,310.0,8.05,30.06,93.21,7.0,64.0,,,M,,,GNR,1058053,2023-09-11 19:00:00+00:00,7890.0,6.02,,
247524,2023-09-11 20:00:00+00:00,0.0,2023-09-11 19:56,65.0,63.0,,1017.8,340.0,5.75,30.06,93.24,5.0,65.0,,,M,,,GNR,1058057,2023-09-11 20:00:00+00:00,8630.0,6.31,,
247525,2023-09-11 21:00:00+00:00,0.0,2023-09-11 20:56,65.0,62.0,,1017.9,350.0,5.75,30.06,90.01,5.0,65.0,,,M,,,GNR,1058061,2023-09-11 21:00:00+00:00,8700.0,6.34,,
247526,2023-09-11 22:00:00+00:00,0.0,2023-09-11 21:56,64.0,62.0,,1018.2,350.0,4.6,30.07,93.21,4.0,64.0,,,M,,,GNR,1058065,2023-09-11 22:00:00+00:00,8700.0,6.34,,
247527,2023-09-11 23:00:00+00:00,0.0,2023-09-11 22:56,63.0,61.0,,1018.4,10.0,8.05,30.07,93.18,7.0,63.0,,,M,,,GNR,1058069,2023-09-11 23:00:00+00:00,8700.0,6.34,,
247528,2023-09-12 00:00:00+00:00,0.0,2023-09-11 23:56,62.0,59.0,,1018.9,10.0,6.9,30.09,89.89,6.0,62.0,,,M,,,GNR,1058073,2023-09-12 00:00:00+00:00,8750.0,6.36,,
247529,2023-09-12 01:00:00+00:00,0.0,2023-09-12 00:56,62.0,60.0,,1018.8,0.0,0.0,30.09,93.15,0.0,62.0,,,M,,,GNR,1058077,2023-09-12 01:00:00+00:00,8750.0,6.36,,
247530,2023-09-12 02:00:00+00:00,0.0,2023-09-12 01:56,62.0,60.0,,1018.8,0.0,0.0,30.09,93.15,0.0,62.0,,,M,,,GNR,1058081,2023-09-12 02:00:00+00:00,8750.0,6.36,,
247531,2023-09-12 03:00:00+00:00,0.0,2023-09-12 02:56,61.0,60.0,,1018.7,130.0,3.45,30.08,96.51,3.0,61.0,,,M,,,GNR,1058085,2023-09-12 03:00:00+00:00,8780.0,6.37,,
247532,2023-09-12 04:00:00+00:00,0.0,2023-09-12 03:56,61.0,60.0,,1018.5,0.0,0.0,30.08,96.51,0.0,61.0,,,M,,,GNR,1058089,2023-09-12 04:00:00+00:00,8810.0,6.38,,
247533,2023-09-12 05:00:00+00:00,0.0,2023-09-12 04:56,61.0,59.0,,1018.1,40.0,3.45,30.06,93.12,3.0,61.0,,,M,,,GNR,1058093,2023-09-12 05:00:00+00:00,8810.0,6.38,,
247534,2023-09-12 06:00:00+00:00,0.0,2023-09-12 05:56,61.0,60.0,,1017.8,30.0,4.6,30.06,96.51,4.0,61.0,,,M,,,GNR,1058097,2023-09-12 06:00:00+00:00,4190.0,4.44,,
247535,2023-09-12 07:00:00+00:00,0.0,2023-09-12 06:56,62.0,59.0,,1017.4,0.0,0.0,30.04,89.89,0.0,62.0,,,M,,,GNR,1058101,2023-09-12 07:00:00+00:00,1650.0,3.04,,
247536,2023-09-12 08:00:00+00:00,0.0,2023-09-12 07:56,62.0,60.0,,1017.2,0.0,0.0,30.04,93.15,0.0,62.0,,,M,,,GNR,1058105,2023-09-12 08:00:00+00:00,942.0,2.47,,
247537,2023-09-12 09:00:00+00:00,0.0,2023-09-12 08:56,62.0,60.0,,1017.0,0.0,0.0,30.04,93.15,0.0,62.0,,,M,,,GNR,1058109,2023-09-12 09:00:00+00:00,687.0,2.22,,
247538,2023-09-12 10:00:00+00:00,0.0,2023-09-12 09:56,61.0,60.0,,1017.3,0.0,0.0,30.04,96.51,0.0,61.0,,,M,,,GNR,1058113,2023-09-12 10:00:00+00:00,625.0,2.15,,
247539,2023-09-12 11:00:00+00:00,0.0,2023-09-12 10:56,62.0,60.0,,1017.6,110.0,5.75,30.05,93.15,5.0,62.0,,,M,,,GNR,1058117,2023-09-12 11:00:00+00:00,616.0,2.14,,
247540,2023-09-12 12:00:00+00:00,0.0,2023-09-12 11:56,63.0,60.0,,1017.7,110.0,5.75,30.05,89.93,5.0,63.0,,,M,,,GNR,1058121,2023-09-12 12:00:00+00:00,608.0,2.13,,
247541,2023-09-12 13:00:00+00:00,0.0,2023-09-12 12:56,63.0,61.0,,1017.6,80.0,5.75,30.05,93.18,5.0,63.0,,,M,,,GNR,1058125,2023-09-12 13:00:00+00:00,608.0,2.13,,
247542,2023-09-12 14:00:00+00:00,0.25,2023-09-12 13:56,63.0,61.0,,1017.7,110.0,9.2,30.05,93.18,8.0,63.0,,,M,,,GNR,1058129,2023-09-12 14:00:00+00:00,599.0,2.12,,
247543,2023-09-12 15:00:00+00:00,0.76,2023-09-12 14:56,63.0,61.0,,1017.7,90.0,10.35,30.05,93.18,9.0,63.0,,,M,,,GNR,1058133,2023-09-12 15:00:00+00:00,599.0,2.12,,
247544,2023-09-12 16:00:00+00:00,0.51,2023-09-12 15:56,64.0,61.0,,1017.4,110.0,10.35,30.04,89.97,9.0,64.0,,,M,,,GNR,1058137,2023-09-12 16:00:00+00:00,599.0,2.12,,
247545,2023-09-12 17:00:00+00:00,0.0,2023-09-12 16:56,64.0,62.0,,1017.0,110.0,9.2,30.03,93.21,8.0,64.0,,,M,,,GNR,1058141,2023-09-12 17:00:00+00:00,5320.0,4.96,,
247546,2023-09-12 18:00:00+00:00,0.0,2023-09-12 17:56,64.0,63.0,,1016.6,130.0,9.2,30.02,96.55,8.0,64.0,,,M,,,GNR,1058145,2023-09-12 18:00:00+00:00,5350.0,4.97,,
247547,2023-09-12 19:00:00+00:00,0.0,2023-09-12 18:56,64.0,63.0,,1016.4,,5.75,30.02,96.55,5.0,64.0,,,M,,,GNR,1058149,2023-09-12 19:00:00+00:00,8040.0,6.08,,
247548,2023-09-12 20:00:00+00:00,0.0,2023-09-12 19:56,65.0,63.0,,1015.9,120.0,6.9,30.0,93.24,6.0,65.0,,,M,,,GNR,1058153,2023-09-12 20:00:00+00:00,8700.0,6.34,,
247549,2023-09-12 21:00:00+00:00,0.0,2023-09-12 20:56,65.0,63.0,,1015.9,130.0,5.75,30.0,93.24,5.0,65.0,,,M,,,GNR,1058157,2023-09-12 21:00:00+00:00,8700.0,6.34,,
247550,2023-09-12 22:00:00+00:00,0.0,2023-09-12 21:56,64.0,63.0,,1016.3,140.0,6.9,30.01,96.55,6.0,64.0,,,M,,,GNR,1058161,2023-09-12 22:00:00+00:00,8730.0,6.35,,
247551,2023-09-12 23:00:00+00:00,0.0,2023-09-12 22:56,63.0,62.0,,1016.0,120.0,5.75,30.0,96.54,5.0,63.0,,,M,,,GNR,1058165,2023-09-12 23:00:00+00:00,8860.0,6.4,,
247552,2023-09-13 00:00:00+00:00,0.0,2023-09-12 23:56,63.0,62.0,,1016.3,120.0,6.9,30.01,96.54,6.0,63.0,,,M,,,GNR,1058169,2023-09-13 00:00:00+00:00,8830.0,6.39,,
247553,2023-09-13 01:00:00+00:00,0.25,2023-09-13 00:56,63.0,62.0,,1016.3,120.0,8.05,30.01,96.54,7.0,63.0,,,M,,,GNR,1058173,2023-09-13 01:00:00+00:00,8810.0,6.38,,
247554,2023-09-13 02:00:00+00:00,0.25,2023-09-13 01:56,63.0,63.0,,1016.3,110.0,5.75,30.01,100.0,5.0,63.0,,,M,,,GNR,1058177,2023-09-13 02:00:00+00:00,8810.0,6.38,,
247555,2023-09-13 03:00:00+00:00,0.0,2023-09-13 02:56,64.0,63.0,,1015.9,100.0,6.9,30.0,96.55,6.0,64.0,,,M,,,GNR,1058181,2023-09-13 03:00:00+00:00,8830.0,6.39,,
247556,2023-09-13 04:00:00+00:00,1.02,2023-09-13 03:56,64.0,63.0,,1015.8,110.0,5.75,30.0,96.55,5.0,64.0,,,M,,,GNR,1058185,2023-09-13 04:00:00+00:00,8880.0,6.41,,
247557,2023-09-13 05:00:00+00:00,5.08,2023-09-13 04:56,63.0,63.0,,1015.7,100.0,5.75,30.0,100.0,5.0,63.0,,,M,,,GNR,1058189,2023-09-13 05:00:00+00:00,4570.0,4.62,,
247558,2023-09-13 06:00:00+00:00,3.81,2023-09-13 05:56,64.0,63.0,,1015.5,120.0,3.45,29.99,96.55,3.0,64.0,,,M,,,GNR,1058193,2023-09-13 06:00:00+00:00,1770.0,3.12,,
247559,2023-09-13 07:00:00+00:00,3.56,2023-09-13 06:56,63.0,63.0,,1015.4,100.0,5.75,29.99,100.0,5.0,63.0,,,M,,,GNR,1058197,2023-09-13 07:00:00+00:00,999.0,2.52,,
247560,2023-09-13 08:00:00+00:00,0.76,2023-09-13 07:56,63.0,62.0,,1014.8,90.0,6.9,29.97,96.54,6.0,63.0,,,M,,,GNR,1058201,2023-09-13 08:00:00+00:00,724.0,2.26,,
247561,2023-09-13 09:00:00+00:00,0.0,2023-09-13 08:56,63.0,62.0,,1014.8,110.0,6.9,29.97,96.54,6.0,63.0,,,M,,,GNR,1058205,2023-09-13 09:00:00+00:00,669.0,2.2,,
247562,2023-09-13 10:00:00+00:00,0.0,2023-09-13 09:56,63.0,62.0,,1014.8,90.0,4.6,29.97,96.54,4.0,63.0,,,M,,,GNR,1058209,2023-09-13 10:00:00+00:00,651.0,2.18,,
247563,2023-09-13 11:00:00+00:00,0.25,2023-09-13 10:56,63.0,63.0,,1015.1,110.0,5.75,29.98,100.0,5.0,63.0,,,M,,,GNR,1058213,2023-09-13 11:00:00+00:00,651.0,2.18,,
247564,2023-09-13 12:00:00+00:00,0.25,2023-09-13 11:56,64.0,63.0,,1015.4,140.0,5.75,29.99,96.55,5.0,64.0,,,M,,,GNR,1058217,2023-09-13 12:00:00+00:00,651.0,2.18,,
247565,2023-09-13 13:00:00+00:00,0.0,2023-09-13 12:56,65.0,64.0,,1015.0,130.0,6.9,29.98,96.57,6.0,65.0,,,M,,,GNR,1058221,2023-09-13 13:00:00+00:00,651.0,2.18,,
247566,2023-09-13 14:00:00+00:00,0.0,2023-09-13 13:56,65.0,65.0,,1015.0,150.0,5.75,29.98,100.0,5.0,65.0,,,M,,,GNR,1058225,2023-09-13 14:00:00+00:00,651.0,2.18,,
247567,2023-09-13 15:00:00+00:00,0.25,2023-09-13 14:56,66.0,66.0,,1014.6,150.0,6.9,29.97,100.0,6.0,66.0,,,M,,,GNR,1058229,2023-09-13 15:00:00+00:00,651.0,2.18,,
247568,2023-09-13 16:00:00+00:00,0.0,2023-09-13 15:56,66.0,65.0,,1014.4,140.0,8.05,29.96,96.58,7.0,66.0,,,M,,,GNR,1058233,2023-09-13 16:00:00+00:00,651.0,2.18,,
247569,2023-09-13 17:00:00+00:00,0.0,2023-09-13 16:56,67.0,65.0,,1014.2,,4.6,29.96,93.29,4.0,67.0,,,M,,,GNR,1058237,2023-09-13 17:00:00+00:00,5460.0,5.02,,
247570,2023-09-13 18:00:00+00:00,0.0,2023-09-13 17:56,69.0,65.0,,1013.5,180.0,5.75,29.94,87.08,5.0,69.0,,,M,,,GNR,1058241,2023-09-13 18:00:00+00:00,5510.0,5.04,,
247571,2023-09-13 19:00:00+00:00,0.0,2023-09-13 18:56,69.0,65.0,,1012.9,,3.45,29.92,87.08,3.0,69.0,,,M,,,GNR,1058245,2023-09-13 19:00:00+00:00,8220.0,6.15,,
247572,2023-09-13 20:00:00+00:00,0.0,2023-09-13 19:56,67.0,66.0,,1012.7,140.0,9.2,29.91,96.59,8.0,67.0,,,M,,,GNR,1058249,2023-09-13 20:00:00+00:00,8860.0,6.4,,
247573,2023-09-13 21:00:00+00:00,0.0,2023-09-13 20:56,66.0,65.0,,1012.6,140.0,5.75,29.91,96.58,5.0,66.0,,,M,,,GNR,1058253,2023-09-13 21:00:00+00:00,8860.0,6.4,,
247574,2023-09-13 22:00:00+00:00,0.0,2023-09-13 21:56,66.0,65.0,,1012.8,,4.6,29.92,96.58,4.0,66.0,,,M,,,GNR,1058257,2023-09-13 22:00:00+00:00,8880.0,6.41,,
247575,2023-09-13 23:00:00+00:00,0.25,2023-09-13 22:56,65.0,64.0,,1013.0,130.0,5.75,29.92,96.57,5.0,65.0,,,M,,,GNR,1058261,2023-09-13 23:00:00+00:00,8910.0,6.42,,
247576,2023-09-14 00:00:00+00:00,1.78,2023-09-13 23:56,65.0,64.0,,1012.9,130.0,4.6,29.92,96.57,4.0,65.0,,,M,,,GNR,1058265,2023-09-14 00:00:00+00:00,8960.0,6.44,,
247577,2023-09-14 01:00:00+00:00,4.32,2023-09-14 00:56,63.0,61.0,,1013.3,,3.45,29.93,93.18,3.0,63.0,,,M,,,GNR,1058269,2023-09-14 01:00:00+00:00,8990.0,6.45,,
247578,2023-09-14 02:00:00+00:00,6.35,2023-09-14 01:56,62.0,61.0,,1012.7,70.0,3.45,29.91,96.52,3.0,62.0,,,M,,,GNR,1058273,2023-09-14 02:00:00+00:00,4320.0,4.5,,
247579,2023-09-14 03:00:00+00:00,3.56,2023-09-14 02:56,63.0,61.0,,1012.1,10.0,3.45,29.9,93.18,3.0,63.0,,,M,,,GNR,1058277,2023-09-14 03:00:00+00:00,1740.0,3.1,,
247580,2023-09-14 04:00:00+00:00,0.0,2023-09-14 03:56,62.0,61.0,,1012.6,,3.45,29.91,96.52,3.0,62.0,,,M,,,GNR,1058281,2023-09-14 04:00:00+00:00,1010.0,2.53,,
247581,2023-09-14 05:00:00+00:00,0.0,2023-09-14 04:56,62.0,61.0,,1012.7,330.0,4.6,29.91,96.52,4.0,62.0,,,M,,,GNR,1058285,2023-09-14 05:00:00+00:00,763.0,2.3,,
247582,2023-09-14 06:00:00+00:00,0.0,2023-09-14 05:56,62.0,61.0,,1012.8,330.0,5.75,29.91,96.52,5.0,62.0,,,M,,,GNR,1058289,2023-09-14 06:00:00+00:00,715.0,2.25,,
247583,2023-09-14 07:00:00+00:00,0.0,2023-09-14 06:56,61.0,59.0,,1013.1,310.0,5.75,29.92,93.12,5.0,61.0,,,M,,,GNR,1058293,2023-09-14 07:00:00+00:00,706.0,2.24,,
247584,2023-09-14 08:00:00+00:00,0.0,2023-09-14 07:56,60.0,58.0,,1013.6,310.0,6.9,29.94,93.1,6.0,60.0,,,M,,,GNR,1058297,2023-09-14 08:00:00+00:00,706.0,2.24,,
247585,2023-09-14 09:00:00+00:00,0.0,2023-09-14 08:56,58.0,56.0,,1013.7,320.0,5.75,29.94,93.04,5.0,58.0,,,M,,,GNR,1058301,2023-09-14 09:00:00+00:00,706.0,2.24,,
247586,2023-09-14 10:00:00+00:00,0.0,2023-09-14 09:56,57.0,55.0,,1014.2,330.0,3.45,29.95,93.01,3.0,57.0,,,M,,,GNR,1058305,2023-09-14 10:00:00+00:00,706.0,2.24,,
247587,2023-09-14 11:00:00+00:00,0.0,2023-09-14 10:56,57.0,55.0,,1014.8,340.0,5.75,29.97,93.01,5.0,57.0,,,M,,,GNR,1058309,2023-09-14 11:00:00+00:00,706.0,2.24,,
247588,2023-09-14 12:00:00+00:00,0.0,2023-09-14 11:56,59.0,56.0,,1015.1,,4.6,29.98,89.76,4.0,59.0,,,M,,,GNR,1058313,2023-09-14 12:00:00+00:00,706.0,2.24,,
247589,2023-09-14 13:00:00+00:00,0.0,2023-09-14 12:56,59.0,55.0,,1015.6,330.0,5.75,29.99,86.56,5.0,59.0,,,M,,,GNR,1058317,2023-09-14 13:00:00+00:00,696.0,2.23,,
247590,2023-09-14 14:00:00+00:00,0.0,2023-09-14 13:56,61.0,55.0,,1015.8,310.0,8.05,30.0,80.61,7.0,61.0,,,M,,,GNR,1058321,2023-09-14 14:00:00+00:00,696.0,2.23,,
247591,2023-09-14 15:00:00+00:00,0.0,2023-09-14 14:56,61.0,54.0,,1015.7,330.0,9.2,29.99,77.72,8.0,61.0,,,M,,,GNR,1058325,2023-09-14 15:00:00+00:00,706.0,2.24,,
247592,2023-09-14 16:00:00+00:00,0.0,2023-09-14 15:56,62.0,54.0,,1015.4,340.0,10.35,29.99,75.02,9.0,62.0,,,M,,,GNR,1058329,2023-09-14 16:00:00+00:00,706.0,2.24,2023-09-14 16:00:00+00:00,gs://gcp-public-data-sentinel-2/tiles/19/T/DL/S2B_MSIL1C_20230914T153909_N0509_R011_T19TDL_20230914T221215.SAFE
247593,2023-09-14 17:00:00+00:00,0.0,2023-09-14 16:56,63.0,54.0,,1015.3,330.0,9.2,29.98,72.42,8.0,63.0,,17.0,M,,,GNR,1058333,2023-09-14 17:00:00+00:00,5390.0,4.99,,
247594,2023-09-14 18:00:00+00:00,0.0,2023-09-14 17:56,66.0,53.0,,1014.7,350.0,12.65,29.97,62.87,11.0,66.0,,16.0,M,,,GNR,1058337,2023-09-14 18:00:00+00:00,5420.0,5.0,,
247595,2023-09-14 19:00:00+00:00,0.0,2023-09-14 18:56,66.0,52.0,,1014.6,310.0,8.05,29.97,60.6,7.0,66.0,,,M,,,GNR,1058341,2023-09-14 19:00:00+00:00,4100.0,4.4,,
247596,2023-09-14 20:00:00+00:00,0.0,2023-09-14 19:56,67.0,51.0,,1014.9,320.0,12.65,29.97,56.41,11.0,67.0,,17.0,M,,,GNR,1058345,2023-09-14 20:00:00+00:00,1780.0,3.13,,
247597,2023-09-14 21:00:00+00:00,0.0,2023-09-14 20:56,63.0,50.0,,1015.5,310.0,11.5,29.99,62.49,10.0,63.0,,22.0,M,,,GNR,1058349,2023-09-14 21:00:00+00:00,1040.0,2.56,,
247598,2023-09-14 22:00:00+00:00,0.0,2023-09-14 21:56,60.0,49.0,,1016.0,310.0,6.9,30.0,66.95,6.0,60.0,,16.0,M,,,GNR,1058353,2023-09-14 22:00:00+00:00,793.0,2.33,,
247599,2023-09-14 23:00:00+00:00,0.0,2023-09-14 22:56,56.0,49.0,,1016.8,320.0,5.75,30.02,77.29,5.0,56.0,,,M,,,GNR,1058357,2023-09-14 23:00:00+00:00,8750.0,6.36,,
247600,2023-09-15 00:00:00+00:00,0.0,2023-09-14 23:56,56.0,47.0,,1017.4,310.0,4.6,30.04,71.7,4.0,56.0,,,M,,,GNR,1058361,2023-09-15 00:00:00+00:00,8780.0,6.37,,
247601,2023-09-15 01:00:00+00:00,0.0,2023-09-15 00:56,53.0,48.0,,1018.0,310.0,6.9,30.05,83.06,6.0,53.0,,,M,,,GNR,1058365,2023-09-15 01:00:00+00:00,8810.0,6.38,,
247602,2023-09-15 02:00:00+00:00,0.0,2023-09-15 01:56,54.0,49.0,,1018.0,310.0,10.35,30.06,83.13,9.0,54.0,,16.0,M,,,GNR,1058369,2023-09-15 02:00:00+00:00,8810.0,6.38,,
247603,2023-09-15 03:00:00+00:00,0.0,2023-09-15 02:56,53.0,48.0,,1018.7,310.0,8.05,30.07,83.06,7.0,53.0,,20.0,M,,,GNR,1058373,2023-09-15 03:00:00+00:00,8860.0,6.4,,
247604,2023-09-15 04:00:00+00:00,0.0,2023-09-15 03:56,53.0,48.0,,1018.4,310.0,6.9,30.07,83.06,6.0,53.0,,,M,,,GNR,1058377,2023-09-15 04:00:00+00:00,4450.0,4.56,,
247605,2023-09-15 05:00:00+00:00,0.0,2023-09-15 04:56,53.0,48.0,,1018.6,,,30.07,83.06,,53.0,,,M,,,GNR,1058381,2023-09-15 05:00:00+00:00,1770.0,3.12,,
247606,2023-09-15 06:00:00+00:00,0.0,2023-09-15 05:56,52.0,49.0,,1018.4,310.0,9.2,30.07,89.46,8.0,52.0,,,M,,,GNR,1058385,2023-09-15 06:00:00+00:00,1040.0,2.56,,
247607,2023-09-15 07:00:00+00:00,0.0,2023-09-15 06:56,52.0,49.0,,1018.3,310.0,6.9,30.06,89.46,6.0,52.0,,,M,,,GNR,1058389,2023-09-15 07:00:00+00:00,783.0,2.32,,
247608,2023-09-15 08:00:00+00:00,0.0,2023-09-15 07:56,52.0,49.0,,1018.5,,5.75,30.07,89.46,5.0,52.0,,17.0,M,,,GNR,1058393,2023-09-15 08:00:00+00:00,734.0,2.27,,
247609,2023-09-15 09:00:00+00:00,0.0,2023-09-15 08:56,52.0,48.0,,1019.1,320.0,6.9,30.09,86.17,6.0,52.0,,,M,,,GNR,1058397,2023-09-15 09:00:00+00:00,724.0,2.26,,
247610,2023-09-15 10:00:00+00:00,0.0,2023-09-15 09:56,53.0,49.0,,1019.5,320.0,10.35,30.1,86.23,9.0,53.0,,,M,,,GNR,1058401,2023-09-15 10:00:00+00:00,715.0,2.25,,
247611,2023-09-15 11:00:00+00:00,0.0,2023-09-15 10:56,52.0,47.0,,1020.0,320.0,6.9,30.11,82.99,6.0,52.0,,17.0,M,,,GNR,1058405,2023-09-15 11:00:00+00:00,715.0,2.25,,
247612,2023-09-15 12:00:00+00:00,0.0,2023-09-15 11:56,52.0,47.0,,1020.5,,,30.12,82.99,,52.0,,,M,,,GNR,1058409,2023-09-15 12:00:00+00:00,706.0,2.24,,
247613,2023-09-15 13:00:00+00:00,0.0,2023-09-15 12:56,55.0,48.0,,1021.3,320.0,11.5,30.14,77.21,10.0,55.0,,16.0,M,,,GNR,1058413,2023-09-15 13:00:00+00:00,706.0,2.24,,
247614,2023-09-15 14:00:00+00:00,0.0,2023-09-15 13:56,56.0,48.0,,1021.0,340.0,9.2,30.14,74.45,8.0,56.0,,,M,,,GNR,1058417,2023-09-15 14:00:00+00:00,706.0,2.24,,
247615,2023-09-15 15:00:00+00:00,0.0,2023-09-15 14:56,57.0,47.0,,1020.6,340.0,11.5,30.13,69.16,10.0,57.0,,18.0,M,,,GNR,1058421,2023-09-15 15:00:00+00:00,706.0,2.24,,
247616,2023-09-15 16:00:00+00:00,0.0,2023-09-15 15:56,59.0,47.0,,1020.0,360.0,11.5,30.11,64.36,10.0,59.0,,20.0,M,,,GNR,1058425,2023-09-15 16:00:00+00:00,706.0,2.24,,
247617,2023-09-15 17:00:00+00:00,0.0,2023-09-15 16:56,61.0,48.0,,1019.7,10.0,9.2,30.1,62.23,8.0,61.0,,,M,,,GNR,1058429,2023-09-15 17:00:00+00:00,5440.0,5.01,,
247618,2023-09-15 18:00:00+00:00,0.0,2023-09-15 17:56,62.0,48.0,,1019.7,360.0,11.5,30.1,60.07,10.0,62.0,,15.0,M,,,GNR,1058433,2023-09-15 18:00:00+00:00,5480.0,5.03,,
247619,2023-09-15 19:00:00+00:00,0.0,2023-09-15 18:56,62.0,49.0,,1019.3,30.0,10.35,30.09,62.36,9.0,62.0,,17.0,M,,,GNR,1058437,2023-09-15 19:00:00+00:00,4190.0,4.44,,
247620,2023-09-15 20:00:00+00:00,0.0,2023-09-15 19:56,62.0,50.0,,1019.2,20.0,8.05,30.09,64.73,7.0,62.0,,,M,,,GNR,1058441,2023-09-15 20:00:00+00:00,1900.0,3.21,,
247621,2023-09-15 21:00:00+00:00,0.0,2023-09-15 20:56,61.0,50.0,,1018.8,10.0,9.2,30.08,67.06,8.0,61.0,,,M,,,GNR,1058445,2023-09-15 21:00:00+00:00,1190.0,2.69,,
247622,2023-09-15 22:00:00+00:00,0.0,2023-09-15 21:56,59.0,50.0,,1018.5,360.0,4.6,30.06,72.01,4.0,59.0,,,M,,,GNR,1058449,2023-09-15 22:00:00+00:00,964.0,2.49,,
247623,2023-09-15 23:00:00+00:00,0.0,2023-09-15 22:56,58.0,50.0,,1018.5,10.0,8.05,30.07,74.64,7.0,58.0,,,M,,,GNR,1058453,2023-09-15 23:00:00+00:00,4210.0,4.45,,
247624,2023-09-16 00:00:00+00:00,0.0,2023-09-15 23:56,59.0,49.0,,1017.7,20.0,14.95,30.04,69.38,13.0,59.0,,20.0,M,,,GNR,1058457,2023-09-16 00:00:00+00:00,9090.0,6.49,,
247625,2023-09-16 01:00:00+00:00,0.0,2023-09-16 00:56,58.0,49.0,,1017.2,10.0,13.8,30.03,71.91,12.0,58.0,,23.0,M,,,GNR,1058461,2023-09-16 01:00:00+00:00,9110.0,6.5,,
247626,2023-09-16 02:00:00+00:00,0.0,2023-09-16 01:56,58.0,49.0,,1017.0,360.0,13.8,30.02,71.91,12.0,58.0,,,M,,,GNR,1058465,2023-09-16 02:00:00+00:00,9140.0,6.51,,
247627,2023-09-16 03:00:00+00:00,0.0,2023-09-16 02:56,57.0,49.0,,1016.7,350.0,13.8,30.01,74.55,12.0,57.0,,19.0,M,26.0,,GNR,1058469,2023-09-16 03:00:00+00:00,9160.0,6.52,,
247628,2023-09-16 04:00:00+00:00,0.0,2023-09-16 03:56,56.0,50.0,,1016.1,350.0,3.45,30.0,80.23,3.0,56.0,,,M,,,GNR,1058473,2023-09-16 04:00:00+00:00,9190.0,6.53,,
247629,2023-09-16 05:00:00+00:00,0.0,2023-09-16 04:56,56.0,50.0,,1014.6,,4.6,29.96,80.23,4.0,56.0,,,M,,,GNR,1058477,2023-09-16 05:00:00+00:00,4810.0,4.73,,
247630,2023-09-16 06:00:00+00:00,0.0,2023-09-16 05:56,56.0,50.0,,1013.9,20.0,8.05,29.94,80.23,7.0,56.0,,,M,,,GNR,1058481,2023-09-16 06:00:00+00:00,2010.0,3.28,,
247631,2023-09-16 07:00:00+00:00,0.0,2023-09-16 06:56,56.0,51.0,,1012.9,360.0,11.5,29.91,83.26,10.0,56.0,,15.0,M,,,GNR,1058485,2023-09-16 07:00:00+00:00,1280.0,2.76,,
247632,2023-09-16 08:00:00+00:00,0.0,2023-09-16 07:56,55.0,51.0,,1011.3,350.0,14.95,29.86,86.34,13.0,55.0,,,M,,,GNR,1058489,2023-09-16 08:00:00+00:00,1030.0,2.55,,
247633,2023-09-16 09:00:00+00:00,0.0,2023-09-16 08:56,55.0,51.0,,1010.2,340.0,11.5,29.83,86.34,10.0,55.0,,19.0,M,,,GNR,1058493,2023-09-16 09:00:00+00:00,987.0,2.51,,
247634,2023-09-16 10:00:00+00:00,0.0,2023-09-16 09:56,55.0,51.0,,1008.7,350.0,14.95,29.78,86.34,13.0,55.0,,28.0,M,28.0,,GNR,1058497,2023-09-16 10:00:00+00:00,976.0,2.5,,
247635,2023-09-16 11:00:00+00:00,0.0,2023-09-16 10:56,55.0,50.0,,1008.4,340.0,11.5,29.77,83.2,10.0,55.0,,22.0,M,30.0,,GNR,1058501,2023-09-16 11:00:00+00:00,964.0,2.49,,
247636,2023-09-16 12:00:00+00:00,0.0,2023-09-16 11:56,56.0,50.0,,1006.9,360.0,12.65,29.73,80.23,11.0,56.0,,27.0,M,27.0,,GNR,1058505,2023-09-16 12:00:00+00:00,953.0,2.48,,
247637,2023-09-16 13:00:00+00:00,0.0,2023-09-16 12:56,57.0,50.0,,1006.0,360.0,14.95,29.71,77.38,13.0,57.0,,29.0,M,30.0,,GNR,1058509,2023-09-16 13:00:00+00:00,919.0,2.45,,
247638,2023-09-16 14:00:00+00:00,0.0,2023-09-16 13:56,56.0,50.0,,1004.8,360.0,18.4,29.67,80.23,16.0,56.0,,33.0,M,35.0,,GNR,1058513,2023-09-16 14:00:00+00:00,897.0,2.43,,
247639,2023-09-16 15:00:00+00:00,0.0,2023-09-16 14:56,58.0,51.0,,1003.6,350.0,26.45,29.64,77.47,23.0,58.0,,36.0,M,42.0,,GNR,1058517,2023-09-16 15:00:00+00:00,897.0,2.43,,
247640,2023-09-16 16:00:00+00:00,0.0,2023-09-16 15:56,59.0,50.0,,1002.2,350.0,23.0,29.59,72.01,20.0,59.0,,37.0,M,40.0,,GNR,1058521,2023-09-16 16:00:00+00:00,887.0,2.42,2023-09-16 16:00:00+00:00,gs://gcp-public-data-sentinel-2/tiles/19/T/DL/S2A_MSIL1C_20230916T153601_N0509_R111_T19TDL_20230916T203940.SAFE
247641,2023-09-16 17:00:00+00:00,0.0,2023-09-16 16:56,57.0,51.0,,1001.1,340.0,26.45,29.56,80.31,23.0,57.0,,38.0,M,38.0,,GNR,1058525,2023-09-16 17:00:00+00:00,5650.0,5.1,,
247642,2023-09-16 18:00:00+00:00,1.52,2023-09-16 17:56,57.0,52.0,,1000.3,340.0,32.2,29.53,83.33,28.0,57.0,,44.0,M,49.0,,GNR,1058529,2023-09-16 18:00:00+00:00,5650.0,5.1,,
247643,2023-09-16 19:00:00+00:00,3.05,2023-09-16 18:56,57.0,53.0,,999.6,340.0,29.9,29.52,86.45,26.0,57.0,,43.0,M,44.0,,GNR,1058533,2023-09-16 19:00:00+00:00,4260.0,4.47,,
247644,2023-09-16 20:00:00+00:00,4.32,2023-09-16 19:56,57.0,54.0,,999.3,330.0,27.6,29.5,89.68,24.0,57.0,,42.0,M,49.0,,GNR,1058537,2023-09-16 20:00:00+00:00,1930.0,3.23,,
247645,2023-09-16 21:00:00+00:00,2.79,2023-09-16 20:56,56.0,53.0,,999.5,330.0,21.85,29.51,89.64,19.0,56.0,,36.0,M,44.0,,GNR,1058541,2023-09-16 21:00:00+00:00,1200.0,2.7,,
247646,2023-09-16 22:00:00+00:00,1.02,2023-09-16 21:56,56.0,53.0,,999.6,330.0,20.7,29.51,89.64,18.0,56.0,,38.0,M,42.0,,GNR,1058545,2023-09-16 22:00:00+00:00,942.0,2.47,,
247647,2023-09-16 23:00:00+00:00,0.0,2023-09-16 22:56,57.0,54.0,,1000.0,330.0,19.55,29.52,89.68,17.0,57.0,,33.0,M,38.0,,GNR,1058549,2023-09-16 23:00:00+00:00,1580.0,2.99,,
247648,2023-09-17 00:00:00+00:00,0.0,2023-09-16 23:56,56.0,54.0,,1000.5,330.0,25.3,29.54,92.98,22.0,56.0,,43.0,M,43.0,,GNR,1058553,2023-09-17 00:00:00+00:00,9040.0,6.47,,
247649,2023-09-17 01:00:00+00:00,1.02,2023-09-17 00:56,56.0,53.0,,1001.2,330.0,24.15,29.56,89.64,21.0,56.0,,37.0,M,42.0,,GNR,1058557,2023-09-17 01:00:00+00:00,9110.0,6.5,,
247650,2023-09-17 02:00:00+00:00,0.51,2023-09-17 01:56,56.0,52.0,,1001.4,330.0,21.85,29.57,86.4,19.0,56.0,,36.0,M,44.0,,GNR,1058561,2023-09-17 02:00:00+00:00,9210.0,6.54,,
247651,2023-09-17 03:00:00+00:00,0.0,2023-09-17 02:56,58.0,51.0,,1001.8,330.0,19.55,29.58,77.47,17.0,58.0,,31.0,M,38.0,,GNR,1058565,2023-09-17 03:00:00+00:00,4550.0,4.61,,
247652,2023-09-17 04:00:00+00:00,0.0,2023-09-17 03:56,58.0,51.0,,1002.4,330.0,17.25,29.6,77.47,15.0,58.0,,33.0,M,39.0,,GNR,1058569,2023-09-17 04:00:00+00:00,1900.0,3.21,,
247653,2023-09-17 05:00:00+00:00,0.0,2023-09-17 04:56,57.0,51.0,,1003.0,320.0,24.15,29.61,80.31,21.0,57.0,,35.0,M,35.0,,GNR,1058573,2023-09-17 05:00:00+00:00,1190.0,2.69,,
247654,2023-09-17 06:00:00+00:00,0.0,2023-09-17 05:56,57.0,51.0,,1003.4,330.0,17.25,29.63,80.31,15.0,57.0,,30.0,M,30.0,,GNR,1058577,2023-09-17 06:00:00+00:00,953.0,2.48,,
247655,2023-09-17 07:00:00+00:00,0.0,2023-09-17 06:56,58.0,50.0,,1003.6,320.0,20.7,29.63,74.64,18.0,58.0,,33.0,M,33.0,,GNR,1058581,2023-09-17 07:00:00+00:00,897.0,2.43,,
247656,2023-09-17 08:00:00+00:00,0.0,2023-09-17 07:56,57.0,50.0,,1003.9,320.0,18.4,29.64,77.38,16.0,57.0,,27.0,M,31.0,,GNR,1058585,2023-09-17 08:00:00+00:00,887.0,2.42,,
247657,2023-09-17 09:00:00+00:00,0.0,2023-09-17 08:56,55.0,49.0,,1005.2,310.0,11.5,29.67,80.15,10.0,55.0,,18.0,M,28.0,,GNR,1058589,2023-09-17 09:00:00+00:00,876.0,2.41,,
247658,2023-09-17 10:00:00+00:00,0.0,2023-09-17 09:56,54.0,49.0,,1005.8,300.0,12.65,29.69,83.13,11.0,54.0,,20.0,M,,,GNR,1058593,2023-09-17 10:00:00+00:00,876.0,2.41,,
247659,2023-09-17 11:00:00+00:00,0.0,2023-09-17 10:56,54.0,48.0,,1006.6,310.0,14.95,29.72,80.07,13.0,54.0,,24.0,M,,,GNR,1058597,2023-09-17 11:00:00+00:00,865.0,2.4,,
247660,2023-09-17 12:00:00+00:00,0.0,2023-09-17 11:56,56.0,48.0,,1007.3,330.0,16.1,29.74,74.45,14.0,56.0,,21.0,M,,,GNR,1058601,2023-09-17 12:00:00+00:00,865.0,2.4,,
247661,2023-09-17 13:00:00+00:00,0.0,2023-09-17 12:56,59.0,49.0,,1007.9,330.0,12.65,29.76,69.38,11.0,59.0,,19.0,M,,,GNR,1058605,2023-09-17 13:00:00+00:00,865.0,2.4,,
247662,2023-09-17 14:00:00+00:00,0.0,2023-09-17 13:56,62.0,50.0,,1008.2,320.0,14.95,29.77,64.73,13.0,62.0,,27.0,M,27.0,,GNR,1058609,2023-09-17 14:00:00+00:00,855.0,2.39,,
247663,2023-09-17 15:00:00+00:00,0.0,2023-09-17 14:56,65.0,49.0,,1008.5,310.0,10.35,29.78,56.13,9.0,65.0,,21.0,M,,,GNR,1058613,2023-09-17 15:00:00+00:00,844.0,2.38,,
247664,2023-09-17 16:00:00+00:00,0.0,2023-09-17 15:56,68.0,50.0,,1008.8,300.0,8.05,29.79,52.51,7.0,68.0,,20.0,M,,,GNR,1058617,2023-09-17 16:00:00+00:00,844.0,2.38,,
247665,2023-09-17 17:00:00+00:00,0.0,2023-09-17 16:56,70.0,50.0,,1008.9,310.0,8.05,29.8,49.03,7.0,70.0,,17.0,M,,,GNR,1058621,2023-09-17 17:00:00+00:00,5550.0,5.06,,
247666,2023-09-17 18:00:00+00:00,0.0,2023-09-17 17:56,71.0,49.0,,1008.9,,6.9,29.8,45.66,6.0,71.0,,15.0,M,,,GNR,1058625,2023-09-17 18:00:00+00:00,5600.0,5.08,,
247667,2023-09-17 19:00:00+00:00,0.0,2023-09-17 18:56,72.0,49.0,,1008.8,300.0,9.2,29.8,44.13,8.0,72.0,,17.0,M,,,GNR,1058629,2023-09-17 19:00:00+00:00,4210.0,4.45,,
247668,2023-09-17 20:00:00+00:00,0.0,2023-09-17 19:56,71.0,49.0,,1009.3,,3.45,29.81,45.66,3.0,71.0,,,M,,,GNR,1058633,2023-09-17 20:00:00+00:00,1900.0,3.21,,
247669,2023-09-17 21:00:00+00:00,0.0,2023-09-17 20:56,68.0,50.0,,1010.1,,3.45,29.83,52.51,3.0,68.0,,,M,,,GNR,1058637,2023-09-17 21:00:00+00:00,1160.0,2.66,,
247670,2023-09-17 22:00:00+00:00,0.0,2023-09-17 21:56,66.0,50.0,,1010.0,320.0,4.6,29.83,56.27,4.0,66.0,,,M,,,GNR,1058641,2023-09-17 22:00:00+00:00,897.0,2.43,,
247671,2023-09-17 23:00:00+00:00,0.0,2023-09-17 22:56,62.0,51.0,,1010.8,0.0,0.0,29.85,67.18,0.0,62.0,,,M,,,GNR,1058645,2023-09-17 23:00:00+00:00,1900.0,3.21,,
247672,2023-09-18 00:00:00+00:00,0.0,2023-09-17 23:56,61.0,50.0,,1011.7,0.0,0.0,29.87,67.06,0.0,61.0,,,M,,,GNR,1058649,2023-09-18 00:00:00+00:00,8910.0,6.42,,
247673,2023-09-18 01:00:00+00:00,0.0,2023-09-18 00:56,61.0,50.0,,1011.8,300.0,4.6,29.88,67.06,4.0,61.0,,,M,,,GNR,1058653,2023-09-18 01:00:00+00:00,8960.0,6.44,,
247674,2023-09-18 02:00:00+00:00,0.0,2023-09-18 01:56,59.0,50.0,,1011.7,320.0,4.6,29.87,72.01,4.0,59.0,,,M,,,GNR,1058657,2023-09-18 02:00:00+00:00,8910.0,6.42,,
247675,2023-09-18 03:00:00+00:00,0.0,2023-09-18 02:56,58.0,50.0,,1011.9,340.0,6.9,29.88,74.64,6.0,58.0,,,M,,,GNR,1058661,2023-09-18 03:00:00+00:00,4100.0,4.4,,
247676,2023-09-18 04:00:00+00:00,0.0,2023-09-18 03:56,56.0,52.0,,1012.1,10.0,4.6,29.89,86.4,4.0,56.0,,,M,,,GNR,1058665,2023-09-18 04:00:00+00:00,1660.0,3.05,,
247677,2023-09-18 05:00:00+00:00,0.0,2023-09-18 04:56,60.0,51.0,,1012.0,360.0,4.6,29.89,72.12,4.0,60.0,,,M,,,GNR,1058669,2023-09-18 05:00:00+00:00,953.0,2.48,,
247678,2023-09-18 06:00:00+00:00,0.0,2023-09-18 05:56,57.0,52.0,,1011.5,20.0,5.75,29.87,83.33,5.0,57.0,,,M,,,GNR,1058673,2023-09-18 06:00:00+00:00,696.0,2.23,,
247679,2023-09-18 07:00:00+00:00,0.0,2023-09-18 06:56,58.0,51.0,,1011.4,0.0,0.0,29.88,77.47,0.0,58.0,,,M,,,GNR,1058677,2023-09-18 07:00:00+00:00,633.0,2.16,,
247680,2023-09-18 08:00:00+00:00,0.0,2023-09-18 07:56,58.0,52.0,,1011.5,0.0,0.0,29.88,80.38,0.0,58.0,,,M,,,GNR,1058681,2023-09-18 08:00:00+00:00,616.0,2.14,,
247681,2023-09-18 09:00:00+00:00,0.0,2023-09-18 08:56,56.0,52.0,,1011.7,0.0,0.0,29.88,86.4,0.0,56.0,,,M,,,GNR,1058685,2023-09-18 09:00:00+00:00,599.0,2.12,,
247682,2023-09-18 10:00:00+00:00,0.0,2023-09-18 09:56,57.0,52.0,,1012.0,0.0,0.0,29.89,83.33,0.0,57.0,,,M,,,GNR,1058689,2023-09-18 10:00:00+00:00,599.0,2.12,,
247683,2023-09-18 11:00:00+00:00,0.0,2023-09-18 10:56,56.0,53.0,,1012.3,0.0,0.0,29.89,89.64,0.0,56.0,,,M,,,GNR,1058693,2023-09-18 11:00:00+00:00,591.0,2.11,,
247684,2023-09-18 12:00:00+00:00,0.0,2023-09-18 11:56,59.0,54.0,,1011.8,70.0,4.6,29.88,83.46,4.0,59.0,,,M,,,GNR,1058697,2023-09-18 12:00:00+00:00,582.0,2.1,,
247685,2023-09-18 13:00:00+00:00,0.0,2023-09-18 12:56,61.0,54.0,,1012.3,140.0,3.45,29.89,77.72,3.0,61.0,,,M,,,GNR,1058701,2023-09-18 13:00:00+00:00,582.0,2.1,,
247686,2023-09-18 14:00:00+00:00,0.0,2023-09-18 13:56,64.0,54.0,,1012.7,130.0,5.75,29.91,69.92,5.0,64.0,,,M,,,GNR,1058705,2023-09-18 14:00:00+00:00,574.0,2.09,,
247687,2023-09-18 15:00:00+00:00,0.0,2023-09-18 14:56,63.0,54.0,,1012.7,150.0,5.75,29.9,72.42,5.0,63.0,,,M,,,GNR,1058709,2023-09-18 15:00:00+00:00,566.0,2.08,,
247688,2023-09-18 16:00:00+00:00,0.0,2023-09-18 15:56,64.0,55.0,,1012.4,120.0,8.05,29.89,72.52,7.0,64.0,,,M,,,GNR,1058713,2023-09-18 16:00:00+00:00,558.0,2.07,,
247689,2023-09-18 17:00:00+00:00,0.0,2023-09-18 16:56,63.0,52.0,,1012.2,150.0,6.9,29.89,67.29,6.0,63.0,,,M,,,GNR,1058717,2023-09-18 17:00:00+00:00,5230.0,4.92,,
247690,2023-09-18 18:00:00+00:00,0.0,2023-09-18 17:56,61.0,56.0,,1012.4,140.0,9.2,29.89,83.59,8.0,61.0,,,M,,,GNR,1058721,2023-09-18 18:00:00+00:00,5280.0,4.94,,
247691,2023-09-18 19:00:00+00:00,0.25,2023-09-18 18:56,60.0,58.0,,1012.6,0.0,0.0,29.9,93.1,0.0,60.0,,,M,,,GNR,1058725,2023-09-18 19:00:00+00:00,3980.0,4.34,,
247692,2023-09-18 20:00:00+00:00,1.27,2023-09-18 19:56,58.0,56.0,,1012.3,150.0,4.6,29.89,93.04,4.0,58.0,,,M,,,GNR,1058729,2023-09-18 20:00:00+00:00,1680.0,3.06,,
247693,2023-09-18 21:00:00+00:00,1.27,2023-09-18 20:56,57.0,55.0,,1012.2,,6.9,29.88,93.01,6.0,57.0,,,M,,,GNR,1058733,2023-09-18 21:00:00+00:00,930.0,2.46,,
247694,2023-09-18 22:00:00+00:00,1.52,2023-09-18 21:56,56.0,54.0,,1011.9,130.0,8.05,29.88,92.98,7.0,56.0,,15.0,M,,,GNR,1058737,2023-09-18 22:00:00+00:00,660.0,2.19,,
247695,2023-09-18 23:00:00+00:00,1.27,2023-09-18 22:56,56.0,54.0,,1011.6,120.0,11.5,29.86,92.98,10.0,56.0,,,M,,,GNR,1058741,2023-09-18 23:00:00+00:00,3220.0,3.97,,
247696,2023-09-19 00:00:00+00:00,2.54,2023-09-18 23:56,55.0,54.0,,1011.7,130.0,9.2,29.87,96.42,8.0,55.0,,15.0,M,,,GNR,1058745,2023-09-19 00:00:00+00:00,8880.0,6.41,,
247697,2023-09-19 01:00:00+00:00,2.29,2023-09-19 00:56,54.0,53.0,,1011.1,120.0,9.2,29.85,96.4,8.0,54.0,,,M,,,GNR,1058749,2023-09-19 01:00:00+00:00,8940.0,6.43,,
247698,2023-09-19 02:00:00+00:00,1.27,2023-09-19 01:56,54.0,52.0,,1010.3,120.0,12.65,29.83,92.92,11.0,54.0,,,M,,,GNR,1058753,2023-09-19 02:00:00+00:00,8990.0,6.45,,
247699,2023-09-19 03:00:00+00:00,1.27,2023-09-19 02:56,54.0,52.0,,1009.4,110.0,12.65,29.81,92.92,11.0,54.0,,,M,,,GNR,1058757,2023-09-19 03:00:00+00:00,4080.0,4.39,,
247700,2023-09-19 04:00:00+00:00,2.29,2023-09-19 03:56,54.0,52.0,,1008.3,110.0,10.35,29.77,92.92,9.0,54.0,,,M,,,GNR,1058761,2023-09-19 04:00:00+00:00,1650.0,3.04,,
247701,2023-09-19 05:00:00+00:00,2.29,2023-09-19 04:56,54.0,52.0,,1007.3,110.0,14.95,29.74,92.92,13.0,54.0,,23.0,M,,,GNR,1058765,2023-09-19 05:00:00+00:00,976.0,2.5,,
247702,2023-09-19 06:00:00+00:00,1.27,2023-09-19 05:56,54.0,52.0,,1006.1,90.0,19.55,29.71,92.92,17.0,54.0,,25.0,M,,,GNR,1058769,2023-09-19 06:00:00+00:00,773.0,2.31,,
247703,2023-09-19 07:00:00+00:00,1.02,2023-09-19 06:56,54.0,53.0,,1004.8,80.0,16.1,29.67,96.4,14.0,54.0,,22.0,M,26.0,,GNR,1058773,2023-09-19 07:00:00+00:00,803.0,2.34,,
247704,2023-09-19 08:00:00+00:00,1.78,2023-09-19 07:56,55.0,54.0,,1003.9,330.0,5.75,29.64,96.42,5.0,55.0,,,M,,,GNR,1058777,2023-09-19 08:00:00+00:00,865.0,2.4,,
247705,2023-09-19 09:00:00+00:00,10.16,2023-09-19 08:56,54.0,53.0,,1003.2,330.0,8.05,29.62,96.4,7.0,54.0,,15.0,M,,,GNR,1058781,2023-09-19 09:00:00+00:00,1010.0,2.53,,
247706,2023-09-19 10:00:00+00:00,6.1,2023-09-19 09:56,54.0,53.0,,1002.7,350.0,8.05,29.6,96.4,7.0,54.0,,,M,,,GNR,1058785,2023-09-19 10:00:00+00:00,1300.0,2.78,,
247707,2023-09-19 11:00:00+00:00,4.06,2023-09-19 10:56,54.0,52.0,,1002.4,350.0,9.2,29.59,92.92,8.0,54.0,,,M,,,GNR,1058789,2023-09-19 11:00:00+00:00,1890.0,3.2,,
247708,2023-09-19 12:00:00+00:00,3.81,2023-09-19 11:56,54.0,52.0,,1002.0,20.0,9.2,29.58,92.92,8.0,54.0,,,M,,,GNR,1058793,2023-09-19 12:00:00+00:00,2520.0,3.59,,
247709,2023-09-19 13:00:00+00:00,1.27,2023-09-19 12:56,54.0,53.0,,1002.2,330.0,4.6,29.58,96.4,4.0,54.0,,,M,,,GNR,1058797,2023-09-19 13:00:00+00:00,3090.0,3.9,,
247710,2023-09-19 14:00:00+00:00,0.0,2023-09-19 13:56,55.0,54.0,,1002.2,310.0,9.2,29.59,96.42,8.0,55.0,,,M,,,GNR,1058801,2023-09-19 14:00:00+00:00,3440.0,4.08,,
247711,2023-09-19 15:00:00+00:00,0.0,2023-09-19 14:56,56.0,54.0,,1002.3,,6.9,29.59,92.98,6.0,56.0,,,M,,,GNR,1058805,2023-09-19 15:00:00+00:00,3520.0,4.12,,
247712,2023-09-19 16:00:00+00:00,0.0,2023-09-19 15:56,58.0,54.0,,1002.7,300.0,8.05,29.6,86.51,7.0,58.0,,18.0,M,,,GNR,1058809,2023-09-19 16:00:00+00:00,5600.0,5.08,2023-09-19 16:00:00+00:00,gs://gcp-public-data-sentinel-2/tiles/19/T/DL/S2A_MSIL1C_20230919T153921_N0509_R011_T19TDL_20230919T205749.SAFE
247713,2023-09-19 17:00:00+00:00,0.0,2023-09-19 16:56,59.0,55.0,,1002.7,310.0,6.9,29.61,86.56,6.0,59.0,,,M,,,GNR,1058813,2023-09-19 17:00:00+00:00,8040.0,6.08,,
247714,2023-09-19 18:00:00+00:00,0.51,2023-09-19 17:56,58.0,55.0,,1003.2,,,29.62,89.72,,58.0,,,M,,,GNR,1058817,2023-09-19 18:00:00+00:00,7920.0,6.03,,
247715,2023-09-19 19:00:00+00:00,0.0,2023-09-19 18:56,59.0,53.0,,1003.2,300.0,9.2,29.62,80.46,8.0,59.0,,16.0,M,,,GNR,1058821,2023-09-19 19:00:00+00:00,5910.0,5.21,,
247716,2023-09-19 20:00:00+00:00,0.0,2023-09-19 19:56,58.0,52.0,,1003.9,,,29.64,80.38,,58.0,,,M,,,GNR,1058825,2023-09-19 20:00:00+00:00,3360.0,4.04,,
247717,2023-09-19 21:00:00+00:00,0.0,2023-09-19 20:56,56.0,53.0,,1004.6,,,29.66,89.64,,56.0,,,M,,,GNR,1058829,2023-09-19 21:00:00+00:00,2720.0,3.7,,
247718,2023-09-19 22:00:00+00:00,0.51,2023-09-19 21:56,55.0,52.0,,1005.2,290.0,8.05,29.68,89.59,7.0,55.0,,,M,,,GNR,1058833,2023-09-19 22:00:00+00:00,2590.0,3.63,,
247719,2023-09-19 23:00:00+00:00,0.25,2023-09-19 22:56,55.0,51.0,,1005.8,300.0,9.2,29.69,86.34,8.0,55.0,,20.0,M,,,GNR,1058837,2023-09-19 23:00:00+00:00,2520.0,3.59,,
247720,2023-09-20 00:00:00+00:00,0.25,2023-09-19 23:56,54.0,52.0,,1006.4,300.0,12.65,29.71,92.92,11.0,54.0,,20.0,M,,,GNR,1058841,2023-09-20 00:00:00+00:00,2510.0,3.58,,
247721,2023-09-20 01:00:00+00:00,0.0,2023-09-20 00:56,55.0,52.0,,1006.9,310.0,12.65,29.73,89.59,11.0,55.0,,23.0,M,28.0,,GNR,1058845,2023-09-20 01:00:00+00:00,2470.0,3.56,,
247722,2023-09-20 02:00:00+00:00,0.0,2023-09-20 01:56,54.0,51.0,,1007.7,310.0,13.8,29.75,89.55,12.0,54.0,,24.0,M,27.0,,GNR,1058849,2023-09-20 02:00:00+00:00,2460.0,3.55,,
247723,2023-09-20 03:00:00+00:00,0.0,2023-09-20 02:56,54.0,51.0,,1008.7,320.0,10.35,29.78,89.55,9.0,54.0,,20.0,M,,,GNR,1058853,2023-09-20 03:00:00+00:00,2420.0,3.53,,
247724,2023-09-20 04:00:00+00:00,0.0,2023-09-20 03:56,54.0,51.0,,1009.4,310.0,11.5,29.8,89.55,10.0,54.0,,20.0,M,,,GNR,1058857,2023-09-20 04:00:00+00:00,2400.0,3.52,,
247725,2023-09-20 05:00:00+00:00,0.0,2023-09-20 04:56,54.0,52.0,,1010.0,300.0,8.05,29.82,92.92,7.0,54.0,,16.0,M,,,GNR,1058861,2023-09-20 05:00:00+00:00,2390.0,3.51,,
247726,2023-09-20 06:00:00+00:00,0.0,2023-09-20 05:56,55.0,52.0,,1010.5,300.0,8.05,29.83,89.59,7.0,55.0,,22.0,M,,,GNR,1058865,2023-09-20 06:00:00+00:00,2390.0,3.51,,
247727,2023-09-20 07:00:00+00:00,0.0,2023-09-20 06:56,55.0,52.0,,1011.0,310.0,11.5,29.85,89.59,10.0,55.0,,20.0,M,,,GNR,1058869,2023-09-20 07:00:00+00:00,2370.0,3.5,,
247728,2023-09-20 08:00:00+00:00,0.0,2023-09-20 07:56,55.0,51.0,,1011.5,300.0,10.35,29.86,86.34,9.0,55.0,,18.0,M,,,GNR,1058873,2023-09-20 08:00:00+00:00,2350.0,3.49,,
247729,2023-09-20 09:00:00+00:00,0.0,2023-09-20 08:56,55.0,51.0,,1012.7,310.0,10.35,29.89,86.34,9.0,55.0,,20.0,M,,,GNR,1058877,2023-09-20 09:00:00+00:00,2340.0,3.48,,
247730,2023-09-20 10:00:00+00:00,0.0,2023-09-20 09:56,54.0,51.0,,1013.5,320.0,10.35,29.92,89.55,9.0,54.0,,16.0,M,,,GNR,1058881,2023-09-20 10:00:00+00:00,2320.0,3.47,,
247731,2023-09-20 11:00:00+00:00,0.0,2023-09-20 10:56,54.0,51.0,,1014.5,320.0,11.5,29.95,89.55,10.0,54.0,,20.0,M,,,GNR,1058885,2023-09-20 11:00:00+00:00,2320.0,3.47,,
247732,2023-09-20 12:00:00+00:00,0.0,2023-09-20 11:56,54.0,51.0,,1015.3,310.0,9.2,29.97,89.55,8.0,54.0,,20.0,M,,,GNR,1058889,2023-09-20 12:00:00+00:00,2290.0,3.45,,
247733,2023-09-20 13:00:00+00:00,0.0,2023-09-20 12:56,55.0,50.0,,1015.6,320.0,13.8,29.98,83.2,12.0,55.0,,21.0,M,,,GNR,1058893,2023-09-20 13:00:00+00:00,2270.0,3.44,,
247734,2023-09-20 14:00:00+00:00,0.0,2023-09-20 13:56,57.0,51.0,,1016.2,330.0,11.5,30.0,80.31,10.0,57.0,,19.0,M,,,GNR,1058897,2023-09-20 14:00:00+00:00,2270.0,3.44,,
247735,2023-09-20 15:00:00+00:00,0.0,2023-09-20 14:56,59.0,51.0,,1016.4,330.0,12.65,30.01,74.74,11.0,59.0,,17.0,M,,,GNR,1058901,2023-09-20 15:00:00+00:00,2290.0,3.45,,
247736,2023-09-20 16:00:00+00:00,0.0,2023-09-20 15:56,62.0,52.0,,1016.4,330.0,11.5,30.01,69.71,10.0,62.0,,17.0,M,,,GNR,1058905,2023-09-20 16:00:00+00:00,4300.0,4.49,,
247737,2023-09-20 17:00:00+00:00,0.0,2023-09-20 16:56,63.0,52.0,,1016.3,,6.9,30.01,67.29,6.0,63.0,,16.0,M,,,GNR,1058909,2023-09-20 17:00:00+00:00,7200.0,5.74,,
247738,2023-09-20 18:00:00+00:00,0.0,2023-09-20 17:56,64.0,52.0,,1016.3,310.0,10.35,30.01,64.97,9.0,64.0,,17.0,M,,,GNR,1058913,2023-09-20 18:00:00+00:00,7250.0,5.76,,
247739,2023-09-20 19:00:00+00:00,0.0,2023-09-20 18:56,64.0,52.0,,1016.5,,5.75,30.02,64.97,5.0,64.0,,,M,,,GNR,1058917,2023-09-20 19:00:00+00:00,5440.0,5.01,,
247740,2023-09-20 20:00:00+00:00,0.0,2023-09-20 19:56,63.0,53.0,,1017.0,300.0,8.05,30.03,69.82,7.0,63.0,,,M,,,GNR,1058921,2023-09-20 20:00:00+00:00,3010.0,3.86,,
247741,2023-09-20 21:00:00+00:00,0.0,2023-09-20 20:56,64.0,53.0,,1016.9,,5.75,30.03,67.41,5.0,64.0,,,M,,,GNR,1058925,2023-09-20 21:00:00+00:00,2390.0,3.51,,
247742,2023-09-20 22:00:00+00:00,0.0,2023-09-20 21:56,60.0,52.0,,1017.5,300.0,6.9,30.04,74.83,6.0,60.0,,,M,,,GNR,1058929,2023-09-20 22:00:00+00:00,2290.0,3.45,,
247743,2023-09-20 23:00:00+00:00,0.0,2023-09-20 22:56,57.0,52.0,,1017.9,,,30.05,83.33,,57.0,,,M,,,GNR,1058933,2023-09-20 23:00:00+00:00,2250.0,3.43,,
247744,2023-09-21 00:00:00+00:00,0.0,2023-09-20 23:56,56.0,52.0,,1018.6,310.0,6.9,30.07,86.4,6.0,56.0,,,M,,,GNR,1058937,2023-09-21 00:00:00+00:00,2340.0,3.48,,
247745,2023-09-21 01:00:00+00:00,0.0,2023-09-21 00:56,56.0,52.0,,1019.2,320.0,8.05,30.08,86.4,7.0,56.0,,,M,,,GNR,1058941,2023-09-21 01:00:00+00:00,7280.0,5.77,,
247746,2023-09-21 02:00:00+00:00,0.0,2023-09-21 01:56,55.0,52.0,,1019.4,310.0,6.9,30.09,89.59,6.0,55.0,,,M,,,GNR,1058945,2023-09-21 02:00:00+00:00,7250.0,5.76,,
247747,2023-09-21 03:00:00+00:00,0.0,2023-09-21 02:56,56.0,52.0,,1019.5,320.0,9.2,30.1,86.4,8.0,56.0,,16.0,M,,,GNR,1058949,2023-09-21 03:00:00+00:00,6590.0,5.49,,
247748,2023-09-21 04:00:00+00:00,0.0,2023-09-21 03:56,56.0,51.0,,1019.6,320.0,9.2,30.1,83.26,8.0,56.0,,,M,,,GNR,1058953,2023-09-21 04:00:00+00:00,5650.0,5.1,,
247749,2023-09-21 05:00:00+00:00,0.0,2023-09-21 04:56,56.0,50.0,,1019.9,320.0,6.9,30.11,80.23,6.0,56.0,,15.0,M,,,GNR,1058957,2023-09-21 05:00:00+00:00,5320.0,4.96,,
247750,2023-09-21 06:00:00+00:00,0.0,2023-09-21 05:56,55.0,49.0,,1020.2,320.0,8.05,30.12,80.15,7.0,55.0,,,M,,,GNR,1058961,2023-09-21 06:00:00+00:00,5320.0,4.96,,
247751,2023-09-21 07:00:00+00:00,0.0,2023-09-21 06:56,54.0,49.0,,1020.3,310.0,6.9,30.12,83.13,6.0,54.0,,,M,,,GNR,1058965,2023-09-21 07:00:00+00:00,5260.0,4.93,,
247752,2023-09-21 08:00:00+00:00,0.0,2023-09-21 07:56,53.0,49.0,,1020.5,330.0,11.5,30.13,86.23,10.0,53.0,,,M,,,GNR,1058969,2023-09-21 08:00:00+00:00,5230.0,4.92,,
247753,2023-09-21 09:00:00+00:00,0.0,2023-09-21 08:56,53.0,49.0,,1021.0,320.0,10.35,30.14,86.23,9.0,53.0,,16.0,M,,,GNR,1058973,2023-09-21 09:00:00+00:00,4450.0,4.56,,
247754,2023-09-21 10:00:00+00:00,0.0,2023-09-21 09:56,52.0,49.0,,1021.7,320.0,6.9,30.16,89.46,6.0,52.0,,,M,,,GNR,1058977,2023-09-21 10:00:00+00:00,2590.0,3.63,,
247755,2023-09-21 11:00:00+00:00,0.0,2023-09-21 10:56,52.0,49.0,,1022.4,320.0,11.5,30.18,89.46,10.0,52.0,,,M,,,GNR,1058981,2023-09-21 11:00:00+00:00,2030.0,3.29,,
247756,2023-09-21 12:00:00+00:00,0.0,2023-09-21 11:56,53.0,49.0,,1023.1,320.0,11.5,30.2,86.23,10.0,53.0,,17.0,M,,,GNR,1058985,2023-09-21 12:00:00+00:00,1890.0,3.2,,
247757,2023-09-21 13:00:00+00:00,0.0,2023-09-21 12:56,55.0,50.0,,1023.6,320.0,12.65,30.21,83.2,11.0,55.0,,,M,,,GNR,1058989,2023-09-21 13:00:00+00:00,1860.0,3.18,,
247758,2023-09-21 14:00:00+00:00,0.0,2023-09-21 13:56,56.0,49.0,,1024.4,320.0,9.2,30.24,77.29,8.0,56.0,,,M,,,GNR,1058993,2023-09-21 14:00:00+00:00,1830.0,3.16,,
247759,2023-09-21 15:00:00+00:00,0.0,2023-09-21 14:56,57.0,49.0,,1024.5,340.0,10.35,30.24,74.55,9.0,57.0,,,M,,,GNR,1058997,2023-09-21 15:00:00+00:00,1800.0,3.14,,
247760,2023-09-21 16:00:00+00:00,0.0,2023-09-21 15:56,60.0,50.0,,1024.5,330.0,9.2,30.25,69.49,8.0,60.0,,,M,,,GNR,1059001,2023-09-21 16:00:00+00:00,2270.0,3.44,2023-09-21 16:00:00+00:00,gs://gcp-public-data-sentinel-2/tiles/19/T/DL/S2B_MSIL1C_20230921T153559_N0509_R111_T19TDL_20230921T205212.SAFE
247761,2023-09-21 17:00:00+00:00,0.0,2023-09-21 16:56,62.0,50.0,,1024.5,350.0,12.65,30.25,64.73,11.0,62.0,,17.0,M,,,GNR,1059005,2023-09-21 17:00:00+00:00,6460.0,5.44,,
247762,2023-09-21 18:00:00+00:00,0.0,2023-09-21 17:56,63.0,47.0,,1024.3,340.0,11.5,30.24,55.85,10.0,63.0,,19.0,M,,,GNR,1059009,2023-09-21 18:00:00+00:00,6460.0,5.44,,
247763,2023-09-21 19:00:00+00:00,0.0,2023-09-21 18:56,63.0,47.0,,1024.2,320.0,9.2,30.24,55.85,8.0,63.0,,16.0,M,,,GNR,1059013,2023-09-21 19:00:00+00:00,5580.0,5.07,,
247764,2023-09-21 20:00:00+00:00,0.0,2023-09-21 19:56,64.0,46.0,,1024.3,340.0,9.2,30.24,51.93,8.0,64.0,,,M,,,GNR,1059017,2023-09-21 20:00:00+00:00,4920.0,4.78,,
247765,2023-09-21 21:00:00+00:00,0.0,2023-09-21 20:56,63.0,47.0,,1024.4,340.0,8.05,30.24,55.85,7.0,63.0,,,M,,,GNR,1059021,2023-09-21 21:00:00+00:00,5530.0,5.05,,
247766,2023-09-21 22:00:00+00:00,0.0,2023-09-21 21:56,59.0,47.0,,1025.2,360.0,5.75,30.26,64.36,5.0,59.0,,,M,,,GNR,1059025,2023-09-21 22:00:00+00:00,9090.0,6.49,,
247767,2023-09-21 23:00:00+00:00,0.0,2023-09-21 22:56,57.0,47.0,,1025.7,20.0,4.6,30.28,69.16,4.0,57.0,,,M,,,GNR,1059029,2023-09-21 23:00:00+00:00,9740.0,6.75,,
247768,2023-09-22 00:00:00+00:00,0.0,2023-09-21 23:56,52.0,47.0,,1026.8,0.0,0.0,30.3,82.99,0.0,52.0,,,M,,,GNR,1059033,2023-09-22 00:00:00+00:00,9790.0,6.77,,
247769,2023-09-22 01:00:00+00:00,0.0,2023-09-22 00:56,52.0,46.0,,1027.3,0.0,0.0,30.32,79.92,0.0,52.0,,,M,,,GNR,1059037,2023-09-22 01:00:00+00:00,9820.0,6.78,,
247770,2023-09-22 02:00:00+00:00,0.0,2023-09-22 01:56,52.0,46.0,,1027.7,350.0,3.45,30.33,79.92,3.0,52.0,,,M,,,GNR,1059041,2023-09-22 02:00:00+00:00,9720.0,6.74,,
247771,2023-09-22 03:00:00+00:00,0.0,2023-09-22 02:56,50.0,47.0,,1027.7,0.0,0.0,30.33,89.37,0.0,50.0,,,M,,,GNR,1059045,2023-09-22 03:00:00+00:00,6170.0,5.32,,
247772,2023-09-22 04:00:00+00:00,0.0,2023-09-22 03:56,50.0,46.0,,1027.8,50.0,3.45,30.34,86.06,3.0,50.0,,,M,,,GNR,1059049,2023-09-22 04:00:00+00:00,4830.0,4.74,,
247773,2023-09-22 05:00:00+00:00,0.0,2023-09-22 04:56,49.0,45.0,,1028.0,0.0,0.0,30.34,86.0,0.0,49.0,,,M,,,GNR,1059053,2023-09-22 05:00:00+00:00,4790.0,4.72,,
247774,2023-09-22 06:00:00+00:00,0.0,2023-09-22 05:56,48.0,45.0,,1028.2,0.0,0.0,30.35,89.29,0.0,48.0,,,M,,,GNR,1059057,2023-09-22 06:00:00+00:00,4770.0,4.71,,
247775,2023-09-22 07:00:00+00:00,0.0,2023-09-22 06:56,47.0,44.0,,1028.4,0.0,0.0,30.35,89.24,0.0,47.0,,,M,,,GNR,1059061,2023-09-22 07:00:00+00:00,4770.0,4.71,,
247776,2023-09-22 08:00:00+00:00,0.0,2023-09-22 07:56,47.0,44.0,,1028.7,0.0,0.0,30.36,89.24,0.0,47.0,,,M,,,GNR,1059065,2023-09-22 08:00:00+00:00,4750.0,4.7,,
247777,2023-09-22 09:00:00+00:00,0.0,2023-09-22 08:56,48.0,44.0,,1029.3,0.0,0.0,30.38,85.95,0.0,48.0,,,M,,,GNR,1059069,2023-09-22 09:00:00+00:00,3980.0,4.34,,
247778,2023-09-22 10:00:00+00:00,0.0,2023-09-22 09:56,47.0,43.0,,1029.8,0.0,0.0,30.39,85.89,0.0,47.0,,,M,,,GNR,1059073,2023-09-22 10:00:00+00:00,2200.0,3.4,,
247779,2023-09-22 11:00:00+00:00,0.0,2023-09-22 10:56,47.0,43.0,,1030.4,0.0,0.0,30.41,85.89,0.0,47.0,,,M,,,GNR,1059077,2023-09-22 11:00:00+00:00,1590.0,3.0,,
247780,2023-09-22 12:00:00+00:00,0.0,2023-09-22 11:56,53.0,46.0,,1030.8,0.0,0.0,30.42,77.03,0.0,53.0,,,M,,,GNR,1059081,2023-09-22 12:00:00+00:00,1460.0,2.9,,
247781,2023-09-22 13:00:00+00:00,0.0,2023-09-22 12:56,56.0,46.0,,1031.0,0.0,0.0,30.43,69.05,0.0,56.0,,,M,,,GNR,1059085,2023-09-22 13:00:00+00:00,1430.0,2.88,,
247782,2023-09-22 14:00:00+00:00,0.0,2023-09-22 13:56,58.0,48.0,,1031.3,,3.45,30.44,69.27,3.0,58.0,,,M,,,GNR,1059089,2023-09-22 14:00:00+00:00,1420.0,2.87,,
247783,2023-09-22 15:00:00+00:00,0.0,2023-09-22 14:56,62.0,50.0,,1030.9,,3.45,30.43,64.73,3.0,62.0,,,M,,,GNR,1059093,2023-09-22 15:00:00+00:00,1410.0,2.86,,
247784,2023-09-22 16:00:00+00:00,0.0,2023-09-22 15:56,64.0,47.0,,1030.4,0.0,0.0,30.42,53.92,0.0,64.0,,,M,,,GNR,1059097,2023-09-22 16:00:00+00:00,1800.0,3.14,,
247785,2023-09-22 17:00:00+00:00,0.0,2023-09-22 16:56,65.0,46.0,,1030.2,,,30.41,50.14,,65.0,,,M,,,GNR,1059101,2023-09-22 17:00:00+00:00,6070.0,5.28,,
247786,2023-09-22 18:00:00+00:00,0.0,2023-09-22 17:56,67.0,48.0,,1029.4,,4.6,30.39,50.44,4.0,67.0,,,M,,,GNR,1059105,2023-09-22 18:00:00+00:00,6070.0,5.28,,
247787,2023-09-22 19:00:00+00:00,0.0,2023-09-22 18:56,68.0,47.0,,1028.9,0.0,0.0,30.38,46.93,0.0,68.0,,,M,,,GNR,1059109,2023-09-22 19:00:00+00:00,4590.0,4.63,,
247788,2023-09-22 20:00:00+00:00,0.0,2023-09-22 19:56,69.0,48.0,,1028.4,0.0,0.0,30.36,47.09,0.0,69.0,,,M,,,GNR,1059113,2023-09-22 20:00:00+00:00,2250.0,3.43,,
247789,2023-09-22 21:00:00+00:00,0.0,2023-09-22 20:56,67.0,48.0,,1028.4,,3.45,30.36,50.44,3.0,67.0,,,M,,,GNR,1059117,2023-09-22 21:00:00+00:00,1550.0,2.97,,
247790,2023-09-22 22:00:00+00:00,0.0,2023-09-22 21:56,63.0,49.0,,1028.6,180.0,3.45,30.36,60.2,3.0,63.0,,,M,,,GNR,1059121,2023-09-22 22:00:00+00:00,1380.0,2.84,,
247791,2023-09-22 23:00:00+00:00,0.0,2023-09-22 22:56,60.0,50.0,,1028.7,0.0,0.0,30.36,69.49,0.0,60.0,,,M,,,GNR,1059125,2023-09-22 23:00:00+00:00,6290.0,5.37,,
247792,2023-09-23 00:00:00+00:00,0.0,2023-09-22 23:56,58.0,49.0,,1028.9,0.0,0.0,30.37,71.91,0.0,58.0,,,M,,,GNR,1059129,2023-09-23 00:00:00+00:00,9460.0,6.64,,
247793,2023-09-23 01:00:00+00:00,0.0,2023-09-23 00:56,57.0,49.0,,1028.8,,3.45,30.37,74.55,3.0,57.0,,,M,,,GNR,1059133,2023-09-23 01:00:00+00:00,9490.0,6.65,,
247794,2023-09-23 02:00:00+00:00,0.0,2023-09-23 01:56,56.0,48.0,,1028.6,0.0,0.0,30.36,74.45,0.0,56.0,,,M,,,GNR,1059137,2023-09-23 02:00:00+00:00,9510.0,6.66,,
247795,2023-09-23 03:00:00+00:00,0.0,2023-09-23 02:56,52.0,49.0,,1028.5,0.0,0.0,30.36,89.46,0.0,52.0,,,M,,,GNR,1059141,2023-09-23 03:00:00+00:00,9510.0,6.66,,
247796,2023-09-23 04:00:00+00:00,0.0,2023-09-23 03:56,50.0,47.0,,1028.2,0.0,0.0,30.35,89.37,0.0,50.0,,,M,,,GNR,1059145,2023-09-23 04:00:00+00:00,4660.0,4.66,,
247797,2023-09-23 05:00:00+00:00,0.0,2023-09-23 04:56,50.0,47.0,,1028.1,0.0,0.0,30.35,89.37,0.0,50.0,,,M,,,GNR,1059149,2023-09-23 05:00:00+00:00,2140.0,3.36,,
247798,2023-09-23 06:00:00+00:00,0.0,2023-09-23 05:56,49.0,47.0,,1027.9,0.0,0.0,30.35,92.77,0.0,49.0,,,M,,,GNR,1059153,2023-09-23 06:00:00+00:00,1490.0,2.92,,
247799,2023-09-23 07:00:00+00:00,0.0,2023-09-23 06:56,51.0,48.0,,1027.3,0.0,0.0,30.33,89.42,0.0,51.0,,,M,,,GNR,1059157,2023-09-23 07:00:00+00:00,1320.0,2.79,,
247800,2023-09-23 08:00:00+00:00,0.0,2023-09-23 07:56,51.0,49.0,,1027.3,0.0,0.0,30.33,92.83,0.0,51.0,,,M,,,GNR,1059161,2023-09-23 08:00:00+00:00,1280.0,2.76,,
247801,2023-09-23 09:00:00+00:00,0.0,2023-09-23 08:56,50.0,47.0,,1027.1,0.0,0.0,30.32,89.37,0.0,50.0,,,M,,,GNR,1059165,2023-09-23 09:00:00+00:00,1270.0,2.75,,
247802,2023-09-23 10:00:00+00:00,0.0,2023-09-23 09:56,49.0,47.0,,1027.2,0.0,0.0,30.32,92.77,0.0,49.0,,,M,,,GNR,1059169,2023-09-23 10:00:00+00:00,1250.0,2.74,,
247803,2023-09-23 11:00:00+00:00,0.0,2023-09-23 10:56,49.0,47.0,,1027.4,0.0,0.0,30.33,92.77,0.0,49.0,,,M,,,GNR,1059173,2023-09-23 11:00:00+00:00,1240.0,2.73,,
247804,2023-09-23 12:00:00+00:00,0.0,2023-09-23 11:56,54.0,50.0,,1027.8,0.0,0.0,30.34,86.29,0.0,54.0,,,M,,,GNR,1059177,2023-09-23 12:00:00+00:00,1230.0,2.72,,
247805,2023-09-23 13:00:00+00:00,0.0,2023-09-23 12:56,57.0,51.0,,1027.7,200.0,3.45,30.34,80.31,3.0,57.0,,,M,,,GNR,1059181,2023-09-23 13:00:00+00:00,1200.0,2.7,,
247806,2023-09-23 14:00:00+00:00,0.0,2023-09-23 13:56,62.0,53.0,,1027.6,0.0,0.0,30.34,72.32,0.0,62.0,,,M,,,GNR,1059185,2023-09-23 14:00:00+00:00,1190.0,2.69,,
247807,2023-09-23 15:00:00+00:00,0.0,2023-09-23 14:56,65.0,53.0,,1027.1,0.0,0.0,30.32,65.09,0.0,65.0,,,M,,,GNR,1059189,2023-09-23 15:00:00+00:00,1190.0,2.69,,
247808,2023-09-23 16:00:00+00:00,0.0,2023-09-23 15:56,66.0,51.0,,1026.7,340.0,9.2,30.31,58.4,8.0,66.0,,,M,,,GNR,1059193,2023-09-23 16:00:00+00:00,5790.0,5.16,,
247809,2023-09-23 17:00:00+00:00,0.0,2023-09-23 16:56,69.0,53.0,,1026.1,0.0,0.0,30.3,56.69,0.0,69.0,,,M,,,GNR,1059197,2023-09-23 17:00:00+00:00,9360.0,6.6,,
247810,2023-09-23 18:00:00+00:00,0.0,2023-09-23 17:56,69.0,53.0,,1025.6,0.0,0.0,30.28,56.69,0.0,69.0,,,M,,,GNR,1059201,2023-09-23 18:00:00+00:00,9360.0,6.6,,
247811,2023-09-23 19:00:00+00:00,0.0,2023-09-23 18:56,70.0,52.0,,1025.1,,3.45,30.27,52.8,3.0,70.0,,,M,,,GNR,1059205,2023-09-23 19:00:00+00:00,5350.0,4.97,,
247812,2023-09-23 20:00:00+00:00,0.0,2023-09-23 19:56,71.0,48.0,,1024.4,0.0,0.0,30.25,43.98,0.0,71.0,,,M,,,GNR,1059209,2023-09-23 20:00:00+00:00,2150.0,3.37,,
247813,2023-09-23 21:00:00+00:00,0.0,2023-09-23 20:56,67.0,52.0,,1024.2,40.0,3.45,30.24,58.53,3.0,67.0,,,M,,,GNR,1059213,2023-09-23 21:00:00+00:00,1320.0,2.79,,
247814,2023-09-23 22:00:00+00:00,0.0,2023-09-23 21:56,63.0,55.0,,1024.5,150.0,3.45,30.24,75.11,3.0,63.0,,,M,,,GNR,1059217,2023-09-23 22:00:00+00:00,1050.0,2.57,,
247815,2023-09-23 23:00:00+00:00,0.0,2023-09-23 22:56,59.0,53.0,,1024.9,130.0,4.6,30.25,80.46,4.0,59.0,,,M,,,GNR,1059221,2023-09-23 23:00:00+00:00,4660.0,4.66,,
247816,2023-09-24 00:00:00+00:00,0.0,2023-09-23 23:56,58.0,53.0,,1024.9,130.0,4.6,30.25,83.39,4.0,58.0,,,M,,,GNR,1059225,2023-09-24 00:00:00+00:00,9140.0,6.51,,
247817,2023-09-24 01:00:00+00:00,0.0,2023-09-24 00:56,57.0,52.0,,1025.0,0.0,0.0,30.26,83.33,0.0,57.0,,,M,,,GNR,1059229,2023-09-24 01:00:00+00:00,9190.0,6.53,,
247818,2023-09-24 02:00:00+00:00,0.0,2023-09-24 01:56,57.0,52.0,,1025.0,30.0,4.6,30.26,83.33,4.0,57.0,,,M,,,GNR,1059233,2023-09-24 02:00:00+00:00,4490.0,4.58,,
247819,2023-09-24 03:00:00+00:00,0.0,2023-09-24 02:56,56.0,53.0,,1024.9,30.0,4.6,30.26,89.64,4.0,56.0,,,M,,,GNR,1059237,2023-09-24 03:00:00+00:00,1870.0,3.19,,
247820,2023-09-24 04:00:00+00:00,0.0,2023-09-24 03:56,55.0,53.0,,1024.8,0.0,0.0,30.26,92.95,0.0,55.0,,,M,,,GNR,1059241,2023-09-24 04:00:00+00:00,1160.0,2.66,,
247821,2023-09-24 05:00:00+00:00,0.0,2023-09-24 04:56,53.0,51.0,,1024.6,120.0,3.45,30.25,92.89,3.0,53.0,,,M,,,GNR,1059245,2023-09-24 05:00:00+00:00,942.0,2.47,,
247822,2023-09-24 06:00:00+00:00,0.0,2023-09-24 05:56,53.0,50.0,,1024.3,120.0,5.75,30.24,89.51,5.0,53.0,,,M,,,GNR,1059249,2023-09-24 06:00:00+00:00,897.0,2.43,,
247823,2023-09-24 07:00:00+00:00,0.0,2023-09-24 06:56,51.0,50.0,,1023.7,0.0,0.0,30.23,96.36,0.0,51.0,,,M,,,GNR,1059253,2023-09-24 07:00:00+00:00,887.0,2.42,,
247824,2023-09-24 08:00:00+00:00,0.0,2023-09-24 07:56,52.0,50.0,,1023.6,0.0,0.0,30.22,92.86,0.0,52.0,,,M,,,GNR,1059257,2023-09-24 08:00:00+00:00,876.0,2.41,,
247825,2023-09-24 09:00:00+00:00,0.0,2023-09-24 08:56,53.0,51.0,,1023.8,20.0,3.45,30.23,92.89,3.0,53.0,,,M,,,GNR,1059261,2023-09-24 09:00:00+00:00,876.0,2.41,,
247826,2023-09-24 10:00:00+00:00,0.0,2023-09-24 09:56,53.0,51.0,,1023.8,0.0,0.0,30.23,92.89,0.0,53.0,,,M,,,GNR,1059265,2023-09-24 10:00:00+00:00,865.0,2.4,,
247827,2023-09-24 11:00:00+00:00,0.0,2023-09-24 10:56,53.0,51.0,,1024.2,40.0,4.6,30.23,92.89,4.0,53.0,,,M,,,GNR,1059269,2023-09-24 11:00:00+00:00,855.0,2.39,,
247828,2023-09-24 12:00:00+00:00,0.0,2023-09-24 11:56,55.0,52.0,,1024.6,0.0,0.0,30.24,89.59,0.0,55.0,,,M,,,GNR,1059273,2023-09-24 12:00:00+00:00,855.0,2.39,,
247829,2023-09-24 13:00:00+00:00,0.0,2023-09-24 12:56,57.0,55.0,,1024.4,0.0,0.0,30.24,93.01,0.0,57.0,,,M,,,GNR,1059277,2023-09-24 13:00:00+00:00,855.0,2.39,,
247830,2023-09-24 14:00:00+00:00,0.0,2023-09-24 13:56,60.0,55.0,,1024.1,0.0,0.0,30.23,83.53,0.0,60.0,,,M,,,GNR,1059281,2023-09-24 14:00:00+00:00,844.0,2.38,,
247831,2023-09-24 15:00:00+00:00,0.0,2023-09-24 14:56,62.0,51.0,,1023.9,180.0,3.45,30.23,67.18,3.0,62.0,,,M,,,GNR,1059285,2023-09-24 15:00:00+00:00,844.0,2.38,,
247832,2023-09-24 16:00:00+00:00,0.0,2023-09-24 15:56,64.0,54.0,,1023.7,0.0,0.0,30.22,69.92,0.0,64.0,,,M,,,GNR,1059289,2023-09-24 16:00:00+00:00,844.0,2.38,2023-09-24 16:00:00+00:00,gs://gcp-public-data-sentinel-2/tiles/19/T/DL/S2B_MSIL1C_20230924T153909_N0509_R011_T19TDL_20230924T192508.SAFE
247833,2023-09-24 17:00:00+00:00,0.0,2023-09-24 16:56,66.0,53.0,,1022.9,160.0,3.45,30.2,62.87,3.0,66.0,,,M,,,GNR,1059293,2023-09-24 17:00:00+00:00,5580.0,5.07,,
247834,2023-09-24 18:00:00+00:00,0.0,2023-09-24 17:56,68.0,53.0,,1022.0,290.0,3.45,30.17,58.67,3.0,68.0,,,M,,,GNR,1059297,2023-09-24 18:00:00+00:00,5620.0,5.09,,
247835,2023-09-24 19:00:00+00:00,0.0,2023-09-24 18:56,67.0,54.0,,1021.7,60.0,3.45,30.16,62.99,3.0,67.0,,,M,,,GNR,1059301,2023-09-24 19:00:00+00:00,4100.0,4.4,,
247836,2023-09-24 20:00:00+00:00,0.0,2023-09-24 19:56,67.0,55.0,,1020.8,,4.6,30.14,65.33,4.0,67.0,,,M,,,GNR,1059305,2023-09-24 20:00:00+00:00,1830.0,3.16,,
247837,2023-09-24 21:00:00+00:00,0.0,2023-09-24 20:56,66.0,55.0,,1020.5,0.0,0.0,30.13,67.64,0.0,66.0,,,M,,,GNR,1059309,2023-09-24 21:00:00+00:00,1110.0,2.62,,
247838,2023-09-24 22:00:00+00:00,0.0,2023-09-24 21:56,64.0,56.0,,1020.7,140.0,3.45,30.14,75.2,3.0,64.0,,,M,,,GNR,1059313,2023-09-24 22:00:00+00:00,887.0,2.42,,
247839,2023-09-24 23:00:00+00:00,0.0,2023-09-24 22:56,61.0,55.0,,1021.1,0.0,0.0,30.14,80.61,0.0,61.0,,,M,,,GNR,1059317,2023-09-24 23:00:00+00:00,4570.0,4.62,,
247840,2023-09-25 00:00:00+00:00,0.0,2023-09-24 23:56,59.0,55.0,,1021.6,200.0,3.45,30.16,86.56,3.0,59.0,,,M,,,GNR,1059321,2023-09-25 00:00:00+00:00,9010.0,6.46,,
247841,2023-09-25 01:00:00+00:00,0.0,2023-09-25 00:56,56.0,53.0,,1021.3,0.0,0.0,30.15,89.64,0.0,56.0,,,M,,,GNR,1059325,2023-09-25 01:00:00+00:00,9010.0,6.46,,
247842,2023-09-25 02:00:00+00:00,0.0,2023-09-25 01:56,58.0,55.0,,1021.5,0.0,0.0,30.16,89.72,0.0,58.0,,,M,,,GNR,1059329,2023-09-25 02:00:00+00:00,9110.0,6.5,,
247843,2023-09-25 03:00:00+00:00,0.0,2023-09-25 02:56,58.0,56.0,,1021.5,20.0,4.6,30.16,93.04,4.0,58.0,,,M,,,GNR,1059333,2023-09-25 03:00:00+00:00,5370.0,4.98,,
247844,2023-09-25 04:00:00+00:00,0.0,2023-09-25 03:56,58.0,54.0,,1021.3,360.0,5.75,30.16,86.51,5.0,58.0,,,M,,,GNR,1059337,2023-09-25 04:00:00+00:00,2040.0,3.3,,
247845,2023-09-25 05:00:00+00:00,0.0,2023-09-25 04:56,57.0,51.0,,1021.6,40.0,3.45,30.17,80.31,3.0,57.0,,,M,,,GNR,1059341,2023-09-25 05:00:00+00:00,1180.0,2.68,,
247846,2023-09-25 06:00:00+00:00,0.0,2023-09-25 05:56,53.0,47.0,,1021.9,,3.45,30.17,80.0,3.0,53.0,,,M,,,GNR,1059345,2023-09-25 06:00:00+00:00,887.0,2.42,,
247847,2023-09-25 07:00:00+00:00,0.0,2023-09-25 06:56,52.0,44.0,,1021.6,0.0,0.0,30.17,74.07,0.0,52.0,,,M,,,GNR,1059349,2023-09-25 07:00:00+00:00,834.0,2.37,,
247848,2023-09-25 08:00:00+00:00,0.0,2023-09-25 07:56,50.0,44.0,,1022.0,0.0,0.0,30.17,79.76,0.0,50.0,,,M,,,GNR,1059353,2023-09-25 08:00:00+00:00,823.0,2.36,,
247849,2023-09-25 09:00:00+00:00,0.0,2023-09-25 08:56,47.0,43.0,,1022.5,350.0,6.9,30.18,85.89,6.0,43.6,,,M,,,GNR,1059357,2023-09-25 09:00:00+00:00,813.0,2.35,,
247850,2023-09-25 10:00:00+00:00,0.0,2023-09-25 09:56,50.0,45.0,,1023.2,10.0,5.75,30.2,82.86,5.0,50.0,,,M,,,GNR,1059361,2023-09-25 10:00:00+00:00,813.0,2.35,,
247851,2023-09-25 11:00:00+00:00,0.0,2023-09-25 10:56,50.0,45.0,,1024.0,0.0,0.0,30.23,82.86,0.0,50.0,,,M,,,GNR,1059365,2023-09-25 11:00:00+00:00,803.0,2.34,,
247852,2023-09-25 12:00:00+00:00,0.0,2023-09-25 11:56,53.0,47.0,,1024.6,50.0,4.6,30.24,80.0,4.0,53.0,,,M,,,GNR,1059369,2023-09-25 12:00:00+00:00,803.0,2.34,,
247853,2023-09-25 13:00:00+00:00,0.0,2023-09-25 12:56,56.0,46.0,,1025.6,50.0,5.75,30.27,69.05,5.0,56.0,,,M,,,GNR,1059373,2023-09-25 13:00:00+00:00,793.0,2.33,,
247854,2023-09-25 14:00:00+00:00,0.0,2023-09-25 13:56,56.0,47.0,,1026.2,70.0,6.9,30.29,71.7,6.0,56.0,,,M,,,GNR,1059377,2023-09-25 14:00:00+00:00,793.0,2.33,,
247855,2023-09-25 15:00:00+00:00,0.0,2023-09-25 14:56,57.0,47.0,,1026.5,40.0,9.2,30.3,69.16,8.0,57.0,,,M,,,GNR,1059381,2023-09-25 15:00:00+00:00,783.0,2.32,,
247856,2023-09-25 16:00:00+00:00,0.0,2023-09-25 15:56,59.0,47.0,,1026.8,50.0,9.2,30.31,64.36,8.0,59.0,,,M,,,GNR,1059385,2023-09-25 16:00:00+00:00,783.0,2.32,,
247857,2023-09-25 17:00:00+00:00,0.0,2023-09-25 16:56,60.0,43.0,,1026.8,70.0,11.5,30.31,53.34,10.0,60.0,,,M,,,GNR,1059389,2023-09-25 17:00:00+00:00,5480.0,5.03,,
247858,2023-09-25 18:00:00+00:00,0.0,2023-09-25 17:56,,,,,,,30.31,,,,,,M,,,GNR,1059393,2023-09-25 18:00:00+00:00,5530.0,5.05,,
247859,2023-09-25 19:00:00+00:00,0.0,2023-09-25 18:56,,,,,,,30.32,,,,,,M,,,GNR,1059397,2023-09-25 19:00:00+00:00,4150.0,4.42,,
247860,2023-09-25 20:00:00+00:00,0.0,2023-09-25 19:56,62.0,45.0,,1027.3,50.0,9.2,30.32,53.63,8.0,62.0,,,M,,,GNR,1059401,2023-09-25 20:00:00+00:00,1810.0,3.15,,
247861,2023-09-25 21:00:00+00:00,0.0,2023-09-25 20:56,58.0,43.0,,1027.8,70.0,6.9,30.33,57.3,6.0,58.0,,16.0,M,,,GNR,1059405,2023-09-25 21:00:00+00:00,1050.0,2.57,,
247862,2023-09-25 22:00:00+00:00,0.0,2023-09-25 21:56,56.0,43.0,,1028.7,70.0,6.9,30.36,61.59,6.0,56.0,,,M,,,GNR,1059409,2023-09-25 22:00:00+00:00,793.0,2.33,,
247863,2023-09-25 23:00:00+00:00,0.0,2023-09-25 22:56,54.0,43.0,,1029.4,50.0,6.9,30.38,66.24,6.0,54.0,,,M,,,GNR,1059413,2023-09-25 23:00:00+00:00,2960.0,3.83,,
247864,2023-09-26 00:00:00+00:00,0.0,2023-09-25 23:56,52.0,43.0,,1029.8,60.0,5.75,30.39,71.28,5.0,52.0,,,M,,,GNR,1059417,2023-09-26 00:00:00+00:00,8960.0,6.44,,
247865,2023-09-26 01:00:00+00:00,0.0,2023-09-26 00:56,51.0,44.0,,1030.3,30.0,5.75,30.41,76.85,5.0,51.0,,,M,,,GNR,1059421,2023-09-26 01:00:00+00:00,8990.0,6.45,,
247866,2023-09-26 02:00:00+00:00,0.0,2023-09-26 01:56,52.0,45.0,,1030.7,0.0,0.0,30.42,76.94,0.0,52.0,,,M,,,GNR,1059425,2023-09-26 02:00:00+00:00,9040.0,6.47,,
247867,2023-09-26 03:00:00+00:00,0.0,2023-09-26 02:56,52.0,45.0,,1030.9,40.0,3.45,30.43,76.94,3.0,52.0,,,M,,,GNR,1059429,2023-09-26 03:00:00+00:00,4720.0,4.69,,
247868,2023-09-26 04:00:00+00:00,0.0,2023-09-26 03:56,50.0,43.0,,1030.8,0.0,0.0,30.42,76.76,0.0,50.0,,,M,,,GNR,1059433,2023-09-26 04:00:00+00:00,1800.0,3.14,,
247869,2023-09-26 05:00:00+00:00,0.0,2023-09-26 04:56,47.0,43.0,,1031.2,0.0,0.0,30.43,85.89,0.0,47.0,,,M,,,GNR,1059437,2023-09-26 05:00:00+00:00,1020.0,2.54,,
247870,2023-09-26 06:00:00+00:00,0.0,2023-09-26 05:56,46.0,42.0,,,10.0,3.45,30.43,85.83,3.0,44.69,,,M,,,GNR,1059441,2023-09-26 06:00:00+00:00,753.0,2.29,,
247871,2023-09-26 07:00:00+00:00,0.0,2023-09-26 06:56,46.0,42.0,,,300.0,3.45,30.43,85.83,3.0,44.69,,,M,,,GNR,1059445,2023-09-26 07:00:00+00:00,696.0,2.23,,
247872,2023-09-26 08:00:00+00:00,0.0,2023-09-26 07:56,44.0,42.0,,1031.1,20.0,3.45,30.43,92.61,3.0,42.41,,,M,,,GNR,1059449,2023-09-26 08:00:00+00:00,678.0,2.21,,
247873,2023-09-26 09:00:00+00:00,0.0,2023-09-26 08:56,43.0,41.0,,1031.4,30.0,3.45,30.43,92.58,3.0,41.26,,,M,,,GNR,1059453,2023-09-26 09:00:00+00:00,678.0,2.21,,
247874,2023-09-26 10:00:00+00:00,0.0,2023-09-26 09:56,44.0,41.0,,1031.7,0.0,0.0,30.44,89.11,0.0,44.0,,,M,,,GNR,1059457,2023-09-26 10:00:00+00:00,669.0,2.2,,
247875,2023-09-26 11:00:00+00:00,0.0,2023-09-26 10:56,45.0,44.0,,1032.3,330.0,5.75,30.46,96.26,5.0,41.83,,,M,,,GNR,1059461,2023-09-26 11:00:00+00:00,669.0,2.2,,
247876,2023-09-26 12:00:00+00:00,0.0,2023-09-26 11:56,48.0,45.0,,1032.7,320.0,8.05,30.47,89.29,7.0,44.28,,,M,,,GNR,1059465,2023-09-26 12:00:00+00:00,660.0,2.19,,
247877,2023-09-26 13:00:00+00:00,0.0,2023-09-26 12:56,51.0,46.0,,1033.0,320.0,5.75,30.48,82.93,5.0,51.0,,,M,,,GNR,1059469,2023-09-26 13:00:00+00:00,660.0,2.19,,
247878,2023-09-26 14:00:00+00:00,0.0,2023-09-26 13:56,55.0,46.0,,1032.6,,5.75,30.47,71.6,5.0,55.0,,,M,,,GNR,1059473,2023-09-26 14:00:00+00:00,660.0,2.19,,
247879,2023-09-26 15:00:00+00:00,0.0,2023-09-26 14:56,57.0,46.0,,1032.4,340.0,6.9,30.47,66.59,6.0,57.0,,,M,,,GNR,1059477,2023-09-26 15:00:00+00:00,660.0,2.19,,
247880,2023-09-26 16:00:00+00:00,0.0,2023-09-26 15:56,59.0,47.0,,1032.1,,4.6,30.46,64.36,4.0,59.0,,,M,,,GNR,1059481,2023-09-26 16:00:00+00:00,660.0,2.19,2023-09-26 16:00:00+00:00,gs://gcp-public-data-sentinel-2/tiles/19/T/DL/S2A_MSIL1C_20230926T153601_N0509_R111_T19TDL_20230926T191510.SAFE
247881,2023-09-26 17:00:00+00:00,0.0,2023-09-26 16:56,61.0,43.0,,1031.6,10.0,5.75,30.45,51.48,5.0,61.0,,,M,,,GNR,1059485,2023-09-26 17:00:00+00:00,5370.0,4.98,,
247882,2023-09-26 18:00:00+00:00,0.0,2023-09-26 17:56,62.0,44.0,,1030.9,310.0,8.05,30.42,51.63,7.0,62.0,,,M,,,GNR,1059489,2023-09-26 18:00:00+00:00,5440.0,5.01,,
247883,2023-09-26 19:00:00+00:00,0.0,2023-09-26 18:56,63.0,43.0,,1030.1,320.0,8.05,30.4,47.97,7.0,63.0,,15.0,M,,,GNR,1059493,2023-09-26 19:00:00+00:00,4040.0,4.37,,
247884,2023-09-26 20:00:00+00:00,0.0,2023-09-26 19:56,63.0,39.0,,1029.7,350.0,8.05,30.39,41.09,7.0,63.0,,15.0,M,,,GNR,1059497,2023-09-26 20:00:00+00:00,1720.0,3.09,,
247885,2023-09-26 21:00:00+00:00,0.0,2023-09-26 20:56,61.0,42.0,,1029.7,350.0,9.2,30.39,49.54,8.0,61.0,,,M,,,GNR,1059501,2023-09-26 21:00:00+00:00,976.0,2.5,,
247886,2023-09-26 22:00:00+00:00,0.0,2023-09-26 21:56,57.0,43.0,,1029.8,20.0,5.75,30.39,59.4,5.0,57.0,,,M,,,GNR,1059505,2023-09-26 22:00:00+00:00,715.0,2.25,,
247887,2023-09-26 23:00:00+00:00,0.0,2023-09-26 22:56,55.0,41.0,,1029.9,20.0,6.9,30.39,59.13,6.0,55.0,,,M,,,GNR,1059509,2023-09-26 23:00:00+00:00,660.0,2.19,,
247888,2023-09-27 00:00:00+00:00,0.0,2023-09-26 23:56,55.0,41.0,,1030.0,30.0,3.45,30.4,59.13,3.0,55.0,,,M,,,GNR,1059513,2023-09-27 00:00:00+00:00,2370.0,3.5,,
247889,2023-09-27 01:00:00+00:00,0.0,2023-09-27 00:56,51.0,42.0,,1030.2,360.0,3.45,30.4,71.18,3.0,51.0,,,M,,,GNR,1059517,2023-09-27 01:00:00+00:00,8910.0,6.42,,
247890,2023-09-27 02:00:00+00:00,0.0,2023-09-27 01:56,52.0,43.0,,1029.9,350.0,4.6,30.4,71.28,4.0,52.0,,,M,,,GNR,1059521,2023-09-27 02:00:00+00:00,4230.0,4.46,,
247891,2023-09-27 03:00:00+00:00,0.0,2023-09-27 02:56,50.0,47.0,,1030.0,320.0,4.6,30.4,89.37,4.0,50.0,,,M,,,GNR,1059525,2023-09-27 03:00:00+00:00,1660.0,3.05,,
247892,2023-09-27 04:00:00+00:00,0.0,2023-09-27 03:56,50.0,44.0,,1029.8,300.0,4.6,30.4,79.76,4.0,50.0,,,M,,,GNR,1059529,2023-09-27 04:00:00+00:00,953.0,2.48,,
247893,2023-09-27 05:00:00+00:00,0.0,2023-09-27 04:56,50.0,44.0,,1029.8,320.0,6.9,30.4,79.76,6.0,50.0,,,M,,,GNR,1059533,2023-09-27 05:00:00+00:00,715.0,2.25,,
247894,2023-09-27 06:00:00+00:00,0.0,2023-09-27 05:56,50.0,46.0,,1029.7,310.0,4.6,30.39,86.06,4.0,50.0,,,M,,,GNR,1059537,2023-09-27 06:00:00+00:00,660.0,2.19,,
247895,2023-09-27 07:00:00+00:00,0.0,2023-09-27 06:56,48.0,44.0,,1029.3,350.0,5.75,30.38,85.95,5.0,45.4,,,M,,,GNR,1059541,2023-09-27 07:00:00+00:00,651.0,2.18,,
247896,2023-09-27 08:00:00+00:00,0.0,2023-09-27 07:56,47.0,44.0,,1029.4,320.0,6.9,30.38,89.24,6.0,43.6,,,M,,,GNR,1059545,2023-09-27 08:00:00+00:00,651.0,2.18,,
247897,2023-09-27 09:00:00+00:00,0.0,2023-09-27 08:56,48.0,45.0,,1029.4,330.0,6.9,30.38,89.29,6.0,44.8,,,M,,,GNR,1059549,2023-09-27 09:00:00+00:00,642.0,2.17,,
247898,2023-09-27 10:00:00+00:00,0.0,2023-09-27 09:56,45.0,43.0,,1029.7,0.0,0.0,30.38,92.65,0.0,45.0,,,M,,,GNR,1059553,2023-09-27 10:00:00+00:00,642.0,2.17,,
247899,2023-09-27 11:00:00+00:00,0.0,2023-09-27 10:56,46.0,43.0,,1030.0,350.0,5.75,30.39,89.2,5.0,43.02,,,M,,,GNR,1059557,2023-09-27 11:00:00+00:00,642.0,2.17,,
247900,2023-09-27 12:00:00+00:00,0.0,2023-09-27 11:56,50.0,45.0,,1030.2,30.0,4.6,30.4,82.86,4.0,50.0,,,M,,,GNR,1059561,2023-09-27 12:00:00+00:00,625.0,2.15,,
247901,2023-09-27 13:00:00+00:00,0.0,2023-09-27 12:56,53.0,47.0,,1030.3,320.0,4.6,30.41,80.0,4.0,53.0,,,M,,,GNR,1059565,2023-09-27 13:00:00+00:00,616.0,2.14,,
247902,2023-09-27 14:00:00+00:00,0.0,2023-09-27 13:56,56.0,47.0,,1029.9,320.0,6.9,30.4,71.7,6.0,56.0,,,M,,,GNR,1059569,2023-09-27 14:00:00+00:00,616.0,2.14,,
247903,2023-09-27 15:00:00+00:00,0.0,2023-09-27 14:56,59.0,48.0,,1029.8,310.0,5.75,30.4,66.83,5.0,59.0,,,M,,,GNR,1059573,2023-09-27 15:00:00+00:00,616.0,2.14,,
247904,2023-09-27 16:00:00+00:00,0.0,2023-09-27 15:56,63.0,49.0,,1029.5,320.0,5.75,30.39,60.2,5.0,63.0,,,M,,,GNR,1059577,2023-09-27 16:00:00+00:00,616.0,2.14,,
247905,2023-09-27 17:00:00+00:00,0.0,2023-09-27 16:56,64.0,48.0,,1029.0,320.0,5.75,30.37,55.99,5.0,64.0,,,M,,,GNR,1059581,2023-09-27 17:00:00+00:00,5320.0,4.96,,
247906,2023-09-27 18:00:00+00:00,0.0,2023-09-27 17:56,66.0,47.0,,1028.5,,3.45,30.36,50.29,3.0,66.0,,,M,,,GNR,1059585,2023-09-27 18:00:00+00:00,5350.0,4.97,,
247907,2023-09-27 19:00:00+00:00,0.0,2023-09-27 18:56,67.0,47.0,,1028.1,310.0,5.75,30.35,48.58,5.0,67.0,,,M,,,GNR,1059589,2023-09-27 19:00:00+00:00,4040.0,4.37,,
247908,2023-09-27 20:00:00+00:00,0.0,2023-09-27 19:56,68.0,48.0,,1027.6,360.0,4.6,30.34,48.73,4.0,68.0,,,M,,,GNR,1059593,2023-09-27 20:00:00+00:00,1710.0,3.08,,
247909,2023-09-27 21:00:00+00:00,0.0,2023-09-27 20:56,65.0,48.0,,1027.5,360.0,3.45,30.33,54.07,3.0,65.0,,,M,,,GNR,1059597,2023-09-27 21:00:00+00:00,964.0,2.49,,
247910,2023-09-27 22:00:00+00:00,0.0,2023-09-27 21:56,60.0,49.0,,1027.6,0.0,0.0,30.33,66.95,0.0,60.0,,,M,,,GNR,1059601,2023-09-27 22:00:00+00:00,696.0,2.23,,
247911,2023-09-27 23:00:00+00:00,0.0,2023-09-27 22:56,57.0,49.0,,1027.8,130.0,3.45,30.33,74.55,3.0,57.0,,,M,,,GNR,1059605,2023-09-27 23:00:00+00:00,642.0,2.17,,
247912,2023-09-28 00:00:00+00:00,0.0,2023-09-27 23:56,54.0,47.0,,1028.0,0.0,0.0,30.34,77.12,0.0,54.0,,,M,,,GNR,1059609,2023-09-28 00:00:00+00:00,3540.0,4.13,,
247913,2023-09-28 01:00:00+00:00,0.0,2023-09-28 00:56,53.0,47.0,,1028.2,0.0,0.0,30.34,80.0,0.0,53.0,,,M,,,GNR,1059613,2023-09-28 01:00:00+00:00,8830.0,6.39,,
247914,2023-09-28 02:00:00+00:00,0.0,2023-09-28 01:56,53.0,47.0,,1028.1,0.0,0.0,30.34,80.0,0.0,53.0,,,M,,,GNR,1059617,2023-09-28 02:00:00+00:00,8910.0,6.42,,
247915,2023-09-28 03:00:00+00:00,0.0,2023-09-28 02:56,51.0,46.0,,1028.1,0.0,0.0,30.35,82.93,0.0,51.0,,,M,,,GNR,1059621,2023-09-28 03:00:00+00:00,8940.0,6.43,,
247916,2023-09-28 04:00:00+00:00,0.0,2023-09-28 03:56,51.0,46.0,,1027.8,0.0,0.0,30.34,82.93,0.0,51.0,,,M,,,GNR,1059625,2023-09-28 04:00:00+00:00,4080.0,4.39,,
247917,2023-09-28 05:00:00+00:00,0.0,2023-09-28 04:56,50.0,46.0,,1027.7,0.0,0.0,30.34,86.06,0.0,50.0,,,M,,,GNR,1059629,2023-09-28 05:00:00+00:00,1630.0,3.03,,
247918,2023-09-28 06:00:00+00:00,0.0,2023-09-28 05:56,50.0,46.0,,1027.5,20.0,3.45,30.33,86.06,3.0,50.0,,,M,,,GNR,1059633,2023-09-28 06:00:00+00:00,942.0,2.47,,
247919,2023-09-28 07:00:00+00:00,0.0,2023-09-28 06:56,49.0,45.0,,1027.1,40.0,6.9,30.32,86.0,6.0,46.0,,,M,,,GNR,1059637,2023-09-28 07:00:00+00:00,696.0,2.23,,
247920,2023-09-28 08:00:00+00:00,0.0,2023-09-28 07:56,49.0,46.0,,1027.1,0.0,0.0,30.32,89.33,0.0,49.0,,,M,,,GNR,1059641,2023-09-28 08:00:00+00:00,651.0,2.18,,
247921,2023-09-28 09:00:00+00:00,0.0,2023-09-28 08:56,48.0,46.0,,1027.3,20.0,3.45,30.32,92.74,3.0,46.98,,,M,,,GNR,1059645,2023-09-28 09:00:00+00:00,642.0,2.17,,
247922,2023-09-28 10:00:00+00:00,0.0,2023-09-28 09:56,48.0,46.0,,1027.5,20.0,4.6,30.33,92.74,4.0,46.1,,,M,,,GNR,1059649,2023-09-28 10:00:00+00:00,633.0,2.16,,
247923,2023-09-28 11:00:00+00:00,0.0,2023-09-28 10:56,48.0,47.0,,1027.7,40.0,4.6,30.33,96.31,4.0,46.1,,,M,,,GNR,1059653,2023-09-28 11:00:00+00:00,633.0,2.16,,
247924,2023-09-28 12:00:00+00:00,0.0,2023-09-28 11:56,51.0,48.0,,1028.1,20.0,3.45,30.34,89.42,3.0,51.0,,,M,,,GNR,1059657,2023-09-28 12:00:00+00:00,625.0,2.15,,
247925,2023-09-28 13:00:00+00:00,0.0,2023-09-28 12:56,54.0,51.0,,1028.3,0.0,0.0,30.35,89.55,0.0,54.0,,,M,,,GNR,1059661,2023-09-28 13:00:00+00:00,625.0,2.15,,
247926,2023-09-28 14:00:00+00:00,0.0,2023-09-28 13:56,59.0,52.0,,1028.3,0.0,0.0,30.35,77.55,0.0,59.0,,,M,,,GNR,1059665,2023-09-28 14:00:00+00:00,608.0,2.13,,
247927,2023-09-28 15:00:00+00:00,0.0,2023-09-28 14:56,64.0,52.0,,1027.7,,3.45,30.34,64.97,3.0,64.0,,,M,,,GNR,1059669,2023-09-28 15:00:00+00:00,599.0,2.12,,
247928,2023-09-28 16:00:00+00:00,0.0,2023-09-28 15:56,66.0,51.0,,1027.6,,3.45,30.34,58.4,3.0,66.0,,,M,,,GNR,1059673,2023-09-28 16:00:00+00:00,599.0,2.12,,
247929,2023-09-28 17:00:00+00:00,0.0,2023-09-28 16:56,68.0,50.0,,1027.1,310.0,4.6,30.32,52.51,4.0,68.0,,,M,,,GNR,1059677,2023-09-28 17:00:00+00:00,5300.0,4.95,,
247930,2023-09-28 18:00:00+00:00,0.0,2023-09-28 17:56,69.0,50.0,,1026.6,,3.45,30.31,50.74,3.0,69.0,,,M,,,GNR,1059681,2023-09-28 18:00:00+00:00,5320.0,4.96,,
247931,2023-09-28 19:00:00+00:00,0.0,2023-09-28 18:56,71.0,51.0,,1026.1,20.0,5.75,30.3,49.18,5.0,71.0,,,M,,,GNR,1059685,2023-09-28 19:00:00+00:00,4020.0,4.36,,
247932,2023-09-28 20:00:00+00:00,0.0,2023-09-28 19:56,70.0,51.0,,1025.8,0.0,0.0,30.29,50.89,0.0,70.0,,,M,,,GNR,1059689,2023-09-28 20:00:00+00:00,1710.0,3.08,,
247933,2023-09-28 21:00:00+00:00,0.0,2023-09-28 20:56,68.0,52.0,,1025.7,150.0,4.6,30.28,56.55,4.0,68.0,,,M,,,GNR,1059693,2023-09-28 21:00:00+00:00,953.0,2.48,,
247934,2023-09-28 22:00:00+00:00,0.0,2023-09-28 21:56,63.0,51.0,,1026.1,180.0,3.45,30.29,64.85,3.0,63.0,,,M,,,GNR,1059697,2023-09-28 22:00:00+00:00,687.0,2.22,,
247935,2023-09-28 23:00:00+00:00,0.0,2023-09-28 22:56,58.0,50.0,,1026.3,0.0,0.0,30.29,74.64,0.0,58.0,,,M,,,GNR,1059701,2023-09-28 23:00:00+00:00,633.0,2.16,,
247936,2023-09-29 00:00:00+00:00,0.0,2023-09-28 23:56,56.0,49.0,,1026.5,120.0,3.45,30.3,77.29,3.0,56.0,,,M,,,GNR,1059705,2023-09-29 00:00:00+00:00,1900.0,3.21,,
247937,2023-09-29 01:00:00+00:00,0.0,2023-09-29 00:56,55.0,50.0,,1026.9,0.0,0.0,30.31,83.2,0.0,55.0,,,M,,,GNR,1059709,2023-09-29 01:00:00+00:00,8830.0,6.39,,
247938,2023-09-29 02:00:00+00:00,0.0,2023-09-29 01:56,54.0,50.0,,1026.5,100.0,3.45,30.3,86.29,3.0,54.0,,,M,,,GNR,1059713,2023-09-29 02:00:00+00:00,8910.0,6.42,,
247939,2023-09-29 03:00:00+00:00,0.0,2023-09-29 02:56,53.0,49.0,,1026.5,0.0,0.0,30.3,86.23,0.0,53.0,,,M,,,GNR,1059717,2023-09-29 03:00:00+00:00,8960.0,6.44,,
247940,2023-09-29 04:00:00+00:00,0.0,2023-09-29 03:56,52.0,48.0,,1026.2,0.0,0.0,30.29,86.17,0.0,52.0,,,M,,,GNR,1059721,2023-09-29 04:00:00+00:00,4210.0,4.45,,
247941,2023-09-29 05:00:00+00:00,0.0,2023-09-29 04:56,52.0,49.0,,1026.0,0.0,0.0,30.29,89.46,0.0,52.0,,,M,,,GNR,1059725,2023-09-29 05:00:00+00:00,1650.0,3.04,,
247942,2023-09-29 06:00:00+00:00,0.0,2023-09-29 05:56,52.0,48.0,,1025.8,0.0,0.0,30.29,86.17,0.0,52.0,,,M,,,GNR,1059729,2023-09-29 06:00:00+00:00,930.0,2.46,,
247943,2023-09-29 07:00:00+00:00,0.0,2023-09-29 06:56,51.0,48.0,,1025.5,0.0,0.0,30.28,89.42,0.0,51.0,,,M,,,GNR,1059733,2023-09-29 07:00:00+00:00,678.0,2.21,,
247944,2023-09-29 08:00:00+00:00,0.0,2023-09-29 07:56,51.0,47.0,,1025.4,0.0,0.0,30.27,86.12,0.0,51.0,,,M,,,GNR,1059737,2023-09-29 08:00:00+00:00,625.0,2.15,,
247945,2023-09-29 09:00:00+00:00,0.0,2023-09-29 08:56,51.0,47.0,,1025.3,0.0,0.0,30.27,86.12,0.0,51.0,,,M,,,GNR,1059741,2023-09-29 09:00:00+00:00,616.0,2.14,,
247946,2023-09-29 10:00:00+00:00,0.0,2023-09-29 09:56,50.0,46.0,,1025.5,0.0,0.0,30.27,86.06,0.0,50.0,,,M,,,GNR,1059745,2023-09-29 10:00:00+00:00,608.0,2.13,,
247947,2023-09-29 11:00:00+00:00,0.0,2023-09-29 10:56,50.0,45.0,,1026.1,120.0,3.45,30.28,82.86,3.0,50.0,,,M,,,GNR,1059749,2023-09-29 11:00:00+00:00,608.0,2.13,,
247948,2023-09-29 12:00:00+00:00,0.0,2023-09-29 11:56,53.0,47.0,,1026.3,120.0,4.6,30.29,80.0,4.0,53.0,,,M,,,GNR,1059753,2023-09-29 12:00:00+00:00,599.0,2.12,,
247949,2023-09-29 13:00:00+00:00,0.0,2023-09-29 12:56,55.0,50.0,,1026.4,0.0,0.0,30.3,83.2,0.0,55.0,,,M,,,GNR,1059757,2023-09-29 13:00:00+00:00,599.0,2.12,,
247950,2023-09-29 14:00:00+00:00,0.0,2023-09-29 13:56,57.0,50.0,,1026.6,140.0,5.75,30.3,77.38,5.0,57.0,,,M,,,GNR,1059761,2023-09-29 14:00:00+00:00,599.0,2.12,,
247951,2023-09-29 15:00:00+00:00,0.0,2023-09-29 14:56,59.0,48.0,,1026.4,0.0,0.0,30.3,66.83,0.0,59.0,,,M,,,GNR,1059765,2023-09-29 15:00:00+00:00,599.0,2.12,,
247952,2023-09-29 16:00:00+00:00,0.0,2023-09-29 15:56,61.0,50.0,,1025.9,0.0,0.0,30.28,67.06,0.0,61.0,,,M,,,GNR,1059769,2023-09-29 16:00:00+00:00,591.0,2.11,2023-09-29 16:00:00+00:00,gs://gcp-public-data-sentinel-2/tiles/19/T/DL/S2A_MSIL1C_20230929T154031_N0509_R011_T19TDL_20230929T205934.SAFE
247953,2023-09-29 17:00:00+00:00,0.0,2023-09-29 16:56,61.0,51.0,,1025.5,0.0,0.0,30.27,69.6,0.0,61.0,,,M,,,GNR,1059773,2023-09-29 17:00:00+00:00,5320.0,4.96,,
247954,2023-09-29 18:00:00+00:00,0.0,2023-09-29 17:56,63.0,53.0,,1025.0,0.0,0.0,30.26,69.82,0.0,63.0,,,M,,,GNR,1059777,2023-09-29 18:00:00+00:00,5350.0,4.97,,
247955,2023-09-29 19:00:00+00:00,0.0,2023-09-29 18:56,62.0,51.0,,1024.9,130.0,5.75,30.25,67.18,5.0,62.0,,,M,,,GNR,1059781,2023-09-29 19:00:00+00:00,4040.0,4.37,,
247956,2023-09-29 20:00:00+00:00,0.0,2023-09-29 19:56,61.0,50.0,,1024.6,120.0,5.75,30.24,67.06,5.0,61.0,,,M,,,GNR,1059785,2023-09-29 20:00:00+00:00,1690.0,3.07,,
247957,2023-09-29 21:00:00+00:00,0.0,2023-09-29 20:56,60.0,51.0,,1024.7,,4.6,30.25,72.12,4.0,60.0,,,M,,,GNR,1059789,2023-09-29 21:00:00+00:00,942.0,2.47,,
247958,2023-09-29 22:00:00+00:00,0.0,2023-09-29 21:56,58.0,51.0,,1024.7,130.0,3.45,30.24,77.47,3.0,58.0,,,M,,,GNR,1059793,2023-09-29 22:00:00+00:00,669.0,2.2,,
247959,2023-09-29 23:00:00+00:00,0.0,2023-09-29 22:56,56.0,52.0,,1024.6,140.0,3.45,30.24,86.4,3.0,56.0,,,M,,,GNR,1059797,2023-09-29 23:00:00+00:00,1130.0,2.64,,
247960,2023-09-30 00:00:00+00:00,0.0,2023-09-29 23:56,54.0,51.0,,1024.6,110.0,3.45,30.24,89.55,3.0,54.0,,,M,,,GNR,1059801,2023-09-30 00:00:00+00:00,8880.0,6.41,,
247961,2023-09-30 01:00:00+00:00,0.0,2023-09-30 00:56,53.0,51.0,,1025.1,0.0,0.0,30.25,92.89,0.0,53.0,,,M,,,GNR,1059805,2023-09-30 01:00:00+00:00,8960.0,6.44,,
247962,2023-09-30 02:00:00+00:00,0.0,2023-09-30 01:56,52.0,49.0,,1024.9,0.0,0.0,30.25,89.46,0.0,52.0,,,M,,,GNR,1059809,2023-09-30 02:00:00+00:00,8940.0,6.43,,
247963,2023-09-30 03:00:00+00:00,0.0,2023-09-30 02:56,52.0,49.0,,1024.9,30.0,4.6,30.25,89.46,4.0,52.0,,,M,,,GNR,1059813,2023-09-30 03:00:00+00:00,4300.0,4.49,,
247964,2023-09-30 04:00:00+00:00,0.0,2023-09-30 03:56,51.0,49.0,,1024.6,0.0,0.0,30.24,92.83,0.0,51.0,,,M,,,GNR,1059817,2023-09-30 04:00:00+00:00,1660.0,3.05,,
247965,2023-09-30 05:00:00+00:00,0.0,2023-09-30 04:56,53.0,50.0,,1024.2,360.0,3.45,30.23,89.51,3.0,53.0,,,M,,,GNR,1059821,2023-09-30 05:00:00+00:00,930.0,2.46,,
247966,2023-09-30 06:00:00+00:00,0.0,2023-09-30 05:56,51.0,48.0,,1023.5,50.0,4.6,30.21,89.42,4.0,51.0,,,M,,,GNR,1059825,2023-09-30 06:00:00+00:00,678.0,2.21,,
247967,2023-09-30 07:00:00+00:00,0.0,2023-09-30 06:56,50.0,48.0,,1023.3,30.0,3.45,30.21,92.8,3.0,50.0,,,M,,,GNR,1059829,2023-09-30 07:00:00+00:00,616.0,2.14,,
247968,2023-09-30 08:00:00+00:00,0.0,2023-09-30 07:56,50.0,48.0,,1023.0,50.0,3.45,30.19,92.8,3.0,50.0,,,M,,,GNR,1059833,2023-09-30 08:00:00+00:00,608.0,2.13,,
247969,2023-09-30 09:00:00+00:00,0.0,2023-09-30 08:56,49.0,47.0,,1022.9,0.0,0.0,30.19,92.77,0.0,49.0,,,M,,,GNR,1059837,2023-09-30 09:00:00+00:00,599.0,2.12,,
247970,2023-09-30 10:00:00+00:00,0.0,2023-09-30 09:56,50.0,48.0,,1023.1,0.0,0.0,30.2,92.8,0.0,50.0,,,M,,,GNR,1059841,2023-09-30 10:00:00+00:00,599.0,2.12,,
247971,2023-09-30 11:00:00+00:00,0.0,2023-09-30 10:56,50.0,47.0,,1024.2,0.0,0.0,30.23,89.37,0.0,50.0,,,M,,,GNR,1059845,2023-09-30 11:00:00+00:00,599.0,2.12,,
247972,2023-09-30 12:00:00+00:00,0.0,2023-09-30 11:56,51.0,49.0,,1025.1,360.0,3.45,30.25,92.83,3.0,51.0,,,M,,,GNR,1059849,2023-09-30 12:00:00+00:00,599.0,2.12,,
247973,2023-09-30 13:00:00+00:00,0.0,2023-09-30 12:56,52.0,51.0,,1024.7,30.0,4.6,30.24,96.37,4.0,52.0,,,M,,,GNR,1059853,2023-09-30 13:00:00+00:00,591.0,2.11,,
247974,2023-09-30 14:00:00+00:00,0.0,2023-09-30 13:56,57.0,54.0,,1024.4,320.0,3.45,30.24,89.68,3.0,57.0,,,M,,,GNR,1059857,2023-09-30 14:00:00+00:00,591.0,2.11,,
247975,2023-09-30 15:00:00+00:00,0.0,2023-09-30 14:56,61.0,54.0,,1024.2,40.0,3.45,30.23,77.72,3.0,61.0,,,M,,,GNR,1059861,2023-09-30 15:00:00+00:00,591.0,2.11,,
247976,2023-09-30 16:00:00+00:00,0.0,2023-09-30 15:56,64.0,54.0,,1023.7,50.0,4.6,30.22,69.92,4.0,64.0,,,M,,,GNR,1059865,2023-09-30 16:00:00+00:00,591.0,2.11,,
247977,2023-09-30 17:00:00+00:00,0.0,2023-09-30 16:56,66.0,53.0,,1023.2,10.0,8.05,30.21,62.87,7.0,66.0,,,M,,,GNR,1059869,2023-09-30 17:00:00+00:00,5300.0,4.95,,
247978,2023-09-30 18:00:00+00:00,0.0,2023-09-30 17:56,68.0,52.0,,1022.6,20.0,4.6,30.19,56.55,4.0,68.0,,,M,,,GNR,1059873,2023-09-30 18:00:00+00:00,5350.0,4.97,,
247979,2023-09-30 19:00:00+00:00,0.0,2023-09-30 18:56,69.0,52.0,,1022.3,330.0,4.6,30.18,54.64,4.0,69.0,,,M,,,GNR,1059877,2023-09-30 19:00:00+00:00,3980.0,4.34,,
247980,2023-09-30 20:00:00+00:00,0.0,2023-09-30 19:56,70.0,53.0,,1021.8,30.0,4.6,30.17,54.78,4.0,70.0,,,M,,,GNR,1059881,2023-09-30 20:00:00+00:00,1680.0,3.06,,
247981,2023-09-30 21:00:00+00:00,0.0,2023-09-30 20:56,64.0,54.0,,1022.4,150.0,6.9,30.18,69.92,6.0,64.0,,,M,,,GNR,1059885,2023-09-30 21:00:00+00:00,930.0,2.46,,
247982,2023-09-30 22:00:00+00:00,0.0,2023-09-30 21:56,60.0,53.0,,1022.9,140.0,5.75,30.19,77.64,5.0,60.0,,,M,,,GNR,1059889,2023-09-30 22:00:00+00:00,660.0,2.19,,
247983,2023-09-30 23:00:00+00:00,0.0,2023-09-30 22:56,57.0,52.0,,1023.1,0.0,0.0,30.2,83.33,0.0,57.0,,,M,,,GNR,1059893,2023-09-30 23:00:00+00:00,651.0,2.18,,
247984,2023-10-01 00:00:00+00:00,0.0,2023-09-30 23:56,54.0,51.0,,1022.9,0.0,0.0,30.19,89.55,0.0,54.0,,,M,,,GNR,1059897,2023-10-01 00:00:00+00:00,8910.0,6.42,,
247985,2023-10-01 01:00:00+00:00,0.0,2023-10-01 00:56,53.0,51.0,,1023.2,0.0,0.0,30.2,92.89,0.0,53.0,,,M,,,GNR,1059901,2023-10-01 01:00:00+00:00,8960.0,6.44,,
247986,2023-10-01 02:00:00+00:00,0.0,2023-10-01 01:56,55.0,51.0,,1023.1,320.0,3.45,30.2,86.34,3.0,55.0,,,M,,,GNR,1059905,2023-10-01 02:00:00+00:00,9010.0,6.46,,
247987,2023-10-01 03:00:00+00:00,0.0,2023-10-01 02:56,53.0,50.0,,1023.0,20.0,4.6,30.2,89.51,4.0,53.0,,,M,,,GNR,1059909,2023-10-01 03:00:00+00:00,4340.0,4.51,,
247988,2023-10-01 04:00:00+00:00,0.0,2023-10-01 03:56,53.0,51.0,,1022.6,20.0,3.45,30.19,92.89,3.0,53.0,,,M,,,GNR,1059913,2023-10-01 04:00:00+00:00,1660.0,3.05,,
247989,2023-10-01 05:00:00+00:00,0.0,2023-10-01 04:56,52.0,50.0,,1022.6,0.0,0.0,30.19,92.86,0.0,52.0,,,M,,,GNR,1059917,2023-10-01 05:00:00+00:00,930.0,2.46,,
247990,2023-10-01 06:00:00+00:00,0.0,2023-10-01 05:56,52.0,50.0,,1022.1,30.0,5.75,30.18,92.86,5.0,52.0,,,M,,,GNR,1059921,2023-10-01 06:00:00+00:00,669.0,2.2,,
247991,2023-10-01 07:00:00+00:00,0.0,2023-10-01 06:56,56.0,52.0,,1021.7,340.0,9.2,30.17,86.4,8.0,56.0,,,M,,,GNR,1059925,2023-10-01 07:00:00+00:00,616.0,2.14,,
247992,2023-10-01 08:00:00+00:00,0.0,2023-10-01 07:56,55.0,51.0,,1021.6,340.0,9.2,30.17,86.34,8.0,55.0,,,M,,,GNR,1059929,2023-10-01 08:00:00+00:00,599.0,2.12,,
247993,2023-10-01 09:00:00+00:00,0.0,2023-10-01 08:56,54.0,51.0,,1022.0,330.0,9.2,30.17,89.55,8.0,54.0,,,M,,,GNR,1059933,2023-10-01 09:00:00+00:00,591.0,2.11,,
247994,2023-10-01 10:00:00+00:00,0.0,2023-10-01 09:56,55.0,51.0,,1022.2,340.0,8.05,30.18,86.34,7.0,55.0,,,M,,,GNR,1059937,2023-10-01 10:00:00+00:00,591.0,2.11,,
247995,2023-10-01 11:00:00+00:00,0.0,2023-10-01 10:56,55.0,50.0,,1022.9,340.0,8.05,30.19,83.2,7.0,55.0,,,M,,,GNR,1059941,2023-10-01 11:00:00+00:00,591.0,2.11,,
247996,2023-10-01 12:00:00+00:00,0.0,2023-10-01 11:56,57.0,51.0,,1023.3,330.0,6.9,30.2,80.31,6.0,57.0,,,M,,,GNR,1059945,2023-10-01 12:00:00+00:00,582.0,2.1,,
247997,2023-10-01 13:00:00+00:00,0.0,2023-10-01 12:56,60.0,53.0,,1023.2,320.0,5.75,30.2,77.64,5.0,60.0,,,M,,,GNR,1059949,2023-10-01 13:00:00+00:00,582.0,2.1,,
247998,2023-10-01 14:00:00+00:00,0.0,2023-10-01 13:56,63.0,54.0,,1023.1,10.0,5.75,30.2,72.42,5.0,63.0,,,M,,,GNR,1059953,2023-10-01 14:00:00+00:00,582.0,2.1,,
247999,2023-10-01 15:00:00+00:00,0.0,2023-10-01 14:56,65.0,55.0,,1022.5,,3.45,30.19,70.03,3.0,65.0,,,M,,,GNR,1059957,2023-10-01 15:00:00+00:00,574.0,2.09,,
248000,2023-10-01 16:00:00+00:00,0.0,2023-10-01 15:56,68.0,56.0,,1022.2,,6.9,30.18,65.45,6.0,68.0,,,M,,,GNR,1059961,2023-10-01 16:00:00+00:00,582.0,2.1,2023-10-01 16:00:00+00:00,gs://gcp-public-data-sentinel-2/tiles/19/T/DL/S2B_MSIL1C_20231001T153559_N0509_R111_T19TDL_20231001T191054.SAFE
248001,2023-10-01 17:00:00+00:00,0.0,2023-10-01 16:56,70.0,55.0,,1022.0,330.0,6.9,30.18,58.94,6.0,70.0,,,M,,,GNR,1059965,2023-10-01 17:00:00+00:00,5320.0,4.96,,
248002,2023-10-01 18:00:00+00:00,0.0,2023-10-01 17:56,72.0,53.0,,1021.2,340.0,11.5,30.16,51.18,10.0,72.0,,16.0,M,,,GNR,1059969,2023-10-01 18:00:00+00:00,5350.0,4.97,,
248003,2023-10-01 19:00:00+00:00,0.0,2023-10-01 18:56,73.0,54.0,,1020.8,,,30.15,51.33,,73.0,,,M,,,GNR,1059973,2023-10-01 19:00:00+00:00,4060.0,4.38,,
248004,2023-10-01 20:00:00+00:00,0.0,2023-10-01 19:56,73.0,55.0,,1020.6,340.0,8.05,30.14,53.23,7.0,73.0,,,M,,,GNR,1059977,2023-10-01 20:00:00+00:00,1690.0,3.07,,
248005,2023-10-01 21:00:00+00:00,0.0,2023-10-01 20:56,71.0,56.0,,1020.6,10.0,8.05,30.14,59.07,7.0,71.0,,,M,,,GNR,1059981,2023-10-01 21:00:00+00:00,942.0,2.47,,
248006,2023-10-01 22:00:00+00:00,0.0,2023-10-01 21:56,67.0,57.0,,1021.4,20.0,9.2,30.16,70.24,8.0,67.0,,,M,,,GNR,1059985,2023-10-01 22:00:00+00:00,669.0,2.2,,
248007,2023-10-01 23:00:00+00:00,0.0,2023-10-01 22:56,64.0,56.0,,1021.7,10.0,6.9,30.17,75.2,6.0,64.0,,,M,,,GNR,1059989,2023-10-01 23:00:00+00:00,2490.0,3.57,,
248008,2023-10-02 00:00:00+00:00,0.0,2023-10-01 23:56,62.0,55.0,,1022.2,340.0,8.05,30.18,77.81,7.0,62.0,,,M,,,GNR,1059993,2023-10-02 00:00:00+00:00,8880.0,6.41,,
248009,2023-10-02 01:00:00+00:00,0.0,2023-10-02 00:56,61.0,49.0,,1022.5,10.0,11.5,30.19,64.61,10.0,61.0,,17.0,M,,,GNR,1059997,2023-10-02 01:00:00+00:00,8960.0,6.44,,
248010,2023-10-02 02:00:00+00:00,0.0,2023-10-02 01:56,60.0,47.0,,1022.8,360.0,8.05,30.2,62.11,7.0,60.0,,,M,,,GNR,1060001,2023-10-02 02:00:00+00:00,4190.0,4.44,,
248011,2023-10-02 03:00:00+00:00,0.0,2023-10-02 02:56,57.0,47.0,,1022.5,,4.6,30.19,69.16,4.0,57.0,,,M,,,GNR,1060005,2023-10-02 03:00:00+00:00,1620.0,3.02,,
248012,2023-10-02 04:00:00+00:00,0.0,2023-10-02 03:56,54.0,49.0,,1022.7,350.0,6.9,30.19,83.13,6.0,54.0,,,M,,,GNR,1060009,2023-10-02 04:00:00+00:00,908.0,2.44,,
248013,2023-10-02 05:00:00+00:00,0.0,2023-10-02 04:56,53.0,48.0,,1022.7,350.0,4.6,30.2,83.06,4.0,53.0,,,M,,,GNR,1060013,2023-10-02 05:00:00+00:00,660.0,2.19,,
248014,2023-10-02 06:00:00+00:00,0.0,2023-10-02 05:56,52.0,47.0,,1022.8,330.0,8.05,30.2,82.99,7.0,52.0,,,M,,,GNR,1060017,2023-10-02 06:00:00+00:00,599.0,2.12,,
248015,2023-10-02 07:00:00+00:00,0.0,2023-10-02 06:56,53.0,46.0,,1023.0,350.0,6.9,30.21,77.03,6.0,53.0,,,M,,,GNR,1060021,2023-10-02 07:00:00+00:00,591.0,2.11,,
248016,2023-10-02 08:00:00+00:00,0.0,2023-10-02 07:56,50.0,44.0,,1023.1,0.0,0.0,30.21,79.76,0.0,50.0,,,M,,,GNR,1060025,2023-10-02 08:00:00+00:00,582.0,2.1,,
248017,2023-10-02 09:00:00+00:00,0.0,2023-10-02 08:56,50.0,44.0,,1023.3,330.0,5.75,30.21,79.76,5.0,50.0,,,M,,,GNR,1060029,2023-10-02 09:00:00+00:00,582.0,2.1,,
248018,2023-10-02 10:00:00+00:00,0.0,2023-10-02 09:56,50.0,46.0,,1023.5,320.0,5.75,30.22,86.06,5.0,50.0,,,M,,,GNR,1060033,2023-10-02 10:00:00+00:00,574.0,2.09,,
248019,2023-10-02 11:00:00+00:00,0.0,2023-10-02 10:56,50.0,46.0,,1023.6,330.0,5.75,30.22,86.06,5.0,50.0,,,M,,,GNR,1060037,2023-10-02 11:00:00+00:00,574.0,2.09,,
248020,2023-10-02 12:00:00+00:00,0.0,2023-10-02 11:56,54.0,49.0,,1023.9,340.0,3.45,30.23,83.13,3.0,54.0,,,M,,,GNR,1060041,2023-10-02 12:00:00+00:00,574.0,2.09,,
248021,2023-10-02 13:00:00+00:00,0.0,2023-10-02 12:56,58.0,48.0,,1024.0,360.0,3.45,30.23,69.27,3.0,58.0,,,M,,,GNR,1060045,2023-10-02 13:00:00+00:00,574.0,2.09,,
248022,2023-10-02 14:00:00+00:00,0.0,2023-10-02 13:56,61.0,50.0,,1024.1,,4.6,30.24,67.06,4.0,61.0,,,M,,,GNR,1060049,2023-10-02 14:00:00+00:00,566.0,2.08,,
248023,2023-10-02 15:00:00+00:00,0.0,2023-10-02 14:56,63.0,49.0,,1023.8,0.0,0.0,30.23,60.2,0.0,63.0,,,M,,,GNR,1060053,2023-10-02 15:00:00+00:00,566.0,2.08,,
248024,2023-10-02 16:00:00+00:00,0.0,2023-10-02 15:56,65.0,48.0,,1023.2,,3.45,30.21,54.07,3.0,65.0,,,M,,,GNR,1060057,2023-10-02 16:00:00+00:00,566.0,2.08,,
248025,2023-10-02 17:00:00+00:00,0.0,2023-10-02 16:56,67.0,46.0,,1022.8,,5.75,30.2,46.78,5.0,67.0,,,M,,,GNR,1060061,2023-10-02 17:00:00+00:00,5260.0,4.93,,
248026,2023-10-02 18:00:00+00:00,0.0,2023-10-02 17:56,68.0,45.0,,1022.3,,3.45,30.18,43.51,3.0,68.0,,,M,,,GNR,1060065,2023-10-02 18:00:00+00:00,5280.0,4.94,,
248027,2023-10-02 19:00:00+00:00,0.0,2023-10-02 18:56,68.0,43.0,,1022.4,,3.45,30.19,40.31,3.0,68.0,,,M,,,GNR,1060069,2023-10-02 19:00:00+00:00,3950.0,4.33,,
248028,2023-10-02 20:00:00+00:00,0.0,2023-10-02 19:56,70.0,43.0,,1021.7,0.0,0.0,30.17,37.64,0.0,70.0,,,M,,,GNR,1060073,2023-10-02 20:00:00+00:00,1660.0,3.05,,
248029,2023-10-02 21:00:00+00:00,0.0,2023-10-02 20:56,67.0,40.0,,1021.4,330.0,3.45,30.16,37.16,3.0,67.0,,,M,,,GNR,1060077,2023-10-02 21:00:00+00:00,919.0,2.45,,
248030,2023-10-02 22:00:00+00:00,0.0,2023-10-02 21:56,62.0,42.0,,1020.9,0.0,0.0,30.14,47.82,0.0,62.0,,,M,,,GNR,1060081,2023-10-02 22:00:00+00:00,651.0,2.18,,
248031,2023-10-02 23:00:00+00:00,0.0,2023-10-02 22:56,58.0,44.0,,1021.1,0.0,0.0,30.14,59.54,0.0,58.0,,,M,,,GNR,1060085,2023-10-02 23:00:00+00:00,1960.0,3.25,,
248032,2023-10-03 00:00:00+00:00,0.0,2023-10-02 23:56,56.0,45.0,,1020.8,0.0,0.0,30.13,66.48,0.0,56.0,,,M,,,GNR,1060089,2023-10-03 00:00:00+00:00,8830.0,6.39,,
248033,2023-10-03 01:00:00+00:00,0.0,2023-10-03 00:56,58.0,43.0,,1020.3,0.0,0.0,30.12,57.3,0.0,58.0,,,M,,,GNR,1060093,2023-10-03 01:00:00+00:00,8990.0,6.45,,
248034,2023-10-03 02:00:00+00:00,0.0,2023-10-03 01:56,55.0,43.0,,1019.4,0.0,0.0,30.1,63.86,0.0,55.0,,,M,,,GNR,1060097,2023-10-03 02:00:00+00:00,8960.0,6.44,,
248035,2023-10-03 03:00:00+00:00,0.0,2023-10-03 02:56,54.0,42.0,,1019.3,0.0,0.0,30.09,63.74,0.0,54.0,,,M,,,GNR,1060101,2023-10-03 03:00:00+00:00,4260.0,4.47,,
248036,2023-10-03 04:00:00+00:00,0.0,2023-10-03 03:56,53.0,43.0,,1019.0,0.0,0.0,30.09,68.71,0.0,53.0,,,M,,,GNR,1060105,2023-10-03 04:00:00+00:00,1630.0,3.03,,
248037,2023-10-03 05:00:00+00:00,0.0,2023-10-03 04:56,51.0,44.0,,1018.8,0.0,0.0,30.08,76.85,0.0,51.0,,,M,,,GNR,1060109,2023-10-03 05:00:00+00:00,908.0,2.44,,
248038,2023-10-03 06:00:00+00:00,0.0,2023-10-03 05:56,55.0,46.0,,1019.2,0.0,0.0,30.1,71.6,0.0,55.0,,,M,,,GNR,1060113,2023-10-03 06:00:00+00:00,651.0,2.18,,
248039,2023-10-03 07:00:00+00:00,0.0,2023-10-03 06:56,57.0,45.0,,1017.9,310.0,3.45,30.06,64.12,3.0,57.0,,,M,,,GNR,1060117,2023-10-03 07:00:00+00:00,591.0,2.11,,
248040,2023-10-03 08:00:00+00:00,0.0,2023-10-03 07:56,58.0,47.0,,1017.4,300.0,4.6,30.05,66.71,4.0,58.0,,,M,,,GNR,1060121,2023-10-03 08:00:00+00:00,582.0,2.1,,
248041,2023-10-03 09:00:00+00:00,0.0,2023-10-03 08:56,55.0,47.0,,1017.1,0.0,0.0,30.03,74.36,0.0,55.0,,,M,,,GNR,1060125,2023-10-03 09:00:00+00:00,574.0,2.09,,
248042,2023-10-03 10:00:00+00:00,0.0,2023-10-03 09:56,55.0,46.0,,1016.6,0.0,0.0,30.02,71.6,0.0,55.0,,,M,,,GNR,1060129,2023-10-03 10:00:00+00:00,566.0,2.08,,
248043,2023-10-03 11:00:00+00:00,0.0,2023-10-03 10:56,56.0,48.0,,1017.0,0.0,0.0,30.02,74.45,0.0,56.0,,,M,,,GNR,1060133,2023-10-03 11:00:00+00:00,566.0,2.08,,
248044,2023-10-03 12:00:00+00:00,0.0,2023-10-03 11:56,63.0,54.0,,1017.1,330.0,5.75,30.03,72.42,5.0,63.0,,,M,,,GNR,1060137,2023-10-03 12:00:00+00:00,566.0,2.08,,
248045,2023-10-03 13:00:00+00:00,0.0,2023-10-03 12:56,66.0,56.0,,1017.0,320.0,11.5,30.03,70.14,10.0,66.0,,18.0,M,,,GNR,1060141,2023-10-03 13:00:00+00:00,566.0,2.08,,
248046,2023-10-03 14:00:00+00:00,0.0,2023-10-03 13:56,69.0,58.0,,1017.1,320.0,10.35,30.03,67.97,9.0,69.0,,17.0,M,,,GNR,1060145,2023-10-03 14:00:00+00:00,566.0,2.08,,
248047,2023-10-03 15:00:00+00:00,0.0,2023-10-03 14:56,72.0,59.0,,1017.0,300.0,8.05,30.03,63.61,7.0,72.0,,15.0,M,,,GNR,1060149,2023-10-03 15:00:00+00:00,566.0,2.08,,
248048,2023-10-03 16:00:00+00:00,0.0,2023-10-03 15:56,74.0,60.0,,1017.1,320.0,11.5,30.04,61.62,10.0,74.0,,17.0,M,,,GNR,1060153,2023-10-03 16:00:00+00:00,558.0,2.07,,
248049,2023-10-03 17:00:00+00:00,0.0,2023-10-03 16:56,76.0,61.0,,1017.1,310.0,10.35,30.04,59.72,9.0,76.0,,19.0,M,,,GNR,1060157,2023-10-03 17:00:00+00:00,5300.0,4.95,,
248050,2023-10-03 18:00:00+00:00,0.0,2023-10-03 17:56,78.0,62.0,,1016.6,310.0,10.35,30.03,57.9,9.0,78.0,,17.0,M,,,GNR,1060161,2023-10-03 18:00:00+00:00,5320.0,4.96,,
248051,2023-10-03 19:00:00+00:00,0.0,2023-10-03 18:56,78.0,61.0,,1016.5,320.0,12.65,30.03,55.89,11.0,78.0,,18.0,M,,,GNR,1060165,2023-10-03 19:00:00+00:00,3950.0,4.33,,
248052,2023-10-03 20:00:00+00:00,0.0,2023-10-03 19:56,77.0,61.0,,1016.7,330.0,10.35,30.03,57.77,9.0,77.0,,,M,,,GNR,1060169,2023-10-03 20:00:00+00:00,1660.0,3.05,,
248053,2023-10-03 21:00:00+00:00,0.0,2023-10-03 20:56,76.0,61.0,,1017.0,340.0,6.9,30.04,59.72,6.0,76.0,,,M,,,GNR,1060173,2023-10-03 21:00:00+00:00,908.0,2.44,,
248054,2023-10-03 22:00:00+00:00,0.0,2023-10-03 21:56,72.0,61.0,,1017.6,340.0,6.9,30.05,68.31,6.0,72.0,,,M,,,GNR,1060177,2023-10-03 22:00:00+00:00,642.0,2.17,,
248055,2023-10-03 23:00:00+00:00,0.0,2023-10-03 22:56,69.0,61.0,,1018.4,310.0,4.6,30.07,75.66,4.0,69.0,,,M,,,GNR,1060181,2023-10-03 23:00:00+00:00,724.0,2.26,,
248056,2023-10-04 00:00:00+00:00,0.0,2023-10-03 23:56,68.0,61.0,,1018.7,310.0,4.6,30.09,78.3,4.0,68.0,,,M,,,GNR,1060185,2023-10-04 00:00:00+00:00,8910.0,6.42,,
248057,2023-10-04 01:00:00+00:00,0.0,2023-10-04 00:56,67.0,61.0,,1018.8,320.0,6.9,30.09,81.05,6.0,67.0,,,M,,,GNR,1060189,2023-10-04 01:00:00+00:00,8910.0,6.42,,
248058,2023-10-04 02:00:00+00:00,0.0,2023-10-04 01:56,68.0,60.0,,1018.6,330.0,9.2,30.09,75.57,8.0,68.0,,,M,,,GNR,1060193,2023-10-04 02:00:00+00:00,3790.0,4.25,,
248059,2023-10-04 03:00:00+00:00,0.0,2023-10-04 02:56,67.0,60.0,,1019.3,320.0,6.9,30.11,78.22,6.0,67.0,,,M,,,GNR,1060197,2023-10-04 03:00:00+00:00,1530.0,2.95,,
248060,2023-10-04 04:00:00+00:00,0.0,2023-10-04 03:56,66.0,60.0,,1019.3,320.0,4.6,30.11,80.98,4.0,66.0,,,M,,,GNR,1060201,2023-10-04 04:00:00+00:00,865.0,2.4,,
248061,2023-10-04 05:00:00+00:00,0.0,2023-10-04 04:56,66.0,60.0,,1019.3,0.0,0.0,30.11,80.98,0.0,66.0,,,M,,,GNR,1060205,2023-10-04 05:00:00+00:00,633.0,2.16,,
248062,2023-10-04 06:00:00+00:00,0.0,2023-10-04 05:56,63.0,59.0,,1019.6,0.0,0.0,30.12,86.77,0.0,63.0,,,M,,,GNR,1060209,2023-10-04 06:00:00+00:00,582.0,2.1,,
248063,2023-10-04 07:00:00+00:00,0.0,2023-10-04 06:56,62.0,59.0,,1019.7,20.0,4.6,30.12,89.89,4.0,62.0,,,M,,,GNR,1060213,2023-10-04 07:00:00+00:00,566.0,2.08,,
248064,2023-10-04 08:00:00+00:00,0.0,2023-10-04 07:56,61.0,58.0,,1020.2,50.0,5.75,30.14,89.84,5.0,61.0,,,M,,,GNR,1060217,2023-10-04 08:00:00+00:00,566.0,2.08,,
248065,2023-10-04 09:00:00+00:00,0.0,2023-10-04 08:56,62.0,58.0,,1020.8,0.0,0.0,30.15,86.72,0.0,62.0,,,M,,,GNR,1060221,2023-10-04 09:00:00+00:00,558.0,2.07,,
248066,2023-10-04 10:00:00+00:00,0.0,2023-10-04 09:56,60.0,58.0,,1021.7,130.0,3.45,30.17,93.1,3.0,60.0,,,M,,,GNR,1060225,2023-10-04 10:00:00+00:00,558.0,2.07,,
248067,2023-10-04 11:00:00+00:00,0.0,2023-10-04 10:56,59.0,57.0,,1022.3,90.0,3.45,30.19,93.07,3.0,59.0,,,M,,,GNR,1060229,2023-10-04 11:00:00+00:00,558.0,2.07,,
248068,2023-10-04 12:00:00+00:00,0.0,2023-10-04 11:56,64.0,61.0,,1022.8,140.0,3.45,30.21,89.97,3.0,64.0,,,M,,,GNR,1060233,2023-10-04 12:00:00+00:00,558.0,2.07,,
248069,2023-10-04 13:00:00+00:00,0.0,2023-10-04 12:56,65.0,61.0,,1023.3,140.0,3.45,30.22,86.88,3.0,65.0,,,M,,,GNR,1060237,2023-10-04 13:00:00+00:00,558.0,2.07,,
248070,2023-10-04 14:00:00+00:00,0.0,2023-10-04 13:56,69.0,62.0,,1023.2,,3.45,30.22,78.38,3.0,69.0,,,M,,,GNR,1060241,2023-10-04 14:00:00+00:00,550.0,2.06,,
248071,2023-10-04 15:00:00+00:00,0.0,2023-10-04 14:56,71.0,63.0,,1023.3,,4.6,30.23,75.84,4.0,71.0,,,M,,,GNR,1060245,2023-10-04 15:00:00+00:00,550.0,2.06,,
248072,2023-10-04 16:00:00+00:00,0.0,2023-10-04 15:56,72.0,63.0,,1023.3,120.0,5.75,30.23,73.31,5.0,72.0,,,M,,,GNR,1060249,2023-10-04 16:00:00+00:00,550.0,2.06,2023-10-04 16:00:00+00:00,gs://gcp-public-data-sentinel-2/tiles/19/T/DL/S2B_MSIL1C_20231004T154009_N0509_R011_T19TDL_20231004T191951.SAFE
248073,2023-10-04 17:00:00+00:00,0.0,2023-10-04 16:56,75.0,64.0,,1022.4,,6.9,30.21,68.64,6.0,75.0,,,M,,,GNR,1060253,2023-10-04 17:00:00+00:00,5440.0,5.01,,
248074,2023-10-04 18:00:00+00:00,0.0,2023-10-04 17:56,76.0,64.0,,1022.0,,6.9,30.19,66.38,6.0,76.0,,,M,,,GNR,1060257,2023-10-04 18:00:00+00:00,5480.0,5.03,,
248075,2023-10-04 19:00:00+00:00,0.0,2023-10-04 18:56,76.0,64.0,,1021.9,150.0,9.2,30.19,66.38,8.0,76.0,,,M,,,GNR,1060261,2023-10-04 19:00:00+00:00,4000.0,4.35,,
248076,2023-10-04 20:00:00+00:00,0.0,2023-10-04 19:56,76.0,64.0,,1021.7,130.0,8.05,30.18,66.38,7.0,76.0,,,M,,,GNR,1060265,2023-10-04 20:00:00+00:00,1660.0,3.05,,
248077,2023-10-04 21:00:00+00:00,0.0,2023-10-04 20:56,75.0,63.0,,1021.9,150.0,6.9,30.19,66.27,6.0,75.0,,,M,,,GNR,1060269,2023-10-04 21:00:00+00:00,908.0,2.44,,
248078,2023-10-04 22:00:00+00:00,0.0,2023-10-04 21:56,72.0,63.0,,1022.3,140.0,5.75,30.19,73.31,5.0,72.0,,,M,,,GNR,1060273,2023-10-04 22:00:00+00:00,642.0,2.17,,
248079,2023-10-04 23:00:00+00:00,0.0,2023-10-04 22:56,68.0,62.0,,1023.0,140.0,5.75,30.21,81.12,5.0,68.0,,,M,,,GNR,1060277,2023-10-04 23:00:00+00:00,582.0,2.1,,
248080,2023-10-05 00:00:00+00:00,0.0,2023-10-04 23:56,67.0,63.0,,1023.2,130.0,6.9,30.22,86.98,6.0,67.0,,,M,,,GNR,1060281,2023-10-05 00:00:00+00:00,591.0,2.11,,
248081,2023-10-05 01:00:00+00:00,0.0,2023-10-05 00:56,65.0,63.0,,1023.6,130.0,6.9,30.23,93.24,6.0,65.0,,,M,,,GNR,1060285,2023-10-05 01:00:00+00:00,9090.0,6.49,,
248082,2023-10-05 02:00:00+00:00,0.0,2023-10-05 01:56,64.0,62.0,,1023.5,130.0,6.9,30.23,93.21,6.0,64.0,,,M,,,GNR,1060289,2023-10-05 02:00:00+00:00,9110.0,6.5,,
248083,2023-10-05 03:00:00+00:00,0.0,2023-10-05 02:56,63.0,61.0,,1023.3,130.0,6.9,30.23,93.18,6.0,63.0,,,M,,,GNR,1060293,2023-10-05 03:00:00+00:00,4400.0,4.54,,
248084,2023-10-05 04:00:00+00:00,0.0,2023-10-05 03:56,62.0,61.0,,1023.6,130.0,8.05,30.23,96.52,7.0,62.0,,,M,,,GNR,1060297,2023-10-05 04:00:00+00:00,1680.0,3.06,,
248085,2023-10-05 05:00:00+00:00,0.0,2023-10-05 04:56,61.0,61.0,,1023.7,150.0,8.05,30.24,100.0,7.0,61.0,,,M,,,GNR,1060301,2023-10-05 05:00:00+00:00,953.0,2.48,,
248086,2023-10-05 06:00:00+00:00,0.0,2023-10-05 05:56,60.0,60.0,,1024.1,140.0,6.9,30.25,100.0,6.0,60.0,,,M,,,GNR,1060305,2023-10-05 06:00:00+00:00,744.0,2.28,,
248087,2023-10-05 07:00:00+00:00,0.0,2023-10-05 06:56,60.0,59.0,,1024.0,,5.75,30.25,96.49,5.0,60.0,,,M,,,GNR,1060309,2023-10-05 07:00:00+00:00,715.0,2.25,,
248088,2023-10-05 08:00:00+00:00,0.0,2023-10-05 07:56,59.0,58.0,,1023.9,140.0,10.35,30.24,96.48,9.0,59.0,,,M,,,GNR,1060313,2023-10-05 08:00:00+00:00,678.0,2.21,,
248089,2023-10-05 09:00:00+00:00,0.0,2023-10-05 08:56,59.0,58.0,,1024.0,150.0,6.9,30.25,96.48,6.0,59.0,,,M,,,GNR,1060317,2023-10-05 09:00:00+00:00,591.0,2.11,,
248090,2023-10-05 10:00:00+00:00,0.0,2023-10-05 09:56,58.0,58.0,,1024.2,140.0,8.05,30.25,100.0,7.0,58.0,,,M,,,GNR,1060321,2023-10-05 10:00:00+00:00,558.0,2.07,,
248091,2023-10-05 11:00:00+00:00,0.0,2023-10-05 10:56,58.0,57.0,,1024.5,140.0,4.6,30.25,96.46,4.0,58.0,,,M,,,GNR,1060325,2023-10-05 11:00:00+00:00,558.0,2.07,,
248092,2023-10-05 12:00:00+00:00,0.0,2023-10-05 11:56,58.0,58.0,,1024.7,,4.6,30.26,100.0,4.0,58.0,,,M,,,GNR,1060329,2023-10-05 12:00:00+00:00,550.0,2.06,,
248093,2023-10-05 13:00:00+00:00,0.0,2023-10-05 12:56,58.0,58.0,,1025.1,140.0,6.9,30.27,100.0,6.0,58.0,,,M,,,GNR,1060333,2023-10-05 13:00:00+00:00,550.0,2.06,,
248094,2023-10-05 14:00:00+00:00,0.0,2023-10-05 13:56,59.0,58.0,,1025.0,140.0,8.05,30.26,96.48,7.0,59.0,,,M,,,GNR,1060337,2023-10-05 14:00:00+00:00,550.0,2.06,,
248095,2023-10-05 15:00:00+00:00,0.0,2023-10-05 14:56,59.0,59.0,,1024.7,,5.75,30.26,100.0,5.0,59.0,,,M,,,GNR,1060341,2023-10-05 15:00:00+00:00,550.0,2.06,,
248096,2023-10-05 16:00:00+00:00,0.0,2023-10-05 15:56,61.0,60.0,,1024.5,,5.75,30.25,96.51,5.0,61.0,,,M,,,GNR,1060345,2023-10-05 16:00:00+00:00,550.0,2.06,,
248097,2023-10-05 17:00:00+00:00,0.0,2023-10-05 16:56,60.0,60.0,,1023.7,150.0,9.2,30.23,100.0,8.0,60.0,,15.0,M,,,GNR,1060349,2023-10-05 17:00:00+00:00,5280.0,4.94,,
248098,2023-10-05 18:00:00+00:00,0.0,2023-10-05 17:56,61.0,60.0,,1023.0,150.0,11.5,30.21,96.51,10.0,61.0,,18.0,M,,,GNR,1060353,2023-10-05 18:00:00+00:00,5300.0,4.95,,
248099,2023-10-05 19:00:00+00:00,0.0,2023-10-05 18:56,62.0,60.0,,1022.5,150.0,10.35,30.19,93.15,9.0,62.0,,20.0,M,,,GNR,1060357,2023-10-05 19:00:00+00:00,3950.0,4.33,,
248100,2023-10-05 20:00:00+00:00,0.0,2023-10-05 19:56,62.0,60.0,,1022.4,150.0,12.65,30.19,93.15,11.0,62.0,,18.0,M,,,GNR,1060361,2023-10-05 20:00:00+00:00,1660.0,3.05,,
248101,2023-10-05 21:00:00+00:00,0.0,2023-10-05 20:56,63.0,61.0,,1022.0,,,30.18,93.18,,63.0,,,M,,,GNR,1060365,2023-10-05 21:00:00+00:00,908.0,2.44,,
248102,2023-10-05 22:00:00+00:00,0.0,2023-10-05 21:56,63.0,61.0,,1021.9,150.0,10.35,30.17,93.18,9.0,63.0,,17.0,M,,,GNR,1060369,2023-10-05 22:00:00+00:00,642.0,2.17,,
248103,2023-10-05 23:00:00+00:00,0.0,2023-10-05 22:56,62.0,61.0,,1022.2,,4.6,30.18,96.52,4.0,62.0,,,M,,,GNR,1060373,2023-10-05 23:00:00+00:00,574.0,2.09,,
248104,2023-10-06 00:00:00+00:00,0.0,2023-10-05 23:56,62.0,60.0,,1022.4,,,30.19,93.15,,62.0,,,M,,,GNR,1060377,2023-10-06 00:00:00+00:00,1650.0,3.04,,
248105,2023-10-06 01:00:00+00:00,0.0,2023-10-06 00:56,62.0,60.0,,1022.4,140.0,8.05,30.19,93.15,7.0,62.0,,,M,,,GNR,1060381,2023-10-06 01:00:00+00:00,8750.0,6.36,,
248106,2023-10-06 02:00:00+00:00,0.0,2023-10-06 01:56,61.0,59.0,,1022.4,150.0,6.9,30.19,93.12,6.0,61.0,,,M,,,GNR,1060385,2023-10-06 02:00:00+00:00,4020.0,4.36,,
248107,2023-10-06 03:00:00+00:00,0.0,2023-10-06 02:56,60.0,58.0,,1022.2,160.0,5.75,30.18,93.1,5.0,60.0,,,M,,,GNR,1060389,2023-10-06 03:00:00+00:00,1570.0,2.98,,
248108,2023-10-06 04:00:00+00:00,0.0,2023-10-06 03:56,60.0,58.0,,1022.0,150.0,5.75,30.17,93.1,5.0,60.0,,,M,,,GNR,1060393,2023-10-06 04:00:00+00:00,876.0,2.41,,
248109,2023-10-06 05:00:00+00:00,0.0,2023-10-06 04:56,60.0,59.0,,1021.6,,6.9,30.16,96.49,6.0,60.0,,,M,,,GNR,1060397,2023-10-06 05:00:00+00:00,633.0,2.16,,
248110,2023-10-06 06:00:00+00:00,0.0,2023-10-06 05:56,60.0,58.0,,1021.3,,4.6,30.15,93.1,4.0,60.0,,,M,,,GNR,1060401,2023-10-06 06:00:00+00:00,574.0,2.09,,
248111,2023-10-06 07:00:00+00:00,0.0,2023-10-06 06:56,59.0,57.0,,1021.0,150.0,8.05,30.15,93.07,7.0,59.0,,,M,,,GNR,1060405,2023-10-06 07:00:00+00:00,558.0,2.07,,
248112,2023-10-06 08:00:00+00:00,0.0,2023-10-06 07:56,59.0,56.0,,1020.9,150.0,5.75,30.14,89.76,5.0,59.0,,,M,,,GNR,1060409,2023-10-06 08:00:00+00:00,558.0,2.07,,
248113,2023-10-06 09:00:00+00:00,0.0,2023-10-06 08:56,58.0,57.0,,1020.5,160.0,6.9,30.13,96.46,6.0,58.0,,,M,,,GNR,1060413,2023-10-06 09:00:00+00:00,550.0,2.06,,
248114,2023-10-06 10:00:00+00:00,0.0,2023-10-06 09:56,59.0,57.0,,1020.4,140.0,8.05,30.13,93.07,7.0,59.0,,,M,,,GNR,1060417,2023-10-06 10:00:00+00:00,550.0,2.06,,
248115,2023-10-06 11:00:00+00:00,0.0,2023-10-06 10:56,58.0,57.0,,1020.6,150.0,8.05,30.13,96.46,7.0,58.0,,,M,,,GNR,1060421,2023-10-06 11:00:00+00:00,542.0,2.05,,
248116,2023-10-06 12:00:00+00:00,0.0,2023-10-06 11:56,58.0,58.0,,1020.5,,5.75,30.13,100.0,5.0,58.0,,,M,,,GNR,1060425,2023-10-06 12:00:00+00:00,542.0,2.05,,
248117,2023-10-06 13:00:00+00:00,0.0,2023-10-06 12:56,58.0,57.0,,1020.7,140.0,5.75,30.14,96.46,5.0,58.0,,,M,,,GNR,1060429,2023-10-06 13:00:00+00:00,542.0,2.05,,
248118,2023-10-06 14:00:00+00:00,0.0,2023-10-06 13:56,58.0,58.0,,1020.9,,4.6,30.14,100.0,4.0,58.0,,,M,,,GNR,1060433,2023-10-06 14:00:00+00:00,542.0,2.05,,
248119,2023-10-06 15:00:00+00:00,0.0,2023-10-06 14:56,58.0,57.0,,1021.0,150.0,8.05,30.14,96.46,7.0,58.0,,,M,,,GNR,1060437,2023-10-06 15:00:00+00:00,542.0,2.05,,
248120,2023-10-06 16:00:00+00:00,0.0,2023-10-06 15:56,57.0,57.0,,1020.7,150.0,5.75,30.13,100.0,5.0,57.0,,,M,,,GNR,1060441,2023-10-06 16:00:00+00:00,542.0,2.05,2023-10-06 16:00:00+00:00,gs://gcp-public-data-sentinel-2/tiles/19/T/DL/S2A_MSIL1C_20231006T153601_N0509_R111_T19TDL_20231006T191353.SAFE
248121,2023-10-06 17:00:00+00:00,0.0,2023-10-06 16:56,58.0,57.0,,1020.1,160.0,8.05,30.12,96.46,7.0,58.0,,,M,,,GNR,1060445,2023-10-06 17:00:00+00:00,5230.0,4.92,,
248122,2023-10-06 18:00:00+00:00,0.0,2023-10-06 17:56,59.0,58.0,,1019.5,,4.6,30.1,96.48,4.0,59.0,,,M,,,GNR,1060449,2023-10-06 18:00:00+00:00,5280.0,4.94,,
248123,2023-10-06 19:00:00+00:00,0.0,2023-10-06 18:56,64.0,58.0,,1019.2,,4.6,30.1,80.83,4.0,64.0,,,M,,,GNR,1060453,2023-10-06 19:00:00+00:00,4040.0,4.37,,
248124,2023-10-06 20:00:00+00:00,0.0,2023-10-06 19:56,65.0,57.0,,1019.0,,4.6,30.09,75.3,4.0,65.0,,,M,,,GNR,1060457,2023-10-06 20:00:00+00:00,1680.0,3.06,,
248125,2023-10-06 21:00:00+00:00,0.0,2023-10-06 20:56,64.0,57.0,,1018.8,,4.6,30.08,77.97,4.0,64.0,,,M,,,GNR,1060461,2023-10-06 21:00:00+00:00,908.0,2.44,,
248126,2023-10-06 22:00:00+00:00,0.0,2023-10-06 21:56,63.0,58.0,,1019.1,150.0,4.6,30.09,83.72,4.0,63.0,,,M,,,GNR,1060465,2023-10-06 22:00:00+00:00,625.0,2.15,,
248127,2023-10-06 23:00:00+00:00,0.0,2023-10-06 22:56,62.0,58.0,,1019.3,140.0,5.75,30.1,86.72,5.0,62.0,,,M,,,GNR,1060469,2023-10-06 23:00:00+00:00,2250.0,3.43,,
248128,2023-10-07 00:00:00+00:00,0.0,2023-10-06 23:56,62.0,60.0,,1019.1,,4.6,30.09,93.15,4.0,62.0,,,M,,,GNR,1060473,2023-10-07 00:00:00+00:00,8700.0,6.34,,
248129,2023-10-07 01:00:00+00:00,0.0,2023-10-07 00:56,61.0,59.0,,1019.1,160.0,6.9,30.09,93.12,6.0,61.0,,,M,,,GNR,1060477,2023-10-07 01:00:00+00:00,8780.0,6.37,,
248130,2023-10-07 02:00:00+00:00,0.0,2023-10-07 01:56,61.0,59.0,,1018.6,150.0,6.9,30.08,93.12,6.0,61.0,,,M,,,GNR,1060481,2023-10-07 02:00:00+00:00,8830.0,6.39,,
248131,2023-10-07 03:00:00+00:00,0.76,2023-10-07 02:56,61.0,60.0,,1018.2,140.0,9.2,30.06,96.51,8.0,61.0,,,M,,,GNR,1060485,2023-10-07 03:00:00+00:00,4190.0,4.44,,
248132,2023-10-07 04:00:00+00:00,0.51,2023-10-07 03:56,61.0,60.0,,1017.7,150.0,8.05,30.05,96.51,7.0,61.0,,,M,,,GNR,1060489,2023-10-07 04:00:00+00:00,1610.0,3.01,,
248133,2023-10-07 05:00:00+00:00,0.0,2023-10-07 04:56,60.0,60.0,,1017.1,150.0,8.05,30.03,100.0,7.0,60.0,,,M,,,GNR,1060493,2023-10-07 05:00:00+00:00,887.0,2.42,,
248134,2023-10-07 06:00:00+00:00,0.25,2023-10-07 05:56,60.0,59.0,,1016.5,140.0,6.9,30.01,96.49,6.0,60.0,,,M,,,GNR,1060497,2023-10-07 06:00:00+00:00,633.0,2.16,,
248135,2023-10-07 07:00:00+00:00,0.76,2023-10-07 06:56,60.0,59.0,,1015.7,140.0,10.35,29.99,96.49,9.0,60.0,,16.0,M,,,GNR,1060501,2023-10-07 07:00:00+00:00,566.0,2.08,,
248136,2023-10-07 08:00:00+00:00,1.02,2023-10-07 07:56,60.0,59.0,,1015.2,150.0,8.05,29.98,96.49,7.0,60.0,,,M,,,GNR,1060505,2023-10-07 08:00:00+00:00,558.0,2.07,,
248137,2023-10-07 09:00:00+00:00,1.02,2023-10-07 08:56,60.0,59.0,,1014.7,150.0,6.9,29.97,96.49,6.0,60.0,,,M,,,GNR,1060509,2023-10-07 09:00:00+00:00,550.0,2.06,,
248138,2023-10-07 10:00:00+00:00,0.25,2023-10-07 09:56,60.0,59.0,,1014.5,140.0,9.2,29.96,96.49,8.0,60.0,,,M,,,GNR,1060513,2023-10-07 10:00:00+00:00,550.0,2.06,,
248139,2023-10-07 11:00:00+00:00,0.51,2023-10-07 10:56,59.0,59.0,,1014.3,150.0,6.9,29.95,100.0,6.0,59.0,,17.0,M,,,GNR,1060517,2023-10-07 11:00:00+00:00,550.0,2.06,,
248140,2023-10-07 12:00:00+00:00,1.27,2023-10-07 11:56,59.0,59.0,,1014.2,130.0,10.35,29.95,100.0,9.0,59.0,,17.0,M,,,GNR,1060521,2023-10-07 12:00:00+00:00,542.0,2.05,,
248141,2023-10-07 13:00:00+00:00,0.76,2023-10-07 12:56,60.0,59.0,,1013.8,140.0,9.2,29.94,96.49,8.0,60.0,,21.0,M,,,GNR,1060525,2023-10-07 13:00:00+00:00,550.0,2.06,,
248142,2023-10-07 14:00:00+00:00,0.51,2023-10-07 13:56,60.0,60.0,,1013.4,130.0,16.1,29.92,100.0,14.0,60.0,,24.0,M,,,GNR,1060529,2023-10-07 14:00:00+00:00,542.0,2.05,,
248143,2023-10-07 15:00:00+00:00,0.51,2023-10-07 14:56,60.0,60.0,,1012.4,140.0,9.2,29.9,100.0,8.0,60.0,,23.0,M,27.0,,GNR,1060533,2023-10-07 15:00:00+00:00,542.0,2.05,,
248144,2023-10-07 16:00:00+00:00,0.25,2023-10-07 15:56,60.0,60.0,,1011.8,140.0,18.4,29.88,100.0,16.0,60.0,,27.0,M,27.0,,GNR,1060537,2023-10-07 16:00:00+00:00,542.0,2.05,,
248145,2023-10-07 17:00:00+00:00,0.51,2023-10-07 16:56,60.0,60.0,,1010.8,130.0,14.95,29.85,100.0,13.0,60.0,,22.0,M,,,GNR,1060541,2023-10-07 17:00:00+00:00,5210.0,4.91,,
248146,2023-10-07 18:00:00+00:00,0.25,2023-10-07 17:56,60.0,59.0,,1009.9,130.0,13.8,29.82,96.49,12.0,60.0,,24.0,M,26.0,,GNR,1060545,2023-10-07 18:00:00+00:00,5280.0,4.94,,
248147,2023-10-07 19:00:00+00:00,0.0,2023-10-07 18:56,60.0,59.0,,1009.2,130.0,12.65,29.8,96.49,11.0,60.0,,20.0,M,,,GNR,1060549,2023-10-07 19:00:00+00:00,3950.0,4.33,,
248148,2023-10-07 20:00:00+00:00,0.51,2023-10-07 19:56,60.0,58.0,,1008.1,120.0,13.8,29.77,93.1,12.0,60.0,,20.0,M,27.0,,GNR,1060553,2023-10-07 20:00:00+00:00,1650.0,3.04,,
248149,2023-10-07 21:00:00+00:00,0.76,2023-10-07 20:56,60.0,59.0,,1007.5,120.0,13.8,29.75,96.49,12.0,60.0,,18.0,M,26.0,,GNR,1060557,2023-10-07 21:00:00+00:00,908.0,2.44,,
248150,2023-10-07 22:00:00+00:00,0.76,2023-10-07 21:56,60.0,58.0,,1006.6,110.0,13.8,29.73,93.1,12.0,60.0,,23.0,M,26.0,,GNR,1060561,2023-10-07 22:00:00+00:00,642.0,2.17,,
248151,2023-10-07 23:00:00+00:00,1.52,2023-10-07 22:56,59.0,58.0,,1005.9,110.0,13.8,29.7,96.48,12.0,59.0,,20.0,M,28.0,,GNR,1060565,2023-10-07 23:00:00+00:00,2340.0,3.48,,
248152,2023-10-08 00:00:00+00:00,1.78,2023-10-07 23:56,59.0,57.0,,1004.5,100.0,19.55,29.66,93.07,17.0,59.0,,25.0,M,26.0,,GNR,1060569,2023-10-08 00:00:00+00:00,8830.0,6.39,,
248153,2023-10-08 01:00:00+00:00,3.05,2023-10-08 00:56,59.0,57.0,,1002.8,100.0,16.1,29.61,93.07,14.0,59.0,,21.0,M,28.0,,GNR,1060573,2023-10-08 01:00:00+00:00,8910.0,6.42,,
248154,2023-10-08 02:00:00+00:00,11.94,2023-10-08 01:56,58.0,57.0,,1000.7,100.0,18.4,29.55,96.46,16.0,58.0,,26.0,M,27.0,,GNR,1060577,2023-10-08 02:00:00+00:00,4470.0,4.57,,
248155,2023-10-08 03:00:00+00:00,8.89,2023-10-08 02:56,58.0,57.0,,997.3,30.0,10.35,29.45,96.46,9.0,58.0,,15.0,M,,,GNR,1060581,2023-10-08 03:00:00+00:00,1780.0,3.13,,
248156,2023-10-08 04:00:00+00:00,20.32,2023-10-08 03:56,58.0,56.0,,994.9,40.0,8.05,29.38,93.04,7.0,58.0,,22.0,M,,,GNR,1060585,2023-10-08 04:00:00+00:00,1090.0,2.6,,
248157,2023-10-08 05:00:00+00:00,11.43,2023-10-08 04:56,59.0,57.0,,991.7,80.0,13.8,29.29,93.07,12.0,59.0,,19.0,M,,,GNR,1060589,2023-10-08 05:00:00+00:00,919.0,2.45,,
248158,2023-10-08 06:00:00+00:00,3.3,2023-10-08 05:56,59.0,58.0,,989.4,110.0,17.25,29.22,96.48,15.0,59.0,,25.0,M,,,GNR,1060593,2023-10-08 06:00:00+00:00,1040.0,2.56,,
248159,2023-10-08 07:00:00+00:00,3.05,2023-10-08 06:56,60.0,59.0,,988.5,120.0,14.95,29.2,96.49,13.0,60.0,,21.0,M,28.0,,GNR,1060597,2023-10-08 07:00:00+00:00,1320.0,2.79,,
248160,2023-10-08 08:00:00+00:00,3.56,2023-10-08 07:56,60.0,60.0,,988.2,150.0,8.05,29.19,100.0,7.0,60.0,,,M,,,GNR,1060601,2023-10-08 08:00:00+00:00,1750.0,3.11,,
248161,2023-10-08 09:00:00+00:00,2.29,2023-10-08 08:56,59.0,58.0,,988.3,140.0,10.35,29.19,96.48,9.0,59.0,,21.0,M,33.0,,GNR,1060605,2023-10-08 09:00:00+00:00,2120.0,3.35,,
248162,2023-10-08 10:00:00+00:00,2.03,2023-10-08 09:56,59.0,58.0,,988.8,0.0,0.0,29.2,96.48,0.0,59.0,,,M,,,GNR,1060609,2023-10-08 10:00:00+00:00,2350.0,3.49,,
248163,2023-10-08 11:00:00+00:00,1.27,2023-10-08 10:56,52.0,51.0,,990.0,0.0,0.0,29.23,96.37,0.0,52.0,,,M,,,GNR,1060613,2023-10-08 11:00:00+00:00,2440.0,3.54,,
248164,2023-10-08 12:00:00+00:00,0.25,2023-10-08 11:56,50.0,48.0,,991.3,330.0,11.5,29.27,92.8,10.0,50.0,,17.0,M,,,GNR,1060617,2023-10-08 12:00:00+00:00,2400.0,3.52,,
248165,2023-10-08 13:00:00+00:00,0.25,2023-10-08 12:56,50.0,48.0,,991.8,330.0,10.35,29.28,92.8,9.0,50.0,,17.0,M,,,GNR,1060621,2023-10-08 13:00:00+00:00,2390.0,3.51,,
248166,2023-10-08 14:00:00+00:00,0.51,2023-10-08 13:56,49.0,47.0,,992.7,310.0,8.05,29.31,92.77,7.0,45.5,,,M,,,GNR,1060625,2023-10-08 14:00:00+00:00,2370.0,3.5,,
248167,2023-10-08 15:00:00+00:00,2.29,2023-10-08 14:56,49.0,48.0,,994.0,,,29.35,96.32,,,,,M,,,GNR,1060629,2023-10-08 15:00:00+00:00,2370.0,3.5,,
248168,2023-10-08 16:00:00+00:00,0.76,2023-10-08 15:56,50.0,47.0,,994.7,,4.6,29.37,89.37,4.0,50.0,,,M,,,GNR,1060633,2023-10-08 16:00:00+00:00,4380.0,4.53,,
248169,2023-10-08 17:00:00+00:00,0.0,2023-10-08 16:56,52.0,46.0,,995.6,,4.6,29.39,79.92,4.0,52.0,,,M,,,GNR,1060637,2023-10-08 17:00:00+00:00,7160.0,5.72,,
248170,2023-10-08 18:00:00+00:00,0.0,2023-10-08 17:56,53.0,47.0,,996.2,0.0,0.0,29.41,80.0,0.0,53.0,,,M,,,GNR,1060641,2023-10-08 18:00:00+00:00,7230.0,5.75,,
248171,2023-10-08 19:00:00+00:00,0.0,2023-10-08 18:56,56.0,44.0,,996.6,220.0,8.05,29.43,63.99,7.0,56.0,,,M,,,GNR,1060645,2023-10-08 19:00:00+00:00,5530.0,5.05,,
248172,2023-10-08 20:00:00+00:00,0.0,2023-10-08 19:56,56.0,43.0,,997.2,,5.75,29.45,61.59,5.0,56.0,,,M,,,GNR,1060649,2023-10-08 20:00:00+00:00,3170.0,3.94,,
248173,2023-10-08 21:00:00+00:00,0.0,2023-10-08 20:56,54.0,43.0,,998.2,,5.75,29.47,66.24,5.0,54.0,,,M,,,GNR,1060653,2023-10-08 21:00:00+00:00,2650.0,3.66,,
248174,2023-10-08 22:00:00+00:00,0.0,2023-10-08 21:56,52.0,42.0,,998.9,,3.45,29.49,68.59,3.0,52.0,,,M,,,GNR,1060657,2023-10-08 22:00:00+00:00,2610.0,3.64,,
248175,2023-10-08 23:00:00+00:00,0.0,2023-10-08 22:56,50.0,44.0,,1000.0,150.0,3.45,29.52,79.76,3.0,50.0,,,M,,,GNR,1060661,2023-10-08 23:00:00+00:00,7620.0,5.91,,
248176,2023-10-09 00:00:00+00:00,0.0,2023-10-08 23:56,50.0,43.0,,1000.8,,3.45,29.54,76.76,3.0,50.0,,,M,,,GNR,1060665,2023-10-09 00:00:00+00:00,10800.0,7.18,,
248177,2023-10-09 01:00:00+00:00,0.0,2023-10-09 00:56,48.0,42.0,,1002.0,190.0,5.75,29.57,79.6,5.0,45.4,,,M,,,GNR,1060669,2023-10-09 01:00:00+00:00,10900.0,7.19,,
248178,2023-10-09 02:00:00+00:00,0.0,2023-10-09 01:56,47.0,42.0,,1002.7,,3.45,29.59,82.65,3.0,45.84,,,M,,,GNR,1060673,2023-10-09 02:00:00+00:00,5910.0,5.21,,
248179,2023-10-09 03:00:00+00:00,0.0,2023-10-09 02:56,44.0,41.0,,1003.1,130.0,5.75,29.6,89.11,5.0,40.65,,,M,,,GNR,1060677,2023-10-09 03:00:00+00:00,3280.0,4.0,,
248180,2023-10-09 04:00:00+00:00,0.0,2023-10-09 03:56,45.0,41.0,,1003.3,130.0,8.05,29.61,85.77,7.0,40.63,,,M,,,GNR,1060681,2023-10-09 04:00:00+00:00,2740.0,3.71,,
248181,2023-10-09 05:00:00+00:00,0.0,2023-10-09 04:56,46.0,42.0,,1003.2,120.0,6.9,29.61,85.83,6.0,42.39,,,M,,,GNR,1060685,2023-10-09 05:00:00+00:00,2670.0,3.67,,
248182,2023-10-09 06:00:00+00:00,0.0,2023-10-09 05:56,45.0,43.0,,1003.6,120.0,6.9,29.62,92.65,6.0,41.19,,,M,,,GNR,1060689,2023-10-09 06:00:00+00:00,2670.0,3.67,,
248183,2023-10-09 07:00:00+00:00,0.0,2023-10-09 06:56,45.0,44.0,,1003.7,130.0,5.75,29.62,96.26,5.0,41.83,,,M,,,GNR,1060693,2023-10-09 07:00:00+00:00,2630.0,3.65,,
248184,2023-10-09 08:00:00+00:00,0.0,2023-10-09 07:56,46.0,45.0,,1003.9,130.0,8.05,29.63,96.28,7.0,41.84,,,M,,,GNR,1060697,2023-10-09 08:00:00+00:00,2630.0,3.65,,
248185,2023-10-09 09:00:00+00:00,0.0,2023-10-09 08:56,47.0,45.0,,1004.2,130.0,9.2,29.64,92.71,8.0,42.59,,,M,,,GNR,1060701,2023-10-09 09:00:00+00:00,2590.0,3.63,,
248186,2023-10-09 10:00:00+00:00,0.0,2023-10-09 09:56,46.0,45.0,,1004.6,140.0,6.9,29.65,96.28,6.0,42.39,,,M,,,GNR,1060705,2023-10-09 10:00:00+00:00,2580.0,3.62,,
248187,2023-10-09 11:00:00+00:00,0.0,2023-10-09 10:56,46.0,45.0,,1005.0,130.0,8.05,29.66,96.28,7.0,41.84,,,M,,,GNR,1060709,2023-10-09 11:00:00+00:00,2540.0,3.6,,
248188,2023-10-09 12:00:00+00:00,0.0,2023-10-09 11:56,46.0,45.0,,1005.4,140.0,9.2,29.67,96.28,8.0,41.36,,,M,,,GNR,1060713,2023-10-09 12:00:00+00:00,2520.0,3.59,,
248189,2023-10-09 13:00:00+00:00,0.0,2023-10-09 12:56,46.0,45.0,,1005.7,140.0,9.2,29.68,96.28,8.0,41.36,,15.0,M,,,GNR,1060717,2023-10-09 13:00:00+00:00,2490.0,3.57,,
248190,2023-10-09 14:00:00+00:00,0.0,2023-10-09 13:56,49.0,45.0,,1006.1,,5.75,29.69,86.0,5.0,46.58,,,M,,,GNR,1060721,2023-10-09 14:00:00+00:00,2460.0,3.55,,
248191,2023-10-09 15:00:00+00:00,0.0,2023-10-09 14:56,52.0,44.0,,1005.9,,5.75,29.68,74.07,5.0,52.0,,,M,,,GNR,1060725,2023-10-09 15:00:00+00:00,2440.0,3.54,,
248192,2023-10-09 16:00:00+00:00,0.0,2023-10-09 15:56,54.0,42.0,,1005.7,,5.75,29.68,63.74,5.0,54.0,,,M,,,GNR,1060729,2023-10-09 16:00:00+00:00,4230.0,4.46,2023-10-09 16:00:00+00:00,gs://gcp-public-data-sentinel-2/tiles/19/T/DL/S2A_MSIL1C_20231009T154141_N0509_R011_T19TDL_20231009T205936.SAFE
248193,2023-10-09 17:00:00+00:00,0.0,2023-10-09 16:56,55.0,40.0,,1005.1,180.0,8.05,29.67,56.88,7.0,55.0,,,M,,,GNR,1060733,2023-10-09 17:00:00+00:00,7130.0,5.71,,
248194,2023-10-09 18:00:00+00:00,0.0,2023-10-09 17:56,56.0,39.0,,1004.8,,5.75,29.66,52.75,5.0,56.0,,17.0,M,,,GNR,1060737,2023-10-09 18:00:00+00:00,7180.0,5.73,,
248195,2023-10-09 19:00:00+00:00,0.0,2023-10-09 18:56,56.0,38.0,,1004.8,,5.75,29.66,50.73,5.0,56.0,,,M,,,GNR,1060741,2023-10-09 19:00:00+00:00,5460.0,5.02,,
248196,2023-10-09 20:00:00+00:00,0.0,2023-10-09 19:56,55.0,39.0,,1004.8,,6.9,29.65,54.7,6.0,55.0,,,M,,,GNR,1060745,2023-10-09 20:00:00+00:00,3090.0,3.9,,
248197,2023-10-09 21:00:00+00:00,0.0,2023-10-09 20:56,54.0,39.0,,1005.2,,3.45,29.67,56.74,3.0,54.0,,,M,,,GNR,1060749,2023-10-09 21:00:00+00:00,2490.0,3.57,,
248198,2023-10-09 22:00:00+00:00,0.0,2023-10-09 21:56,50.0,39.0,,1005.9,180.0,3.45,29.68,65.75,3.0,50.0,,,M,,,GNR,1060753,2023-10-09 22:00:00+00:00,2370.0,3.5,,
248199,2023-10-09 23:00:00+00:00,0.0,2023-10-09 22:56,49.0,40.0,,1006.2,,3.45,29.69,70.96,3.0,48.12,,,M,,,GNR,1060757,2023-10-09 23:00:00+00:00,7420.0,5.83,,
248200,2023-10-10 00:00:00+00:00,0.0,2023-10-09 23:56,48.0,40.0,,1006.6,0.0,0.0,29.7,73.67,0.0,48.0,,,M,,,GNR,1060761,2023-10-10 00:00:00+00:00,10400.0,7.02,,
248201,2023-10-10 01:00:00+00:00,0.0,2023-10-10 00:56,45.0,40.0,,1007.1,130.0,4.6,29.71,82.51,4.0,42.6,,,M,,,GNR,1060765,2023-10-10 01:00:00+00:00,10300.0,6.98,,
248202,2023-10-10 02:00:00+00:00,0.0,2023-10-10 01:56,46.0,41.0,,1007.3,0.0,0.0,29.72,82.58,0.0,46.0,,,M,,,GNR,1060769,2023-10-10 02:00:00+00:00,10300.0,6.98,,
248203,2023-10-10 03:00:00+00:00,0.0,2023-10-10 02:56,44.0,41.0,,1007.4,140.0,5.75,29.73,89.11,5.0,40.65,,,M,,,GNR,1060773,2023-10-10 03:00:00+00:00,5580.0,5.07,,
248204,2023-10-10 04:00:00+00:00,0.0,2023-10-10 03:56,45.0,42.0,,1007.2,130.0,5.75,29.73,89.15,5.0,41.83,,,M,,,GNR,1060777,2023-10-10 04:00:00+00:00,2860.0,3.78,,
248205,2023-10-10 05:00:00+00:00,0.0,2023-10-10 04:56,45.0,42.0,,1007.4,120.0,5.75,29.73,89.15,5.0,41.83,,,M,,,GNR,1060781,2023-10-10 05:00:00+00:00,2220.0,3.41,,
248206,2023-10-10 06:00:00+00:00,0.0,2023-10-10 05:56,45.0,42.0,,1007.3,120.0,5.75,29.73,89.15,5.0,41.83,,,M,,,GNR,1060785,2023-10-10 06:00:00+00:00,2090.0,3.33,,
248207,2023-10-10 07:00:00+00:00,0.0,2023-10-10 06:56,46.0,43.0,,1007.4,0.0,0.0,29.73,89.2,0.0,46.0,,,M,,,GNR,1060789,2023-10-10 07:00:00+00:00,2040.0,3.3,,
248208,2023-10-10 08:00:00+00:00,0.0,2023-10-10 07:56,45.0,43.0,,1007.6,0.0,0.0,29.74,92.65,0.0,45.0,,,M,,,GNR,1060793,2023-10-10 08:00:00+00:00,2010.0,3.28,,
248209,2023-10-10 09:00:00+00:00,0.0,2023-10-10 08:56,45.0,43.0,,1007.7,0.0,0.0,29.74,92.65,0.0,45.0,,,M,,,GNR,1060797,2023-10-10 09:00:00+00:00,1980.0,3.26,,
248210,2023-10-10 10:00:00+00:00,0.0,2023-10-10 09:56,46.0,43.0,,1007.9,0.0,0.0,29.74,89.2,0.0,46.0,,,M,,,GNR,1060801,2023-10-10 10:00:00+00:00,1960.0,3.25,,
248211,2023-10-10 11:00:00+00:00,0.0,2023-10-10 10:56,45.0,43.0,,1008.4,200.0,3.45,29.76,92.65,3.0,43.55,,,M,,,GNR,1060805,2023-10-10 11:00:00+00:00,1930.0,3.23,,
248212,2023-10-10 12:00:00+00:00,0.0,2023-10-10 11:56,46.0,43.0,,1008.6,100.0,4.6,29.76,89.2,4.0,43.77,,,M,,,GNR,1060809,2023-10-10 12:00:00+00:00,1920.0,3.22,,
248213,2023-10-10 13:00:00+00:00,0.0,2023-10-10 12:56,48.0,44.0,,1009.0,140.0,5.75,29.77,85.95,5.0,45.4,,,M,,,GNR,1060813,2023-10-10 13:00:00+00:00,1890.0,3.2,,
248214,2023-10-10 14:00:00+00:00,0.0,2023-10-10 13:56,48.0,45.0,,1009.4,,3.45,29.79,89.29,3.0,46.98,,,M,,,GNR,1060817,2023-10-10 14:00:00+00:00,1870.0,3.19,,
248215,2023-10-10 15:00:00+00:00,0.0,2023-10-10 14:56,52.0,43.0,,1009.2,,3.45,29.78,71.28,3.0,52.0,,,M,,,GNR,1060821,2023-10-10 15:00:00+00:00,1860.0,3.18,,
248216,2023-10-10 16:00:00+00:00,0.0,2023-10-10 15:56,53.0,43.0,,1009.0,0.0,0.0,29.78,68.71,0.0,53.0,,,M,,,GNR,1060825,2023-10-10 16:00:00+00:00,1840.0,3.17,,
248217,2023-10-10 17:00:00+00:00,0.0,2023-10-10 16:56,56.0,41.0,,1008.4,,,29.76,57.02,,56.0,,,M,,,GNR,1060829,2023-10-10 17:00:00+00:00,1830.0,3.16,,
248218,2023-10-10 18:00:00+00:00,0.0,2023-10-10 17:56,58.0,35.0,,1008.0,,5.75,29.75,41.92,5.0,58.0,,15.0,M,,,GNR,1060833,2023-10-10 18:00:00+00:00,1810.0,3.15,,
248219,2023-10-10 19:00:00+00:00,0.0,2023-10-10 18:56,55.0,37.0,,1008.2,,5.75,29.76,50.58,5.0,55.0,,,M,,,GNR,1060837,2023-10-10 19:00:00+00:00,6910.0,5.62,,
248220,2023-10-10 20:00:00+00:00,0.0,2023-10-10 19:56,53.0,36.0,,1008.5,210.0,8.05,29.76,52.3,7.0,53.0,,,M,,,GNR,1060841,2023-10-10 20:00:00+00:00,9790.0,6.77,,
248221,2023-10-10 21:00:00+00:00,0.0,2023-10-10 20:56,51.0,37.0,,1009.0,200.0,5.75,29.77,58.58,5.0,51.0,,,M,,,GNR,1060845,2023-10-10 21:00:00+00:00,9820.0,6.78,,
248222,2023-10-10 22:00:00+00:00,0.0,2023-10-10 21:56,49.0,39.0,,1009.3,210.0,3.45,29.78,68.25,3.0,48.12,,,M,,,GNR,1060849,2023-10-10 22:00:00+00:00,9820.0,6.78,,
248223,2023-10-10 23:00:00+00:00,0.0,2023-10-10 22:56,49.0,39.0,,1009.6,0.0,0.0,29.79,68.25,0.0,49.0,,,M,,,GNR,1060853,2023-10-10 23:00:00+00:00,9720.0,6.74,,
248224,2023-10-11 00:00:00+00:00,0.0,2023-10-10 23:56,47.0,38.0,,1009.7,0.0,0.0,29.79,70.74,0.0,47.0,,,M,,,GNR,1060857,2023-10-11 00:00:00+00:00,9660.0,6.72,,
248225,2023-10-11 01:00:00+00:00,0.0,2023-10-11 00:56,45.0,38.0,,1010.3,150.0,3.45,29.81,76.31,3.0,43.55,,,M,,,GNR,1060861,2023-10-11 01:00:00+00:00,9640.0,6.71,,
248226,2023-10-11 02:00:00+00:00,0.0,2023-10-11 01:56,46.0,37.0,,1010.4,0.0,0.0,29.81,70.64,0.0,46.0,,,M,,,GNR,1060865,2023-10-11 02:00:00+00:00,9590.0,6.69,,
248227,2023-10-11 03:00:00+00:00,0.0,2023-10-11 02:56,45.0,37.0,,1010.7,0.0,0.0,29.83,73.37,0.0,45.0,,,M,,,GNR,1060869,2023-10-11 03:00:00+00:00,9510.0,6.66,,
248228,2023-10-11 04:00:00+00:00,0.0,2023-10-11 03:56,41.0,37.0,,1010.5,90.0,4.6,29.82,85.54,4.0,37.93,,,M,,,GNR,1060873,2023-10-11 04:00:00+00:00,4510.0,4.59,,
248229,2023-10-11 05:00:00+00:00,0.0,2023-10-11 04:56,42.0,39.0,,1010.8,0.0,0.0,29.83,89.01,0.0,42.0,,,M,,,GNR,1060877,2023-10-11 05:00:00+00:00,2120.0,3.35,,
248230,2023-10-11 06:00:00+00:00,0.0,2023-10-11 05:56,44.0,37.0,,1010.7,140.0,3.45,29.83,76.22,3.0,42.41,,,M,,,GNR,1060881,2023-10-11 06:00:00+00:00,1490.0,2.92,,
248231,2023-10-11 07:00:00+00:00,0.0,2023-10-11 06:56,41.0,36.0,,1010.4,90.0,3.45,29.81,82.22,3.0,38.98,,,M,,,GNR,1060885,2023-10-11 07:00:00+00:00,1330.0,2.8,,
248232,2023-10-11 08:00:00+00:00,0.0,2023-10-11 07:56,41.0,38.0,,1010.2,90.0,3.45,29.81,88.97,3.0,38.98,,,M,,,GNR,1060889,2023-10-11 08:00:00+00:00,1290.0,2.77,,
248233,2023-10-11 09:00:00+00:00,0.0,2023-10-11 08:56,41.0,38.0,,1010.6,130.0,3.45,29.82,88.97,3.0,38.98,,,M,,,GNR,1060893,2023-10-11 09:00:00+00:00,1270.0,2.75,,
248234,2023-10-11 10:00:00+00:00,0.0,2023-10-11 09:56,43.0,39.0,,1010.9,100.0,3.45,29.83,85.66,3.0,41.26,,,M,,,GNR,1060897,2023-10-11 10:00:00+00:00,1250.0,2.74,,
248235,2023-10-11 11:00:00+00:00,0.0,2023-10-11 10:56,44.0,40.0,,1011.3,130.0,5.75,29.84,85.71,5.0,40.65,,,M,,,GNR,1060901,2023-10-11 11:00:00+00:00,1240.0,2.73,,
248236,2023-10-11 12:00:00+00:00,0.0,2023-10-11 11:56,44.0,41.0,,1011.9,130.0,5.75,29.85,89.11,5.0,40.65,,,M,,,GNR,1060905,2023-10-11 12:00:00+00:00,1230.0,2.72,,
248237,2023-10-11 13:00:00+00:00,0.0,2023-10-11 12:56,45.0,43.0,,1012.2,140.0,4.6,29.86,92.65,4.0,42.6,,,M,,,GNR,1060909,2023-10-11 13:00:00+00:00,1200.0,2.7,,
248238,2023-10-11 14:00:00+00:00,0.0,2023-10-11 13:56,47.0,45.0,,1012.4,,5.75,29.87,92.71,5.0,44.21,,,M,,,GNR,1060913,2023-10-11 14:00:00+00:00,1190.0,2.69,,
248239,2023-10-11 15:00:00+00:00,0.0,2023-10-11 14:56,48.0,45.0,,1012.5,140.0,4.6,29.88,89.29,4.0,46.1,,,M,,,GNR,1060917,2023-10-11 15:00:00+00:00,1190.0,2.69,,
248240,2023-10-11 16:00:00+00:00,0.25,2023-10-11 15:56,49.0,47.0,,1012.3,130.0,4.6,29.87,92.77,4.0,47.27,,,M,,,GNR,1060921,2023-10-11 16:00:00+00:00,1180.0,2.68,2023-10-11 16:00:00+00:00,gs://gcp-public-data-sentinel-2/tiles/19/T/DL/S2B_MSIL1C_20231011T153559_N0509_R111_T19TDL_20231011T184536.SAFE
248241,2023-10-11 17:00:00+00:00,0.25,2023-10-11 16:56,49.0,46.0,,1011.7,140.0,4.6,29.85,89.33,4.0,47.27,,,M,,,GNR,1060925,2023-10-11 17:00:00+00:00,1180.0,2.68,,
248242,2023-10-11 18:00:00+00:00,0.25,2023-10-11 17:56,49.0,46.0,,1010.8,80.0,6.9,29.82,89.33,6.0,46.0,,,M,,,GNR,1060929,2023-10-11 18:00:00+00:00,1170.0,2.67,,
248243,2023-10-11 19:00:00+00:00,0.0,2023-10-11 18:56,49.0,47.0,,1010.9,140.0,6.9,29.83,92.77,6.0,46.0,,,M,,,GNR,1060933,2023-10-11 19:00:00+00:00,1170.0,2.67,,
248244,2023-10-11 20:00:00+00:00,0.0,2023-10-11 19:56,49.0,47.0,,1010.5,140.0,8.05,29.81,92.77,7.0,45.5,,,M,,,GNR,1060937,2023-10-11 20:00:00+00:00,1160.0,2.66,,
248245,2023-10-11 21:00:00+00:00,0.25,2023-10-11 20:56,49.0,48.0,,1010.7,140.0,5.75,29.82,96.32,5.0,46.58,,,M,,,GNR,1060941,2023-10-11 21:00:00+00:00,1160.0,2.66,,
248246,2023-10-11 22:00:00+00:00,0.0,2023-10-11 21:56,49.0,48.0,,1010.9,140.0,4.6,29.83,96.32,4.0,47.27,,,M,,,GNR,1060945,2023-10-11 22:00:00+00:00,5650.0,5.1,,
248247,2023-10-11 23:00:00+00:00,0.0,2023-10-11 22:56,49.0,48.0,,1011.1,,3.45,29.84,96.32,3.0,48.12,,,M,,,GNR,1060949,2023-10-11 23:00:00+00:00,9340.0,6.59,,
248248,2023-10-12 00:00:00+00:00,0.25,2023-10-11 23:56,49.0,48.0,,1011.3,0.0,0.0,29.84,96.32,0.0,49.0,,,M,,,GNR,1060953,2023-10-12 00:00:00+00:00,9310.0,6.58,,
248249,2023-10-12 01:00:00+00:00,0.0,2023-10-12 00:56,48.0,46.0,,1011.5,0.0,0.0,29.85,92.74,0.0,48.0,,,M,,,GNR,1060957,2023-10-12 01:00:00+00:00,9360.0,6.6,,
248250,2023-10-12 02:00:00+00:00,0.0,2023-10-12 01:56,48.0,45.0,,1011.5,0.0,0.0,29.85,89.29,0.0,48.0,,,M,,,GNR,1060961,2023-10-12 02:00:00+00:00,9390.0,6.61,,
248251,2023-10-12 03:00:00+00:00,0.0,2023-10-12 02:56,48.0,44.0,,1011.7,0.0,0.0,29.85,85.95,0.0,48.0,,,M,,,GNR,1060965,2023-10-12 03:00:00+00:00,9390.0,6.61,,
248252,2023-10-12 04:00:00+00:00,0.0,2023-10-12 03:56,45.0,43.0,,1011.6,0.0,0.0,29.85,92.65,0.0,45.0,,,M,,,GNR,1060969,2023-10-12 04:00:00+00:00,9240.0,6.55,,
248253,2023-10-12 05:00:00+00:00,0.0,2023-10-12 04:56,44.0,42.0,,1011.7,0.0,0.0,29.85,92.61,0.0,44.0,,,M,,,GNR,1060973,2023-10-12 05:00:00+00:00,9210.0,6.54,,
248254,2023-10-12 06:00:00+00:00,0.0,2023-10-12 05:56,43.0,42.0,,1011.8,0.0,0.0,29.85,96.23,0.0,43.0,,,M,,,GNR,1060977,2023-10-12 06:00:00+00:00,4320.0,4.5,,
248255,2023-10-12 07:00:00+00:00,0.0,2023-10-12 06:56,43.0,42.0,,1011.6,0.0,0.0,29.85,96.23,0.0,43.0,,,M,,,GNR,1060981,2023-10-12 07:00:00+00:00,1960.0,3.25,,
248256,2023-10-12 08:00:00+00:00,0.0,2023-10-12 07:56,42.0,40.0,,1011.4,50.0,4.6,29.84,92.55,4.0,39.1,,,M,,,GNR,1060985,2023-10-12 08:00:00+00:00,1320.0,2.79,,
248257,2023-10-12 09:00:00+00:00,0.0,2023-10-12 08:56,42.0,40.0,,1011.5,0.0,0.0,29.84,92.55,0.0,42.0,,,M,,,GNR,1060989,2023-10-12 09:00:00+00:00,1150.0,2.65,,
248258,2023-10-12 10:00:00+00:00,0.0,2023-10-12 09:56,41.0,39.0,,1011.8,0.0,0.0,29.85,92.52,0.0,41.0,,,M,,,GNR,1060993,2023-10-12 10:00:00+00:00,1110.0,2.62,,
248259,2023-10-12 11:00:00+00:00,0.0,2023-10-12 10:56,41.0,39.0,,1012.1,110.0,3.45,29.86,92.52,3.0,38.98,,,M,,,GNR,1060997,2023-10-12 11:00:00+00:00,1100.0,2.61,,
248260,2023-10-12 12:00:00+00:00,0.0,2023-10-12 11:56,45.0,43.0,,1012.0,0.0,0.0,29.86,92.65,0.0,45.0,,,M,,,GNR,1061001,2023-10-12 12:00:00+00:00,1100.0,2.61,,
248261,2023-10-12 13:00:00+00:00,0.0,2023-10-12 12:56,50.0,45.0,,1011.7,0.0,0.0,29.85,82.86,0.0,50.0,,,M,,,GNR,1061005,2023-10-12 13:00:00+00:00,1090.0,2.6,,
248262,2023-10-12 14:00:00+00:00,0.0,2023-10-12 13:56,52.0,46.0,,1011.5,200.0,3.45,29.85,79.92,3.0,52.0,,,M,,,GNR,1061009,2023-10-12 14:00:00+00:00,1080.0,2.59,,
248263,2023-10-12 15:00:00+00:00,0.0,2023-10-12 14:56,52.0,45.0,,1011.2,,3.45,29.84,76.94,3.0,52.0,,,M,,,GNR,1061013,2023-10-12 15:00:00+00:00,1080.0,2.59,,
248264,2023-10-12 16:00:00+00:00,0.0,2023-10-12 15:56,53.0,44.0,,1011.2,,3.45,29.84,71.39,3.0,53.0,,,M,,,GNR,1061017,2023-10-12 16:00:00+00:00,1060.0,2.58,,
248265,2023-10-12 17:00:00+00:00,0.0,2023-10-12 16:56,53.0,45.0,,1010.8,110.0,3.45,29.83,74.16,3.0,53.0,,,M,,,GNR,1061021,2023-10-12 17:00:00+00:00,1060.0,2.58,,
248266,2023-10-12 18:00:00+00:00,0.0,2023-10-12 17:56,55.0,44.0,,1009.8,130.0,5.75,29.8,66.36,5.0,55.0,,,M,,,GNR,1061025,2023-10-12 18:00:00+00:00,1050.0,2.57,,
248267,2023-10-12 19:00:00+00:00,0.0,2023-10-12 18:56,52.0,46.0,,1009.8,140.0,6.9,29.8,79.92,6.0,52.0,,,M,,,GNR,1061029,2023-10-12 19:00:00+00:00,1050.0,2.57,,
248268,2023-10-12 20:00:00+00:00,2.54,2023-10-12 19:56,49.0,45.0,,1010.2,60.0,3.45,29.81,86.0,3.0,48.12,,,M,,,GNR,1061033,2023-10-12 20:00:00+00:00,1050.0,2.57,,
248269,2023-10-12 21:00:00+00:00,0.0,2023-10-12 20:56,47.0,43.0,,1009.9,40.0,3.45,29.8,85.89,3.0,45.84,,,M,,,GNR,1061037,2023-10-12 21:00:00+00:00,1050.0,2.57,,
248270,2023-10-12 22:00:00+00:00,0.0,2023-10-12 21:56,48.0,45.0,,1010.2,300.0,3.45,29.81,89.29,3.0,46.98,,,M,,,GNR,1061041,2023-10-12 22:00:00+00:00,1240.0,2.73,,
248271,2023-10-12 23:00:00+00:00,0.51,2023-10-12 22:56,45.0,43.0,,1010.4,300.0,4.6,29.81,92.65,4.0,42.6,,,M,,,GNR,1061045,2023-10-12 23:00:00+00:00,9010.0,6.46,,
248272,2023-10-13 00:00:00+00:00,0.0,2023-10-12 23:56,45.0,42.0,,1009.9,310.0,4.6,29.8,89.15,4.0,42.6,,,M,,,GNR,1061049,2023-10-13 00:00:00+00:00,9060.0,6.48,,
248273,2023-10-13 01:00:00+00:00,0.0,2023-10-13 00:56,46.0,42.0,,1009.9,310.0,8.05,29.8,85.83,7.0,41.84,,,M,,,GNR,1061053,2023-10-13 01:00:00+00:00,9060.0,6.48,,
248274,2023-10-13 02:00:00+00:00,0.0,2023-10-13 01:56,44.0,41.0,,1009.8,310.0,6.9,29.8,89.11,6.0,39.98,,,M,,,GNR,1061057,2023-10-13 02:00:00+00:00,9110.0,6.5,,
248275,2023-10-13 03:00:00+00:00,0.0,2023-10-13 02:56,43.0,41.0,,1009.5,300.0,3.45,29.79,92.58,3.0,41.26,,,M,,,GNR,1061061,2023-10-13 03:00:00+00:00,9140.0,6.51,,
248276,2023-10-13 04:00:00+00:00,0.0,2023-10-13 03:56,43.0,40.0,,1009.3,0.0,0.0,29.78,89.06,0.0,43.0,,,M,,,GNR,1061065,2023-10-13 04:00:00+00:00,9140.0,6.51,,
248277,2023-10-13 05:00:00+00:00,0.0,2023-10-13 04:56,43.0,40.0,,1009.3,310.0,4.6,29.78,89.06,4.0,40.27,,,M,,,GNR,1061069,2023-10-13 05:00:00+00:00,9110.0,6.5,,
248278,2023-10-13 06:00:00+00:00,0.0,2023-10-13 05:56,43.0,39.0,,1009.1,310.0,5.75,29.78,85.66,5.0,39.46,,,M,,,GNR,1061073,2023-10-13 06:00:00+00:00,4550.0,4.61,,
248279,2023-10-13 07:00:00+00:00,0.0,2023-10-13 06:56,43.0,38.0,,1008.4,310.0,8.05,29.76,82.37,7.0,38.19,,,M,,,GNR,1061077,2023-10-13 07:00:00+00:00,1990.0,3.27,,
248280,2023-10-13 08:00:00+00:00,0.0,2023-10-13 07:56,42.0,38.0,,1008.3,310.0,8.05,29.75,85.6,7.0,36.97,,15.0,M,,,GNR,1061081,2023-10-13 08:00:00+00:00,1300.0,2.78,,
248281,2023-10-13 09:00:00+00:00,0.51,2023-10-13 08:56,42.0,40.0,,1008.4,300.0,9.2,29.75,92.55,8.0,36.43,,15.0,M,,,GNR,1061085,2023-10-13 09:00:00+00:00,1100.0,2.61,,
248282,2023-10-13 10:00:00+00:00,0.0,2023-10-13 09:56,42.0,40.0,,1008.4,310.0,6.9,29.75,92.55,6.0,37.57,,,M,,,GNR,1061089,2023-10-13 10:00:00+00:00,1060.0,2.58,,
248283,2023-10-13 11:00:00+00:00,0.0,2023-10-13 10:56,43.0,40.0,,1008.7,310.0,6.9,29.76,89.06,6.0,38.78,,,M,,,GNR,1061093,2023-10-13 11:00:00+00:00,1050.0,2.57,,
248284,2023-10-13 12:00:00+00:00,0.0,2023-10-13 11:56,43.0,40.0,,1009.0,310.0,10.35,29.77,89.06,9.0,37.19,,16.0,M,,,GNR,1061097,2023-10-13 12:00:00+00:00,1040.0,2.56,,
248285,2023-10-13 13:00:00+00:00,0.0,2023-10-13 12:56,44.0,41.0,,1009.1,310.0,12.65,29.77,89.11,11.0,37.63,,18.0,M,,,GNR,1061101,2023-10-13 13:00:00+00:00,5860.0,5.19,,
248286,2023-10-13 14:00:00+00:00,0.0,2023-10-13 13:56,46.0,41.0,,1009.0,310.0,11.5,29.77,82.58,10.0,40.52,,22.0,M,26.0,,GNR,1061105,2023-10-13 14:00:00+00:00,9090.0,6.49,,
248287,2023-10-13 15:00:00+00:00,0.0,2023-10-13 14:56,48.0,40.0,,1009.0,320.0,12.65,29.77,73.67,11.0,42.69,,22.0,M,,,GNR,1061109,2023-10-13 15:00:00+00:00,4510.0,4.59,,
248288,2023-10-13 16:00:00+00:00,0.0,2023-10-13 15:56,49.0,40.0,,1008.8,310.0,14.95,29.76,70.96,13.0,43.35,,27.0,M,27.0,,GNR,1061113,2023-10-13 16:00:00+00:00,1950.0,3.24,,
248289,2023-10-13 17:00:00+00:00,0.0,2023-10-13 16:56,49.0,40.0,,1008.5,320.0,17.25,29.75,70.96,15.0,42.82,,22.0,M,26.0,,GNR,1061117,2023-10-13 17:00:00+00:00,1270.0,2.75,,
248290,2023-10-13 18:00:00+00:00,0.0,2023-10-13 17:56,50.0,41.0,,1008.1,320.0,14.95,29.75,71.07,13.0,50.0,,26.0,M,26.0,,GNR,1061121,2023-10-13 18:00:00+00:00,1050.0,2.57,,
248291,2023-10-13 19:00:00+00:00,0.0,2023-10-13 18:56,51.0,41.0,,1008.5,320.0,17.25,29.76,68.48,15.0,51.0,,26.0,M,31.0,,GNR,1061125,2023-10-13 19:00:00+00:00,1020.0,2.54,,
248292,2023-10-13 20:00:00+00:00,0.0,2023-10-13 19:56,51.0,42.0,,1008.6,330.0,16.1,29.76,71.18,14.0,51.0,,21.0,M,27.0,,GNR,1061129,2023-10-13 20:00:00+00:00,1020.0,2.54,,
248293,2023-10-13 21:00:00+00:00,0.0,2023-10-13 20:56,51.0,41.0,,1008.9,340.0,12.65,29.77,68.48,11.0,51.0,,21.0,M,,,GNR,1061133,2023-10-13 21:00:00+00:00,1010.0,2.53,,
248294,2023-10-13 22:00:00+00:00,0.0,2023-10-13 21:56,50.0,44.0,,1009.1,320.0,11.5,29.77,79.76,10.0,50.0,,23.0,M,,,GNR,1061137,2023-10-13 22:00:00+00:00,1780.0,3.13,,
248295,2023-10-13 23:00:00+00:00,0.51,2023-10-13 22:56,49.0,45.0,,1009.2,330.0,11.5,29.77,86.0,10.0,44.29,,18.0,M,26.0,,GNR,1061141,2023-10-13 23:00:00+00:00,8990.0,6.45,,
248296,2023-10-14 00:00:00+00:00,0.0,2023-10-13 23:56,49.0,44.0,,1009.3,350.0,13.8,29.78,82.79,12.0,43.64,,20.0,M,,,GNR,1061145,2023-10-14 00:00:00+00:00,9090.0,6.49,,
248297,2023-10-14 01:00:00+00:00,0.0,2023-10-14 00:56,49.0,43.0,,1009.6,320.0,13.8,29.79,79.68,12.0,43.64,,20.0,M,27.0,,GNR,1061149,2023-10-14 01:00:00+00:00,9060.0,6.48,,
248298,2023-10-14 02:00:00+00:00,0.0,2023-10-14 01:56,48.0,43.0,,1009.3,330.0,13.8,29.78,82.72,12.0,42.37,,21.0,M,,,GNR,1061153,2023-10-14 02:00:00+00:00,9090.0,6.49,,
248299,2023-10-14 03:00:00+00:00,0.0,2023-10-14 02:56,48.0,43.0,,1008.9,340.0,13.8,29.77,82.72,12.0,42.37,,21.0,M,,,GNR,1061157,2023-10-14 03:00:00+00:00,9110.0,6.5,,
248300,2023-10-14 04:00:00+00:00,0.0,2023-10-14 03:56,48.0,43.0,,1008.7,330.0,12.65,29.77,82.72,11.0,42.69,,21.0,M,,,GNR,1061161,2023-10-14 04:00:00+00:00,4210.0,4.45,,
248301,2023-10-14 05:00:00+00:00,0.0,2023-10-14 04:56,48.0,43.0,,1008.7,340.0,10.35,29.77,82.72,9.0,43.41,,16.0,M,,,GNR,1061165,2023-10-14 05:00:00+00:00,1870.0,3.19,,
248302,2023-10-14 06:00:00+00:00,0.0,2023-10-14 05:56,48.0,43.0,,1008.2,320.0,13.8,29.75,82.72,12.0,42.37,,19.0,M,,,GNR,1061169,2023-10-14 06:00:00+00:00,1220.0,2.71,,
248303,2023-10-14 07:00:00+00:00,0.0,2023-10-14 06:56,48.0,44.0,,1007.7,320.0,9.2,29.74,85.95,8.0,43.82,,19.0,M,,,GNR,1061173,2023-10-14 07:00:00+00:00,1030.0,2.55,,
248304,2023-10-14 08:00:00+00:00,0.0,2023-10-14 07:56,48.0,43.0,,1007.4,320.0,14.95,29.73,82.72,13.0,42.07,,27.0,M,27.0,,GNR,1061177,2023-10-14 08:00:00+00:00,1010.0,2.53,,
248305,2023-10-14 09:00:00+00:00,0.0,2023-10-14 08:56,47.0,44.0,,1007.3,330.0,12.65,29.73,89.24,11.0,41.42,,23.0,M,26.0,,GNR,1061181,2023-10-14 09:00:00+00:00,999.0,2.52,,
248306,2023-10-14 10:00:00+00:00,0.0,2023-10-14 09:56,47.0,43.0,,1007.2,320.0,12.65,29.72,85.89,11.0,41.42,,21.0,M,,,GNR,1061185,2023-10-14 10:00:00+00:00,987.0,2.51,,
248307,2023-10-14 11:00:00+00:00,0.0,2023-10-14 10:56,46.0,42.0,,1007.0,320.0,12.65,29.71,85.83,11.0,40.16,,22.0,M,,,GNR,1061189,2023-10-14 11:00:00+00:00,987.0,2.51,,
248308,2023-10-14 12:00:00+00:00,0.0,2023-10-14 11:56,47.0,43.0,,1007.2,310.0,11.5,29.72,85.89,10.0,41.78,,19.0,M,,,GNR,1061193,2023-10-14 12:00:00+00:00,976.0,2.5,,
248309,2023-10-14 13:00:00+00:00,0.0,2023-10-14 12:56,48.0,43.0,,1006.7,320.0,11.5,29.71,82.72,10.0,43.03,,19.0,M,,,GNR,1061197,2023-10-14 13:00:00+00:00,976.0,2.5,,
248310,2023-10-14 14:00:00+00:00,0.0,2023-10-14 13:56,50.0,42.0,,1006.1,310.0,11.5,29.69,73.87,10.0,50.0,,21.0,M,,,GNR,1061201,2023-10-14 14:00:00+00:00,976.0,2.5,,
248311,2023-10-14 15:00:00+00:00,0.0,2023-10-14 14:56,52.0,43.0,,1005.3,330.0,13.8,29.67,71.28,12.0,52.0,,20.0,M,,,GNR,1061205,2023-10-14 15:00:00+00:00,964.0,2.49,,
248312,2023-10-14 16:00:00+00:00,0.0,2023-10-14 15:56,52.0,42.0,,1005.0,310.0,12.65,29.66,68.59,11.0,52.0,,17.0,M,,,GNR,1061209,2023-10-14 16:00:00+00:00,964.0,2.49,2023-10-14 16:00:00+00:00,gs://gcp-public-data-sentinel-2/tiles/19/T/DL/S2B_MSIL1C_20231014T154119_N0509_R011_T19TDL_20231014T190027.SAFE
248313,2023-10-14 17:00:00+00:00,0.0,2023-10-14 16:56,54.0,43.0,,1003.9,310.0,11.5,29.63,66.24,10.0,54.0,,19.0,M,,,GNR,1061213,2023-10-14 17:00:00+00:00,5600.0,5.08,,
248314,2023-10-14 18:00:00+00:00,0.0,2023-10-14 17:56,52.0,42.0,,1003.0,320.0,10.35,29.6,68.59,9.0,52.0,,15.0,M,,,GNR,1061217,2023-10-14 18:00:00+00:00,5670.0,5.11,,
248315,2023-10-14 19:00:00+00:00,0.0,2023-10-14 18:56,56.0,41.0,,1002.3,310.0,9.2,29.59,57.02,8.0,56.0,,23.0,M,,,GNR,1061221,2023-10-14 19:00:00+00:00,4230.0,4.46,,
248316,2023-10-14 20:00:00+00:00,0.0,2023-10-14 19:56,53.0,41.0,,1002.0,290.0,9.2,29.57,63.61,8.0,53.0,,19.0,M,,,GNR,1061225,2023-10-14 20:00:00+00:00,1930.0,3.23,,
248317,2023-10-14 21:00:00+00:00,0.0,2023-10-14 20:56,52.0,41.0,,1001.9,310.0,8.05,29.57,66.0,7.0,52.0,,,M,,,GNR,1061229,2023-10-14 21:00:00+00:00,1200.0,2.7,,
248318,2023-10-14 22:00:00+00:00,0.0,2023-10-14 21:56,50.0,41.0,,1002.0,290.0,10.35,29.57,71.07,9.0,50.0,,20.0,M,,,GNR,1061233,2023-10-14 22:00:00+00:00,1460.0,2.9,,
248319,2023-10-14 23:00:00+00:00,0.0,2023-10-14 22:56,49.0,42.0,,1002.0,,5.75,29.57,76.67,5.0,46.58,,,M,,,GNR,1061237,2023-10-14 23:00:00+00:00,8940.0,6.43,,
248320,2023-10-15 00:00:00+00:00,0.0,2023-10-14 23:56,49.0,42.0,,1001.5,320.0,11.5,29.55,76.67,10.0,44.29,,19.0,M,,,GNR,1061241,2023-10-15 00:00:00+00:00,8990.0,6.45,,
248321,2023-10-15 01:00:00+00:00,0.0,2023-10-15 00:56,48.0,40.0,,1001.1,320.0,8.05,29.54,73.67,7.0,44.28,,14.0,M,,,GNR,1061245,2023-10-15 01:00:00+00:00,9010.0,6.46,,
248322,2023-10-15 02:00:00+00:00,0.0,2023-10-15 01:56,46.0,38.0,,1000.5,300.0,6.9,29.53,73.47,6.0,42.39,,,M,,,GNR,1061249,2023-10-15 02:00:00+00:00,9090.0,6.49,,
248323,2023-10-15 03:00:00+00:00,0.0,2023-10-15 02:56,45.0,38.0,,999.8,310.0,6.9,29.51,76.31,6.0,41.19,,,M,,,GNR,1061253,2023-10-15 03:00:00+00:00,9060.0,6.48,,
248324,2023-10-15 04:00:00+00:00,0.0,2023-10-15 03:56,44.0,39.0,,999.5,300.0,5.75,29.49,82.44,5.0,40.65,,,M,,,GNR,1061257,2023-10-15 04:00:00+00:00,9090.0,6.49,,
248325,2023-10-15 05:00:00+00:00,0.0,2023-10-15 04:56,44.0,38.0,,998.8,310.0,6.9,29.48,79.27,6.0,39.98,,,M,,,GNR,1061261,2023-10-15 05:00:00+00:00,4450.0,4.56,,
248326,2023-10-15 06:00:00+00:00,0.0,2023-10-15 05:56,44.0,39.0,,998.4,310.0,10.35,29.46,82.44,9.0,38.44,,,M,,,GNR,1061265,2023-10-15 06:00:00+00:00,1890.0,3.2,,
248327,2023-10-15 07:00:00+00:00,0.0,2023-10-15 06:56,44.0,39.0,,997.3,310.0,8.05,29.44,82.44,7.0,39.41,,,M,,,GNR,1061269,2023-10-15 07:00:00+00:00,1190.0,2.69,,
248328,2023-10-15 08:00:00+00:00,0.0,2023-10-15 07:56,43.0,39.0,,997.1,300.0,6.9,29.42,85.66,6.0,38.78,,,M,,,GNR,1061273,2023-10-15 08:00:00+00:00,976.0,2.5,,
248329,2023-10-15 09:00:00+00:00,0.0,2023-10-15 08:56,43.0,39.0,,996.9,310.0,6.9,29.42,85.66,6.0,38.78,,,M,,,GNR,1061277,2023-10-15 09:00:00+00:00,942.0,2.47,,
248330,2023-10-15 10:00:00+00:00,0.0,2023-10-15 09:56,44.0,40.0,,997.2,,5.75,29.43,85.71,5.0,40.65,,16.0,M,,,GNR,1061281,2023-10-15 10:00:00+00:00,930.0,2.46,,
248331,2023-10-15 11:00:00+00:00,0.0,2023-10-15 10:56,43.0,39.0,,997.8,0.0,0.0,29.44,85.66,0.0,43.0,,,M,,,GNR,1061285,2023-10-15 11:00:00+00:00,919.0,2.45,,
248332,2023-10-15 12:00:00+00:00,0.0,2023-10-15 11:56,44.0,40.0,,996.9,310.0,11.5,29.42,85.71,10.0,38.02,,21.0,M,,,GNR,1061289,2023-10-15 12:00:00+00:00,908.0,2.44,,
248333,2023-10-15 13:00:00+00:00,0.0,2023-10-15 12:56,45.0,40.0,,996.5,320.0,12.65,29.41,82.51,11.0,38.89,,19.0,M,,,GNR,1061293,2023-10-15 13:00:00+00:00,908.0,2.44,,
248334,2023-10-15 14:00:00+00:00,0.0,2023-10-15 13:56,46.0,40.0,,996.0,330.0,10.35,29.39,79.44,9.0,40.92,,19.0,M,,,GNR,1061297,2023-10-15 14:00:00+00:00,908.0,2.44,,
248335,2023-10-15 15:00:00+00:00,0.0,2023-10-15 14:56,47.0,39.0,,995.6,320.0,10.35,29.38,73.57,9.0,42.17,,23.0,M,,,GNR,1061301,2023-10-15 15:00:00+00:00,897.0,2.43,,
248336,2023-10-15 16:00:00+00:00,0.0,2023-10-15 15:56,48.0,40.0,,996.1,330.0,11.5,29.39,73.67,10.0,43.03,,17.0,M,,,GNR,1061305,2023-10-15 16:00:00+00:00,897.0,2.43,,
248337,2023-10-15 17:00:00+00:00,0.0,2023-10-15 16:56,49.0,41.0,,995.3,320.0,11.5,29.37,73.77,10.0,44.29,,18.0,M,,,GNR,1061309,2023-10-15 17:00:00+00:00,887.0,2.42,,
248338,2023-10-15 18:00:00+00:00,0.0,2023-10-15 17:56,49.0,41.0,,995.1,320.0,12.65,29.37,73.77,11.0,43.95,,16.0,M,,,GNR,1061313,2023-10-15 18:00:00+00:00,887.0,2.42,,
248339,2023-10-15 19:00:00+00:00,0.0,2023-10-15 18:56,48.0,42.0,,994.9,320.0,10.35,29.36,79.6,9.0,43.41,,19.0,M,,,GNR,1061317,2023-10-15 19:00:00+00:00,887.0,2.42,,
248340,2023-10-15 20:00:00+00:00,0.0,2023-10-15 19:56,47.0,45.0,,994.5,310.0,16.1,29.35,92.71,14.0,40.5,,24.0,M,,,GNR,1061321,2023-10-15 20:00:00+00:00,887.0,2.42,,
248341,2023-10-15 21:00:00+00:00,0.51,2023-10-15 20:56,48.0,46.0,,994.6,320.0,8.05,29.35,92.74,7.0,44.28,,18.0,M,,,GNR,1061325,2023-10-15 21:00:00+00:00,1240.0,2.73,,
248342,2023-10-15 22:00:00+00:00,2.03,2023-10-15 21:56,48.0,46.0,,994.8,330.0,13.8,29.35,92.74,12.0,42.37,,19.0,M,,,GNR,1061329,2023-10-15 22:00:00+00:00,8880.0,6.41,,
248343,2023-10-15 23:00:00+00:00,1.02,2023-10-15 22:56,49.0,47.0,,995.4,350.0,12.65,29.37,92.77,11.0,43.95,,,M,,,GNR,1061333,2023-10-15 23:00:00+00:00,8940.0,6.43,,
248344,2023-10-16 00:00:00+00:00,0.0,2023-10-15 23:56,49.0,45.0,,995.5,10.0,13.8,29.38,86.0,12.0,43.64,,21.0,M,,,GNR,1061337,2023-10-16 00:00:00+00:00,8990.0,6.45,,
248345,2023-10-16 01:00:00+00:00,0.0,2023-10-16 00:56,48.0,45.0,,995.6,350.0,11.5,29.38,89.29,10.0,43.03,,18.0,M,,,GNR,1061341,2023-10-16 01:00:00+00:00,8990.0,6.45,,
248346,2023-10-16 02:00:00+00:00,0.0,2023-10-16 01:56,48.0,45.0,,995.8,360.0,13.8,29.39,89.29,12.0,42.37,,25.0,M,,,GNR,1061345,2023-10-16 02:00:00+00:00,9010.0,6.46,,
248347,2023-10-16 03:00:00+00:00,0.0,2023-10-16 02:56,48.0,45.0,,995.7,360.0,12.65,29.38,89.29,11.0,42.69,,19.0,M,,,GNR,1061349,2023-10-16 03:00:00+00:00,9040.0,6.47,,
248348,2023-10-16 04:00:00+00:00,0.25,2023-10-16 03:56,47.0,44.0,,995.4,360.0,11.5,29.38,89.24,10.0,41.78,,19.0,M,,,GNR,1061353,2023-10-16 04:00:00+00:00,9040.0,6.47,,
248349,2023-10-16 05:00:00+00:00,0.0,2023-10-16 04:56,47.0,44.0,,995.6,340.0,13.8,29.38,89.24,12.0,41.09,,20.0,M,,,GNR,1061357,2023-10-16 05:00:00+00:00,4590.0,4.63,,
248350,2023-10-16 06:00:00+00:00,1.02,2023-10-16 05:56,46.0,44.0,,995.7,340.0,9.2,29.38,92.68,8.0,41.36,,16.0,M,,,GNR,1061361,2023-10-16 06:00:00+00:00,1900.0,3.21,,
248351,2023-10-16 07:00:00+00:00,0.0,2023-10-16 06:56,46.0,44.0,,995.9,350.0,9.2,29.39,92.68,8.0,41.36,,,M,,,GNR,1061365,2023-10-16 07:00:00+00:00,1180.0,2.68,,
248352,2023-10-16 08:00:00+00:00,0.25,2023-10-16 07:56,47.0,44.0,,996.3,360.0,10.35,29.4,89.24,9.0,42.17,,,M,,,GNR,1061369,2023-10-16 08:00:00+00:00,953.0,2.48,,
248353,2023-10-16 09:00:00+00:00,0.0,2023-10-16 08:56,47.0,45.0,,996.8,10.0,9.2,29.42,92.71,8.0,42.59,,,M,,,GNR,1061373,2023-10-16 09:00:00+00:00,919.0,2.45,,
248354,2023-10-16 10:00:00+00:00,0.25,2023-10-16 09:56,47.0,44.0,,997.5,10.0,12.65,29.44,89.24,11.0,41.42,,16.0,M,,,GNR,1061377,2023-10-16 10:00:00+00:00,908.0,2.44,,
248355,2023-10-16 11:00:00+00:00,0.0,2023-10-16 10:56,47.0,44.0,,998.2,10.0,9.2,29.46,89.24,8.0,42.59,,,M,,,GNR,1061381,2023-10-16 11:00:00+00:00,908.0,2.44,,
248356,2023-10-16 12:00:00+00:00,0.51,2023-10-16 11:56,47.0,44.0,,999.0,360.0,10.35,29.48,89.24,9.0,42.17,,20.0,M,,,GNR,1061385,2023-10-16 12:00:00+00:00,908.0,2.44,,
248357,2023-10-16 13:00:00+00:00,0.76,2023-10-16 12:56,47.0,44.0,,999.7,20.0,12.65,29.5,89.24,11.0,41.42,,18.0,M,,,GNR,1061389,2023-10-16 13:00:00+00:00,908.0,2.44,,
248358,2023-10-16 14:00:00+00:00,0.0,2023-10-16 13:56,48.0,45.0,,1000.4,10.0,9.2,29.52,89.29,8.0,43.82,,,M,,,GNR,1061393,2023-10-16 14:00:00+00:00,908.0,2.44,,
248359,2023-10-16 15:00:00+00:00,0.0,2023-10-16 14:56,48.0,45.0,,1001.0,10.0,9.2,29.54,89.29,8.0,43.82,,,M,,,GNR,1061397,2023-10-16 15:00:00+00:00,919.0,2.45,,
248360,2023-10-16 16:00:00+00:00,0.0,2023-10-16 15:56,49.0,46.0,,1001.5,10.0,6.9,29.55,89.33,6.0,46.0,,,M,,,GNR,1061401,2023-10-16 16:00:00+00:00,919.0,2.45,2023-10-16 16:00:00+00:00,gs://gcp-public-data-sentinel-2/tiles/19/T/DL/S2A_MSIL1C_20231016T153551_N0509_R111_T19TDL_20231016T191030.SAFE
248361,2023-10-16 17:00:00+00:00,0.0,2023-10-16 16:56,50.0,45.0,,1001.5,10.0,9.2,29.56,82.86,8.0,50.0,,,M,,,GNR,1061405,2023-10-16 17:00:00+00:00,930.0,2.46,,
248362,2023-10-16 18:00:00+00:00,0.25,2023-10-16 17:56,51.0,45.0,,1001.6,360.0,9.2,29.56,79.84,8.0,51.0,,,M,,,GNR,1061409,2023-10-16 18:00:00+00:00,942.0,2.47,,
248363,2023-10-16 19:00:00+00:00,0.25,2023-10-16 18:56,50.0,45.0,,1002.3,20.0,8.05,29.58,82.86,7.0,50.0,,,M,,,GNR,1061413,2023-10-16 19:00:00+00:00,942.0,2.47,,
248364,2023-10-16 20:00:00+00:00,0.0,2023-10-16 19:56,50.0,45.0,,1002.6,10.0,9.2,29.59,82.86,8.0,50.0,,,M,,,GNR,1061417,2023-10-16 20:00:00+00:00,3360.0,4.04,,
248365,2023-10-16 21:00:00+00:00,0.0,2023-10-16 20:56,50.0,44.0,,1003.0,10.0,6.9,29.6,79.76,6.0,50.0,,,M,,,GNR,1061421,2023-10-16 21:00:00+00:00,9040.0,6.47,,
248366,2023-10-16 22:00:00+00:00,0.0,2023-10-16 21:56,48.0,46.0,,1003.9,360.0,10.35,29.62,92.74,9.0,43.41,,15.0,M,,,GNR,1061425,2023-10-16 22:00:00+00:00,9090.0,6.49,,
248367,2023-10-16 23:00:00+00:00,1.27,2023-10-16 22:56,48.0,45.0,,1004.4,360.0,11.5,29.64,89.29,10.0,43.03,,17.0,M,,,GNR,1061429,2023-10-16 23:00:00+00:00,9110.0,6.5,,
248368,2023-10-17 00:00:00+00:00,0.0,2023-10-16 23:56,48.0,46.0,,1004.9,350.0,9.2,29.65,92.74,8.0,43.82,,,M,,,GNR,1061433,2023-10-17 00:00:00+00:00,9160.0,6.52,,
248369,2023-10-17 01:00:00+00:00,0.0,2023-10-17 00:56,48.0,45.0,,1005.6,10.0,10.35,29.67,89.29,9.0,43.41,,,M,,,GNR,1061437,2023-10-17 01:00:00+00:00,9160.0,6.52,,
248370,2023-10-17 02:00:00+00:00,0.76,2023-10-17 01:56,47.0,44.0,,1006.2,10.0,9.2,29.69,89.24,8.0,42.59,,,M,,,GNR,1061441,2023-10-17 02:00:00+00:00,9210.0,6.54,,
248371,2023-10-17 03:00:00+00:00,0.0,2023-10-17 02:56,47.0,45.0,,1006.6,320.0,4.6,29.7,92.71,4.0,44.94,,,M,,,GNR,1061445,2023-10-17 03:00:00+00:00,9210.0,6.54,,
248372,2023-10-17 04:00:00+00:00,0.0,2023-10-17 03:56,47.0,44.0,,1006.8,360.0,8.05,29.71,89.24,7.0,43.06,,,M,,,GNR,1061449,2023-10-17 04:00:00+00:00,9210.0,6.54,,
248373,2023-10-17 05:00:00+00:00,0.0,2023-10-17 04:56,46.0,43.0,,1007.1,360.0,9.2,29.72,89.2,8.0,41.36,,,M,,,GNR,1061453,2023-10-17 05:00:00+00:00,4400.0,4.54,,
248374,2023-10-17 06:00:00+00:00,0.0,2023-10-17 05:56,46.0,43.0,,1007.2,360.0,8.05,29.72,89.2,7.0,41.84,,,M,,,GNR,1061457,2023-10-17 06:00:00+00:00,1930.0,3.23,,
248375,2023-10-17 07:00:00+00:00,0.0,2023-10-17 06:56,45.0,42.0,,1007.6,360.0,6.9,29.73,89.15,6.0,41.19,,,M,,,GNR,1061461,2023-10-17 07:00:00+00:00,1270.0,2.75,,
248376,2023-10-17 08:00:00+00:00,0.0,2023-10-17 07:56,46.0,42.0,,1007.9,20.0,8.05,29.74,85.83,7.0,41.84,,,M,,,GNR,1061465,2023-10-17 08:00:00+00:00,1060.0,2.58,,
248377,2023-10-17 09:00:00+00:00,0.0,2023-10-17 08:56,45.0,42.0,,1008.4,360.0,6.9,29.76,89.15,6.0,41.19,,,M,,,GNR,1061469,2023-10-17 09:00:00+00:00,1030.0,2.55,,
248378,2023-10-17 10:00:00+00:00,0.0,2023-10-17 09:56,45.0,42.0,,1008.9,0.0,0.0,29.77,89.15,0.0,45.0,,,M,,,GNR,1061473,2023-10-17 10:00:00+00:00,1020.0,2.54,,
248379,2023-10-17 11:00:00+00:00,0.0,2023-10-17 10:56,44.0,41.0,,1009.4,310.0,3.45,29.78,89.11,3.0,42.41,,,M,,,GNR,1061477,2023-10-17 11:00:00+00:00,1020.0,2.54,,
248380,2023-10-17 12:00:00+00:00,0.0,2023-10-17 11:56,45.0,42.0,,1010.3,330.0,4.6,29.81,89.15,4.0,42.6,,,M,,,GNR,1061481,2023-10-17 12:00:00+00:00,1010.0,2.53,,
248381,2023-10-17 13:00:00+00:00,0.0,2023-10-17 12:56,47.0,42.0,,1011.1,360.0,8.05,29.83,82.65,7.0,43.06,,,M,,,GNR,1061485,2023-10-17 13:00:00+00:00,4830.0,4.74,,
248382,2023-10-17 14:00:00+00:00,0.0,2023-10-17 13:56,47.0,43.0,,1011.5,70.0,3.45,29.84,85.89,3.0,45.84,,,M,,,GNR,1061489,2023-10-17 14:00:00+00:00,9160.0,6.52,,
248383,2023-10-17 15:00:00+00:00,0.0,2023-10-17 14:56,49.0,41.0,,1011.9,350.0,5.75,29.86,73.77,5.0,46.58,,,M,,,GNR,1061493,2023-10-17 15:00:00+00:00,4620.0,4.64,,
248384,2023-10-17 16:00:00+00:00,0.0,2023-10-17 15:56,49.0,40.0,,1011.9,340.0,6.9,29.86,70.96,6.0,46.0,,,M,,,GNR,1061497,2023-10-17 16:00:00+00:00,1950.0,3.24,,
248385,2023-10-17 17:00:00+00:00,0.0,2023-10-17 16:56,50.0,41.0,,1011.7,0.0,0.0,29.85,71.07,0.0,50.0,,,M,,,GNR,1061501,2023-10-17 17:00:00+00:00,1240.0,2.73,,
248386,2023-10-17 18:00:00+00:00,0.0,2023-10-17 17:56,50.0,40.0,,1011.8,40.0,3.45,29.85,68.37,3.0,50.0,,,M,,,GNR,1061505,2023-10-17 18:00:00+00:00,1030.0,2.55,,
248387,2023-10-17 19:00:00+00:00,0.0,2023-10-17 18:56,50.0,41.0,,1011.9,350.0,5.75,29.86,71.07,5.0,50.0,,,M,,,GNR,1061509,2023-10-17 19:00:00+00:00,987.0,2.51,,
248388,2023-10-17 20:00:00+00:00,0.0,2023-10-17 19:56,50.0,41.0,,1012.2,0.0,0.0,29.87,71.07,0.0,50.0,,,M,,,GNR,1061513,2023-10-17 20:00:00+00:00,976.0,2.5,,
248389,2023-10-17 21:00:00+00:00,0.0,2023-10-17 20:56,49.0,42.0,,1012.8,0.0,0.0,29.88,76.67,0.0,49.0,,,M,,,GNR,1061517,2023-10-17 21:00:00+00:00,4420.0,4.55,,
248390,2023-10-17 22:00:00+00:00,0.0,2023-10-17 21:56,47.0,44.0,,1013.3,0.0,0.0,29.89,89.24,0.0,47.0,,,M,,,GNR,1061521,2023-10-17 22:00:00+00:00,9010.0,6.46,,
248391,2023-10-17 23:00:00+00:00,0.0,2023-10-17 22:56,47.0,44.0,,1014.1,0.0,0.0,29.92,89.24,0.0,47.0,,,M,,,GNR,1061525,2023-10-17 23:00:00+00:00,9060.0,6.48,,
248392,2023-10-18 00:00:00+00:00,0.0,2023-10-17 23:56,47.0,44.0,,1014.6,0.0,0.0,29.93,89.24,0.0,47.0,,,M,,,GNR,1061529,2023-10-18 00:00:00+00:00,9090.0,6.49,,
248393,2023-10-18 01:00:00+00:00,0.0,2023-10-18 00:56,47.0,44.0,,1015.2,0.0,0.0,29.95,89.24,0.0,47.0,,,M,,,GNR,1061533,2023-10-18 01:00:00+00:00,9090.0,6.49,,
248394,2023-10-18 02:00:00+00:00,0.0,2023-10-18 01:56,47.0,44.0,,1015.6,0.0,0.0,29.97,89.24,0.0,47.0,,,M,,,GNR,1061537,2023-10-18 02:00:00+00:00,9140.0,6.51,,
248395,2023-10-18 03:00:00+00:00,0.0,2023-10-18 02:56,46.0,44.0,,1016.0,0.0,0.0,29.98,92.68,0.0,46.0,,,M,,,GNR,1061541,2023-10-18 03:00:00+00:00,9160.0,6.52,,
248396,2023-10-18 04:00:00+00:00,0.0,2023-10-18 03:56,46.0,43.0,,1016.4,320.0,3.45,29.99,89.2,3.0,44.69,,,M,,,GNR,1061545,2023-10-18 04:00:00+00:00,9190.0,6.53,,
248397,2023-10-18 05:00:00+00:00,0.0,2023-10-18 04:56,45.0,41.0,,1017.0,330.0,3.45,30.01,85.77,3.0,43.55,,,M,,,GNR,1061549,2023-10-18 05:00:00+00:00,4660.0,4.66,,
248398,2023-10-18 06:00:00+00:00,0.0,2023-10-18 05:56,42.0,40.0,,1017.4,0.0,0.0,30.01,92.55,0.0,42.0,,,M,,,GNR,1061553,2023-10-18 06:00:00+00:00,1950.0,3.24,,
248399,2023-10-18 07:00:00+00:00,0.0,2023-10-18 06:56,44.0,41.0,,1017.6,340.0,3.45,30.02,89.11,3.0,42.41,,,M,,,GNR,1061557,2023-10-18 07:00:00+00:00,1230.0,2.72,,
248400,2023-10-18 08:00:00+00:00,0.0,2023-10-18 07:56,44.0,41.0,,1018.0,10.0,4.6,30.03,89.11,4.0,41.43,,,M,,,GNR,1061561,2023-10-18 08:00:00+00:00,1010.0,2.53,,
248401,2023-10-18 09:00:00+00:00,0.0,2023-10-18 08:56,41.0,39.0,,1018.6,0.0,0.0,30.05,92.52,0.0,41.0,,,M,,,GNR,1061565,2023-10-18 09:00:00+00:00,964.0,2.49,,
248402,2023-10-18 10:00:00+00:00,0.0,2023-10-18 09:56,41.0,39.0,,1019.1,0.0,0.0,30.06,92.52,0.0,41.0,,,M,,,GNR,1061569,2023-10-18 10:00:00+00:00,953.0,2.48,,
248403,2023-10-18 11:00:00+00:00,0.0,2023-10-18 10:56,42.0,42.0,,1019.4,0.0,0.0,30.07,100.0,0.0,42.0,,,M,,,GNR,1061573,2023-10-18 11:00:00+00:00,942.0,2.47,,
248404,2023-10-18 12:00:00+00:00,0.0,2023-10-18 11:56,44.0,42.0,,1019.9,0.0,0.0,30.09,92.61,0.0,44.0,,,M,,,GNR,1061577,2023-10-18 12:00:00+00:00,942.0,2.47,,
248405,2023-10-18 13:00:00+00:00,0.0,2023-10-18 12:56,48.0,45.0,,1020.1,0.0,0.0,30.1,89.29,0.0,48.0,,,M,,,GNR,1061581,2023-10-18 13:00:00+00:00,2350.0,3.49,,
248406,2023-10-18 14:00:00+00:00,0.0,2023-10-18 13:56,51.0,46.0,,1020.3,320.0,3.45,30.11,82.93,3.0,51.0,,,M,,,GNR,1061585,2023-10-18 14:00:00+00:00,9060.0,6.48,,
248407,2023-10-18 15:00:00+00:00,0.0,2023-10-18 14:56,52.0,43.0,,1020.4,0.0,0.0,30.11,71.28,0.0,52.0,,,M,,,GNR,1061589,2023-10-18 15:00:00+00:00,4590.0,4.63,,
248408,2023-10-18 16:00:00+00:00,0.0,2023-10-18 15:56,53.0,43.0,,1020.5,,3.45,30.12,68.71,3.0,53.0,,,M,,,GNR,1061593,2023-10-18 16:00:00+00:00,1920.0,3.22,,
248409,2023-10-18 17:00:00+00:00,0.0,2023-10-18 16:56,55.0,42.0,,1019.8,,3.45,30.09,61.46,3.0,55.0,,,M,,,GNR,1061597,2023-10-18 17:00:00+00:00,1190.0,2.69,,
248410,2023-10-18 18:00:00+00:00,0.0,2023-10-18 17:56,53.0,40.0,,1019.7,0.0,0.0,30.09,61.19,0.0,53.0,,,M,,,GNR,1061601,2023-10-18 18:00:00+00:00,976.0,2.5,,
248411,2023-10-18 19:00:00+00:00,0.0,2023-10-18 18:56,52.0,41.0,,1019.6,0.0,0.0,30.08,66.0,0.0,52.0,,,M,,,GNR,1061605,2023-10-18 19:00:00+00:00,930.0,2.46,,
248412,2023-10-18 20:00:00+00:00,0.0,2023-10-18 19:56,52.0,41.0,,1019.3,0.0,0.0,30.08,66.0,0.0,52.0,,,M,,,GNR,1061609,2023-10-18 20:00:00+00:00,919.0,2.45,,
248413,2023-10-18 21:00:00+00:00,0.0,2023-10-18 20:56,52.0,43.0,,1019.4,0.0,0.0,30.08,71.28,0.0,52.0,,,M,,,GNR,1061613,2023-10-18 21:00:00+00:00,1960.0,3.25,,
248414,2023-10-18 22:00:00+00:00,0.0,2023-10-18 21:56,50.0,43.0,,1019.5,0.0,0.0,30.08,76.76,0.0,50.0,,,M,,,GNR,1061617,2023-10-18 22:00:00+00:00,9240.0,6.55,,
248415,2023-10-18 23:00:00+00:00,0.0,2023-10-18 22:56,49.0,42.0,,1019.8,0.0,0.0,30.08,76.67,0.0,49.0,,,M,,,GNR,1061621,2023-10-18 23:00:00+00:00,9290.0,6.57,,
248416,2023-10-19 00:00:00+00:00,0.0,2023-10-18 23:56,49.0,42.0,,1019.6,0.0,0.0,30.08,76.67,0.0,49.0,,,M,,,GNR,1061625,2023-10-19 00:00:00+00:00,9290.0,6.57,,
248417,2023-10-19 01:00:00+00:00,0.0,2023-10-19 00:56,48.0,42.0,,1020.0,0.0,0.0,30.09,79.6,0.0,48.0,,,M,,,GNR,1061629,2023-10-19 01:00:00+00:00,9360.0,6.6,,
248418,2023-10-19 02:00:00+00:00,0.0,2023-10-19 01:56,48.0,43.0,,1019.7,0.0,0.0,30.09,82.72,0.0,48.0,,,M,,,GNR,1061633,2023-10-19 02:00:00+00:00,9310.0,6.58,,
248419,2023-10-19 03:00:00+00:00,0.0,2023-10-19 02:56,48.0,43.0,,1019.3,0.0,0.0,30.08,82.72,0.0,48.0,,,M,,,GNR,1061637,2023-10-19 03:00:00+00:00,9390.0,6.61,,
248420,2023-10-19 04:00:00+00:00,0.0,2023-10-19 03:56,48.0,41.0,,1019.1,0.0,0.0,30.07,76.58,0.0,48.0,,,M,,,GNR,1061641,2023-10-19 04:00:00+00:00,4360.0,4.52,,
248421,2023-10-19 05:00:00+00:00,0.0,2023-10-19 04:56,47.0,41.0,,1019.3,0.0,0.0,30.08,79.52,0.0,47.0,,,M,,,GNR,1061645,2023-10-19 05:00:00+00:00,1860.0,3.18,,
248422,2023-10-19 06:00:00+00:00,0.0,2023-10-19 05:56,47.0,42.0,,1019.1,0.0,0.0,30.07,82.65,0.0,47.0,,,M,,,GNR,1061649,2023-10-19 06:00:00+00:00,1170.0,2.67,,
248423,2023-10-19 07:00:00+00:00,0.0,2023-10-19 06:56,48.0,41.0,,1018.9,0.0,0.0,30.07,76.58,0.0,48.0,,,M,,,GNR,1061653,2023-10-19 07:00:00+00:00,964.0,2.49,,
248424,2023-10-19 08:00:00+00:00,0.0,2023-10-19 07:56,48.0,41.0,,1018.9,0.0,0.0,30.07,76.58,0.0,48.0,,,M,,,GNR,1061657,2023-10-19 08:00:00+00:00,919.0,2.45,,
248425,2023-10-19 09:00:00+00:00,0.0,2023-10-19 08:56,48.0,41.0,,1018.8,0.0,0.0,30.07,76.58,0.0,48.0,,,M,,,GNR,1061661,2023-10-19 09:00:00+00:00,908.0,2.44,,
248426,2023-10-19 10:00:00+00:00,0.0,2023-10-19 09:56,48.0,41.0,,1019.1,0.0,0.0,30.07,76.58,0.0,48.0,,,M,,,GNR,1061665,2023-10-19 10:00:00+00:00,908.0,2.44,,
248427,2023-10-19 11:00:00+00:00,0.0,2023-10-19 10:56,47.0,41.0,,1019.3,0.0,0.0,30.07,79.52,0.0,47.0,,,M,,,GNR,1061669,2023-10-19 11:00:00+00:00,897.0,2.43,,
248428,2023-10-19 12:00:00+00:00,0.0,2023-10-19 11:56,48.0,42.0,,1019.4,0.0,0.0,30.08,79.6,0.0,48.0,,,M,,,GNR,1061673,2023-10-19 12:00:00+00:00,897.0,2.43,,
248429,2023-10-19 13:00:00+00:00,0.0,2023-10-19 12:56,49.0,43.0,,1019.7,,3.45,30.09,79.68,3.0,48.12,,,M,,,GNR,1061677,2023-10-19 13:00:00+00:00,2040.0,3.3,,
248430,2023-10-19 14:00:00+00:00,0.0,2023-10-19 13:56,51.0,43.0,,1019.7,,3.45,30.09,73.97,3.0,51.0,,,M,,,GNR,1061681,2023-10-19 14:00:00+00:00,9040.0,6.47,,
248431,2023-10-19 16:00:00+00:00,0.0,2023-10-19 15:56,55.0,42.0,,1018.6,,4.6,30.06,61.46,4.0,55.0,,,M,,,GNR,1061689,2023-10-19 16:00:00+00:00,1810.0,3.15,2023-10-19 16:00:00+00:00,gs://gcp-public-data-sentinel-2/tiles/19/T/DL/S2A_MSIL1C_20231019T154251_N0509_R011_T19TDL_20231019T192815.SAFE
248432,2023-10-19 16:00:00+00:00,0.0,2023-10-19 15:56,55.0,42.0,,1018.6,,4.6,30.06,61.46,4.0,55.0,,,M,,,GNR,1061689,2023-10-19 16:00:00+00:00,1810.0,3.15,2023-10-19 16:00:00+00:00,gs://gcp-public-data-sentinel-2/tiles/19/T/DL/S2A_MSIL1C_20231019T154251_N0509_R011_T19TDL_20231019T210157.SAFE
248433,2023-10-19 17:00:00+00:00,0.0,2023-10-19 16:56,56.0,36.0,,1017.5,,4.6,30.03,46.88,4.0,56.0,,,M,,,GNR,1061693,2023-10-19 17:00:00+00:00,1150.0,2.65,,
248434,2023-10-19 18:00:00+00:00,0.0,2023-10-19 17:56,58.0,38.0,,1016.7,,4.6,30.01,47.2,4.0,58.0,,,M,,,GNR,1061697,2023-10-19 18:00:00+00:00,942.0,2.47,,
248435,2023-10-19 19:00:00+00:00,0.0,2023-10-19 18:56,58.0,37.0,,1016.5,,4.6,30.0,45.38,4.0,58.0,,,M,,,GNR,1061701,2023-10-19 19:00:00+00:00,897.0,2.43,,
248436,2023-10-19 20:00:00+00:00,0.0,2023-10-19 19:56,57.0,38.0,,1016.1,230.0,5.75,29.99,48.93,5.0,57.0,,,M,,,GNR,1061705,2023-10-19 20:00:00+00:00,887.0,2.42,,
248437,2023-10-19 21:00:00+00:00,0.0,2023-10-19 20:56,55.0,39.0,,1016.2,200.0,4.6,29.99,54.7,4.0,55.0,,,M,,,GNR,1061709,2023-10-19 21:00:00+00:00,887.0,2.42,,
248438,2023-10-19 22:00:00+00:00,0.0,2023-10-19 21:56,51.0,39.0,,1015.9,0.0,0.0,29.98,63.36,0.0,51.0,,,M,,,GNR,1061713,2023-10-19 22:00:00+00:00,2630.0,3.65,,
248439,2023-10-19 23:00:00+00:00,0.0,2023-10-19 22:56,51.0,38.0,,1016.0,,3.45,29.98,60.92,3.0,51.0,,,M,,,GNR,1061717,2023-10-19 23:00:00+00:00,9010.0,6.46,,
248440,2023-10-20 00:00:00+00:00,0.0,2023-10-19 23:56,51.0,40.0,,1016.1,160.0,4.6,29.99,65.87,4.0,51.0,,,M,,,GNR,1061721,2023-10-20 00:00:00+00:00,9010.0,6.46,,
248441,2023-10-20 01:00:00+00:00,0.0,2023-10-20 00:56,49.0,43.0,,1016.1,,3.45,29.98,79.68,3.0,48.12,,,M,,,GNR,1061725,2023-10-20 01:00:00+00:00,8990.0,6.45,,
248442,2023-10-20 02:00:00+00:00,0.0,2023-10-20 01:56,50.0,46.0,,1015.7,0.0,0.0,29.97,86.06,0.0,50.0,,,M,,,GNR,1061729,2023-10-20 02:00:00+00:00,9060.0,6.48,,
248443,2023-10-20 03:00:00+00:00,0.0,2023-10-20 02:56,48.0,46.0,,1015.1,150.0,6.9,29.96,92.74,6.0,44.8,,,M,,,GNR,1061733,2023-10-20 03:00:00+00:00,9040.0,6.47,,
248444,2023-10-20 04:00:00+00:00,0.0,2023-10-20 03:56,49.0,47.0,,1014.8,150.0,4.6,29.95,92.77,4.0,47.27,,,M,,,GNR,1061737,2023-10-20 04:00:00+00:00,4190.0,4.44,,
248445,2023-10-20 05:00:00+00:00,0.0,2023-10-20 04:56,50.0,47.0,,1014.4,170.0,3.45,29.94,89.37,3.0,50.0,,,M,,,GNR,1061741,2023-10-20 05:00:00+00:00,1800.0,3.14,,
248446,2023-10-20 06:00:00+00:00,0.0,2023-10-20 05:56,49.0,47.0,,1013.8,0.0,0.0,29.93,92.77,0.0,49.0,,,M,,,GNR,1061745,2023-10-20 06:00:00+00:00,1130.0,2.64,,
248447,2023-10-20 07:00:00+00:00,0.0,2023-10-20 06:56,49.0,47.0,,1013.2,,4.6,29.91,92.77,4.0,47.27,,,M,,,GNR,1061749,2023-10-20 07:00:00+00:00,930.0,2.46,,
248448,2023-10-20 08:00:00+00:00,0.0,2023-10-20 07:56,50.0,47.0,,1012.9,160.0,4.6,29.9,89.37,4.0,50.0,,,M,,,GNR,1061753,2023-10-20 08:00:00+00:00,887.0,2.42,,
248449,2023-10-20 09:00:00+00:00,0.0,2023-10-20 08:56,49.0,47.0,,1012.8,,5.75,29.89,92.77,5.0,46.58,,,M,,,GNR,1061757,2023-10-20 09:00:00+00:00,876.0,2.41,,
248450,2023-10-20 10:00:00+00:00,0.0,2023-10-20 09:56,49.0,46.0,,1012.5,,3.45,29.88,89.33,3.0,48.12,,,M,,,GNR,1061761,2023-10-20 10:00:00+00:00,876.0,2.41,,
248451,2023-10-20 11:00:00+00:00,0.0,2023-10-20 10:56,48.0,46.0,,1012.6,160.0,4.6,29.88,92.74,4.0,46.1,,,M,,,GNR,1061765,2023-10-20 11:00:00+00:00,865.0,2.4,,
248452,2023-10-20 12:00:00+00:00,0.0,2023-10-20 11:56,49.0,46.0,,1012.8,0.0,0.0,29.89,89.33,0.0,49.0,,,M,,,GNR,1061769,2023-10-20 12:00:00+00:00,865.0,2.4,,
248453,2023-10-20 13:00:00+00:00,0.0,2023-10-20 12:56,49.0,46.0,,1012.5,,4.6,29.88,89.33,4.0,47.27,,,M,,,GNR,1061773,2023-10-20 13:00:00+00:00,865.0,2.4,,
248454,2023-10-20 14:00:00+00:00,0.0,2023-10-20 13:56,50.0,47.0,,1012.7,180.0,9.2,29.89,89.37,8.0,50.0,,,M,,,GNR,1061777,2023-10-20 14:00:00+00:00,865.0,2.4,,
248455,2023-10-20 15:00:00+00:00,0.0,2023-10-20 14:56,52.0,46.0,,1012.4,190.0,8.05,29.88,79.92,7.0,52.0,,15.0,M,,,GNR,1061781,2023-10-20 15:00:00+00:00,855.0,2.39,,
248456,2023-10-20 16:00:00+00:00,0.0,2023-10-20 15:56,53.0,47.0,,1012.0,,3.45,29.87,80.0,3.0,53.0,,,M,,,GNR,1061785,2023-10-20 16:00:00+00:00,855.0,2.39,,
248457,2023-10-20 17:00:00+00:00,0.0,2023-10-20 16:56,55.0,48.0,,1011.1,180.0,9.2,29.85,77.21,8.0,55.0,,,M,,,GNR,1061789,2023-10-20 17:00:00+00:00,5530.0,5.05,,
248458,2023-10-20 18:00:00+00:00,0.0,2023-10-20 17:56,56.0,47.0,,1010.3,190.0,13.8,29.82,71.7,12.0,56.0,,20.0,M,,,GNR,1061793,2023-10-20 18:00:00+00:00,5580.0,5.07,,
248459,2023-10-20 19:00:00+00:00,0.0,2023-10-20 18:56,56.0,48.0,,1010.1,,,29.82,74.45,,56.0,,,M,,,GNR,1061797,2023-10-20 19:00:00+00:00,4230.0,4.46,,
248460,2023-10-20 20:00:00+00:00,0.0,2023-10-20 19:56,55.0,49.0,,1010.1,,4.6,29.82,80.15,4.0,55.0,,,M,,,GNR,1061801,2023-10-20 20:00:00+00:00,1900.0,3.21,,
248461,2023-10-20 21:00:00+00:00,0.0,2023-10-20 20:56,55.0,49.0,,1009.6,150.0,3.45,29.8,80.15,3.0,55.0,,,M,,,GNR,1061805,2023-10-20 21:00:00+00:00,1160.0,2.66,,
248462,2023-10-20 22:00:00+00:00,0.0,2023-10-20 21:56,54.0,50.0,,1009.3,140.0,8.05,29.79,86.29,7.0,54.0,,,M,,,GNR,1061809,2023-10-20 22:00:00+00:00,919.0,2.45,,
248463,2023-10-20 23:00:00+00:00,0.0,2023-10-20 22:56,53.0,52.0,,1009.1,140.0,11.5,29.78,96.39,10.0,53.0,,15.0,M,,,GNR,1061813,2023-10-20 23:00:00+00:00,908.0,2.44,,
248464,2023-10-21 00:00:00+00:00,0.25,2023-10-20 23:56,54.0,53.0,,1008.0,140.0,10.35,29.75,96.4,9.0,54.0,,16.0,M,,,GNR,1061817,2023-10-21 00:00:00+00:00,9010.0,6.46,,
248465,2023-10-21 01:00:00+00:00,0.0,2023-10-21 00:56,53.0,52.0,,1007.3,140.0,9.2,29.73,96.39,8.0,53.0,,,M,,,GNR,1061821,2023-10-21 01:00:00+00:00,9040.0,6.47,,
248466,2023-10-21 02:00:00+00:00,0.0,2023-10-21 01:56,53.0,52.0,,1006.6,150.0,8.05,29.71,96.39,7.0,53.0,,,M,,,GNR,1061825,2023-10-21 02:00:00+00:00,9010.0,6.46,,
248467,2023-10-21 03:00:00+00:00,0.0,2023-10-21 02:56,53.0,53.0,,1005.7,140.0,4.6,29.69,100.0,4.0,53.0,,,M,,,GNR,1061829,2023-10-21 03:00:00+00:00,4230.0,4.46,,
248468,2023-10-21 04:00:00+00:00,0.25,2023-10-21 03:56,53.0,52.0,,1004.0,110.0,9.2,29.64,96.39,8.0,53.0,,,M,,,GNR,1061833,2023-10-21 04:00:00+00:00,1810.0,3.15,,
248469,2023-10-21 05:00:00+00:00,0.25,2023-10-21 04:56,53.0,52.0,,1002.7,100.0,10.35,29.6,96.39,9.0,53.0,,,M,,,GNR,1061837,2023-10-21 05:00:00+00:00,1150.0,2.65,,
248470,2023-10-21 06:00:00+00:00,0.0,2023-10-21 05:56,53.0,52.0,,1001.7,110.0,8.05,29.57,96.39,7.0,53.0,,,M,,,GNR,1061841,2023-10-21 06:00:00+00:00,942.0,2.47,,
248471,2023-10-21 07:00:00+00:00,0.0,2023-10-21 06:56,53.0,52.0,,1000.1,90.0,10.35,29.53,96.39,9.0,53.0,,,M,,,GNR,1061845,2023-10-21 07:00:00+00:00,908.0,2.44,,
248472,2023-10-21 08:00:00+00:00,0.0,2023-10-21 07:56,53.0,53.0,,998.9,100.0,9.2,29.49,100.0,8.0,53.0,,,M,,,GNR,1061849,2023-10-21 08:00:00+00:00,897.0,2.43,,
248473,2023-10-21 09:00:00+00:00,0.0,2023-10-21 08:56,54.0,54.0,,998.0,90.0,5.75,29.47,100.0,5.0,54.0,,,M,,,GNR,1061853,2023-10-21 09:00:00+00:00,908.0,2.44,,
248474,2023-10-21 10:00:00+00:00,0.51,2023-10-21 09:56,54.0,53.0,,996.7,90.0,6.9,29.43,96.4,6.0,54.0,,,M,,,GNR,1061857,2023-10-21 10:00:00+00:00,908.0,2.44,,
248475,2023-10-21 11:00:00+00:00,0.25,2023-10-21 10:56,54.0,54.0,,996.2,110.0,3.45,29.41,100.0,3.0,54.0,,,M,,,GNR,1061861,2023-10-21 11:00:00+00:00,908.0,2.44,,
248476,2023-10-21 12:00:00+00:00,0.76,2023-10-21 11:56,54.0,54.0,,995.6,110.0,5.75,29.39,100.0,5.0,54.0,,,M,,,GNR,1061865,2023-10-21 12:00:00+00:00,908.0,2.44,,
248477,2023-10-21 13:00:00+00:00,0.0,2023-10-21 12:56,55.0,55.0,,994.5,110.0,5.75,29.36,100.0,5.0,55.0,,,M,,,GNR,1061869,2023-10-21 13:00:00+00:00,897.0,2.43,,
248478,2023-10-21 14:00:00+00:00,0.0,2023-10-21 13:56,55.0,54.0,,994.0,140.0,4.6,29.35,96.42,4.0,55.0,,,M,,,GNR,1061873,2023-10-21 14:00:00+00:00,897.0,2.43,,
248479,2023-10-21 15:00:00+00:00,0.51,2023-10-21 14:56,56.0,55.0,,992.9,120.0,8.05,29.32,96.43,7.0,56.0,,,M,,,GNR,1061877,2023-10-21 15:00:00+00:00,897.0,2.43,,
248480,2023-10-21 16:00:00+00:00,1.02,2023-10-21 15:56,56.0,54.0,,991.7,120.0,9.2,29.28,92.98,8.0,56.0,,,M,,,GNR,1061881,2023-10-21 16:00:00+00:00,897.0,2.43,2023-10-21 16:00:00+00:00,gs://gcp-public-data-sentinel-2/tiles/19/T/DL/S2B_MSIL1C_20231021T153559_N0509_R111_T19TDL_20231021T184750.SAFE
248481,2023-10-21 17:00:00+00:00,0.0,2023-10-21 16:56,56.0,54.0,,990.7,130.0,9.2,29.25,92.98,8.0,56.0,,,M,,,GNR,1061885,2023-10-21 17:00:00+00:00,5510.0,5.04,,
248482,2023-10-21 18:00:00+00:00,0.0,2023-10-21 17:56,56.0,54.0,,989.5,90.0,5.75,29.22,92.98,5.0,56.0,,,M,,,GNR,1061889,2023-10-21 18:00:00+00:00,5510.0,5.04,,
248483,2023-10-21 19:00:00+00:00,0.0,2023-10-21 18:56,56.0,53.0,,988.4,90.0,8.05,29.19,89.64,7.0,56.0,,,M,,,GNR,1061893,2023-10-21 19:00:00+00:00,4260.0,4.47,,
248484,2023-10-21 20:00:00+00:00,0.0,2023-10-21 19:56,56.0,54.0,,987.3,70.0,4.6,29.15,92.98,4.0,56.0,,,M,,,GNR,1061897,2023-10-21 20:00:00+00:00,6730.0,5.55,,
248485,2023-10-21 21:00:00+00:00,0.0,2023-10-21 20:56,56.0,52.0,,986.6,60.0,4.6,29.13,86.4,4.0,56.0,,,M,,,GNR,1061901,2023-10-21 21:00:00+00:00,8880.0,6.41,,
248486,2023-10-21 22:00:00+00:00,1.52,2023-10-21 21:56,54.0,52.0,,986.3,30.0,3.45,29.12,92.92,3.0,54.0,,,M,,,GNR,1061905,2023-10-21 22:00:00+00:00,8910.0,6.42,,
248487,2023-10-21 23:00:00+00:00,1.52,2023-10-21 22:56,54.0,52.0,,985.8,0.0,0.0,29.1,92.92,0.0,54.0,,,M,,,GNR,1061909,2023-10-21 23:00:00+00:00,8990.0,6.45,,
248488,2023-10-22 00:00:00+00:00,2.54,2023-10-21 23:56,54.0,52.0,,984.8,350.0,6.9,29.08,92.92,6.0,54.0,,,M,,,GNR,1061913,2023-10-22 00:00:00+00:00,8990.0,6.45,,
248489,2023-10-22 01:00:00+00:00,1.27,2023-10-22 00:56,53.0,52.0,,984.2,360.0,9.2,29.06,96.39,8.0,53.0,,,M,,,GNR,1061917,2023-10-22 01:00:00+00:00,9010.0,6.46,,
248490,2023-10-22 02:00:00+00:00,1.78,2023-10-22 01:56,53.0,52.0,,983.8,350.0,6.9,29.05,96.39,6.0,53.0,,,M,,,GNR,1061921,2023-10-22 02:00:00+00:00,9010.0,6.46,,
248491,2023-10-22 03:00:00+00:00,2.79,2023-10-22 02:56,53.0,51.0,,983.3,340.0,10.35,29.04,92.89,9.0,53.0,,,M,,,GNR,1061925,2023-10-22 03:00:00+00:00,9090.0,6.49,,
248492,2023-10-22 04:00:00+00:00,2.29,2023-10-22 03:56,53.0,51.0,,983.2,340.0,8.05,29.03,92.89,7.0,53.0,,,M,,,GNR,1061929,2023-10-22 04:00:00+00:00,4280.0,4.48,,
248493,2023-10-22 05:00:00+00:00,2.79,2023-10-22 04:56,53.0,51.0,,983.2,340.0,10.35,29.03,92.89,9.0,53.0,,17.0,M,,,GNR,1061933,2023-10-22 05:00:00+00:00,1770.0,3.12,,
248494,2023-10-22 06:00:00+00:00,2.54,2023-10-22 05:56,52.0,51.0,,984.0,340.0,11.5,29.05,96.37,10.0,52.0,,17.0,M,,,GNR,1061937,2023-10-22 06:00:00+00:00,1090.0,2.6,,
248495,2023-10-22 07:00:00+00:00,0.76,2023-10-22 06:56,52.0,50.0,,984.6,340.0,10.35,29.07,92.86,9.0,52.0,,17.0,M,,,GNR,1061941,2023-10-22 07:00:00+00:00,897.0,2.43,,
248496,2023-10-22 08:00:00+00:00,1.52,2023-10-22 07:56,52.0,50.0,,985.3,340.0,10.35,29.09,92.86,9.0,52.0,,,M,,,GNR,1061945,2023-10-22 08:00:00+00:00,876.0,2.41,,
248497,2023-10-22 09:00:00+00:00,1.78,2023-10-22 08:56,52.0,50.0,,986.5,350.0,6.9,29.13,92.86,6.0,52.0,,,M,,,GNR,1061949,2023-10-22 09:00:00+00:00,887.0,2.42,,
248498,2023-10-22 10:00:00+00:00,2.03,2023-10-22 09:56,51.0,49.0,,987.6,360.0,9.2,29.16,92.83,8.0,51.0,,,M,,,GNR,1061953,2023-10-22 10:00:00+00:00,897.0,2.43,,
248499,2023-10-22 11:00:00+00:00,1.27,2023-10-22 10:56,51.0,49.0,,988.7,350.0,6.9,29.19,92.83,6.0,51.0,,,M,,,GNR,1061957,2023-10-22 11:00:00+00:00,919.0,2.45,,
248500,2023-10-22 12:00:00+00:00,0.76,2023-10-22 11:56,51.0,50.0,,990.2,340.0,5.75,29.23,96.36,5.0,51.0,,,M,,,GNR,1061961,2023-10-22 12:00:00+00:00,942.0,2.47,,
248501,2023-10-22 13:00:00+00:00,0.76,2023-10-22 12:56,52.0,49.0,,991.5,,4.6,29.27,89.46,4.0,52.0,,,M,,,GNR,1061965,2023-10-22 13:00:00+00:00,976.0,2.5,,
248502,2023-10-22 14:00:00+00:00,1.02,2023-10-22 13:56,50.0,48.0,,992.5,300.0,8.05,29.3,92.8,7.0,50.0,,,M,,,GNR,1061969,2023-10-22 14:00:00+00:00,1010.0,2.53,,
248503,2023-10-22 15:00:00+00:00,1.78,2023-10-22 14:56,48.0,46.0,,993.6,320.0,10.35,29.33,92.74,9.0,43.41,,16.0,M,,,GNR,1061973,2023-10-22 15:00:00+00:00,1040.0,2.56,,
248504,2023-10-22 16:00:00+00:00,1.52,2023-10-22 15:56,47.0,45.0,,994.6,310.0,10.35,29.36,92.71,9.0,42.17,,17.0,M,,,GNR,1061977,2023-10-22 16:00:00+00:00,1080.0,2.59,,
248505,2023-10-22 17:00:00+00:00,0.25,2023-10-22 16:56,46.0,44.0,,995.2,320.0,11.5,29.37,92.68,10.0,40.52,,20.0,M,,,GNR,1061981,2023-10-22 17:00:00+00:00,1120.0,2.63,,
248506,2023-10-22 18:00:00+00:00,0.76,2023-10-22 17:56,46.0,44.0,,995.8,320.0,13.8,29.39,92.68,12.0,39.82,,19.0,M,,,GNR,1061985,2023-10-22 18:00:00+00:00,1160.0,2.66,,
248507,2023-10-22 19:00:00+00:00,0.76,2023-10-22 18:56,45.0,44.0,,996.6,310.0,8.05,29.41,96.26,7.0,40.63,,,M,,,GNR,1061989,2023-10-22 19:00:00+00:00,6310.0,5.38,,
248508,2023-10-22 20:00:00+00:00,1.27,2023-10-22 19:56,45.0,43.0,,997.5,320.0,12.65,29.44,92.65,11.0,38.89,,20.0,M,,,GNR,1061993,2023-10-22 20:00:00+00:00,9390.0,6.61,,
248509,2023-10-22 21:00:00+00:00,1.27,2023-10-22 20:56,45.0,43.0,,998.7,320.0,11.5,29.47,92.65,10.0,39.27,,21.0,M,,,GNR,1061997,2023-10-22 21:00:00+00:00,9440.0,6.63,,
248510,2023-10-22 22:00:00+00:00,2.29,2023-10-22 21:56,45.0,44.0,,999.9,340.0,13.8,29.51,96.26,12.0,38.55,,19.0,M,,,GNR,1062001,2023-10-22 22:00:00+00:00,9510.0,6.66,,
248511,2023-10-22 23:00:00+00:00,2.29,2023-10-22 22:56,47.0,45.0,,1001.1,340.0,9.2,29.54,92.71,8.0,42.59,,,M,,,GNR,1062005,2023-10-22 23:00:00+00:00,9540.0,6.67,,
248512,2023-10-23 00:00:00+00:00,1.27,2023-10-22 23:56,47.0,44.0,,1002.3,360.0,9.2,29.58,89.24,8.0,42.59,,22.0,M,,,GNR,1062009,2023-10-23 00:00:00+00:00,9590.0,6.69,,
248513,2023-10-23 01:00:00+00:00,1.52,2023-10-23 00:56,47.0,45.0,,1003.3,360.0,8.05,29.61,92.71,7.0,43.06,,,M,,,GNR,1062013,2023-10-23 01:00:00+00:00,9660.0,6.72,,
248514,2023-10-23 02:00:00+00:00,0.51,2023-10-23 01:56,46.0,43.0,,1004.6,10.0,8.05,29.64,89.2,7.0,41.84,,,M,,,GNR,1062017,2023-10-23 02:00:00+00:00,9720.0,6.74,,
248515,2023-10-23 03:00:00+00:00,0.76,2023-10-23 02:56,45.0,43.0,,1005.3,360.0,5.75,29.66,92.65,5.0,41.83,,15.0,M,,,GNR,1062021,2023-10-23 03:00:00+00:00,9740.0,6.75,,
248516,2023-10-23 04:00:00+00:00,0.25,2023-10-23 03:56,45.0,42.0,,1006.3,10.0,8.05,29.69,89.15,7.0,40.63,,,M,,,GNR,1062025,2023-10-23 04:00:00+00:00,4810.0,4.73,,
248517,2023-10-23 05:00:00+00:00,0.0,2023-10-23 04:56,45.0,41.0,,1007.1,360.0,6.9,29.71,85.77,6.0,41.19,,,M,,,GNR,1062029,2023-10-23 05:00:00+00:00,2200.0,3.4,,
248518,2023-10-23 06:00:00+00:00,0.0,2023-10-23 05:56,44.0,42.0,,1008.1,330.0,4.6,29.74,92.61,4.0,41.43,,,M,,,GNR,1062033,2023-10-23 06:00:00+00:00,1570.0,2.98,,
248519,2023-10-23 07:00:00+00:00,0.0,2023-10-23 06:56,42.0,39.0,,1008.8,330.0,5.75,29.76,89.01,5.0,38.27,,,M,,,GNR,1062037,2023-10-23 07:00:00+00:00,1430.0,2.88,,
248520,2023-10-23 08:00:00+00:00,0.0,2023-10-23 07:56,42.0,39.0,,1009.5,330.0,8.05,29.78,89.01,7.0,36.97,,,M,,,GNR,1062041,2023-10-23 08:00:00+00:00,1420.0,2.87,,
248521,2023-10-23 09:00:00+00:00,0.0,2023-10-23 08:56,42.0,38.0,,1010.4,340.0,6.9,29.81,85.6,6.0,37.57,,,M,,,GNR,1062045,2023-10-23 09:00:00+00:00,1410.0,2.86,,
248522,2023-10-23 10:00:00+00:00,0.0,2023-10-23 09:56,43.0,38.0,,1011.4,340.0,6.9,29.84,82.37,6.0,38.78,,,M,,,GNR,1062049,2023-10-23 10:00:00+00:00,1390.0,2.85,,
248523,2023-10-23 11:00:00+00:00,0.0,2023-10-23 10:56,42.0,38.0,,1012.0,350.0,9.2,29.86,85.6,8.0,36.43,,,M,,,GNR,1062053,2023-10-23 11:00:00+00:00,1380.0,2.84,,
248524,2023-10-23 12:00:00+00:00,0.0,2023-10-23 11:56,43.0,38.0,,1013.5,350.0,9.2,29.9,82.37,8.0,37.66,,,M,,,GNR,1062057,2023-10-23 12:00:00+00:00,1370.0,2.83,,
248525,2023-10-23 13:00:00+00:00,0.0,2023-10-23 12:56,44.0,38.0,,1014.5,340.0,5.75,29.93,79.27,5.0,40.65,,,M,,,GNR,1062061,2023-10-23 13:00:00+00:00,6270.0,5.36,,
248526,2023-10-23 14:00:00+00:00,0.0,2023-10-23 13:56,46.0,37.0,,1015.3,340.0,10.35,29.95,70.64,9.0,40.92,,19.0,M,,,GNR,1062065,2023-10-23 14:00:00+00:00,9660.0,6.72,,
248527,2023-10-23 16:00:00+00:00,0.0,2023-10-23 15:56,47.0,37.0,,1016.5,320.0,6.9,29.99,68.02,6.0,43.6,,,M,,,GNR,1062073,2023-10-23 16:00:00+00:00,2200.0,3.4,,
248528,2023-10-23 17:00:00+00:00,0.0,2023-10-23 16:56,47.0,38.0,,1016.8,330.0,6.9,30.0,70.74,6.0,43.6,,,M,,,GNR,1062077,2023-10-23 17:00:00+00:00,1500.0,2.93,,
248529,2023-10-23 18:00:00+00:00,0.0,2023-10-23 17:56,47.0,39.0,,1017.2,350.0,6.9,30.01,73.57,6.0,43.6,,,M,,,GNR,1062081,2023-10-23 18:00:00+00:00,1340.0,2.81,,
248530,2023-10-23 19:00:00+00:00,0.0,2023-10-23 18:56,48.0,40.0,,1017.5,340.0,6.9,30.02,73.67,6.0,44.8,,,M,,,GNR,1062085,2023-10-23 19:00:00+00:00,1320.0,2.79,,
248531,2023-10-23 20:00:00+00:00,0.0,2023-10-23 19:56,48.0,38.0,,1018.1,320.0,9.2,30.04,68.13,8.0,43.82,,,M,,,GNR,1062089,2023-10-23 20:00:00+00:00,1320.0,2.79,,
248532,2023-10-23 21:00:00+00:00,0.0,2023-10-23 20:56,48.0,38.0,,1018.7,320.0,8.05,30.05,68.13,7.0,44.28,,,M,,,GNR,1062093,2023-10-23 21:00:00+00:00,1320.0,2.79,,
248533,2023-10-23 22:00:00+00:00,0.0,2023-10-23 21:56,47.0,38.0,,1019.6,310.0,10.35,30.08,70.74,9.0,42.17,,19.0,M,,,GNR,1062097,2023-10-23 22:00:00+00:00,1300.0,2.78,,
248534,2023-10-23 23:00:00+00:00,0.0,2023-10-23 22:56,46.0,39.0,,1020.7,310.0,6.9,30.11,76.4,6.0,42.39,,,M,,,GNR,1062101,2023-10-23 23:00:00+00:00,5210.0,4.91,,
248535,2023-10-24 00:00:00+00:00,0.0,2023-10-23 23:56,44.0,38.0,,1021.6,,6.9,30.14,79.27,6.0,39.98,,,M,,,GNR,1062105,2023-10-24 00:00:00+00:00,9490.0,6.65,,
248536,2023-10-24 01:00:00+00:00,0.0,2023-10-24 00:56,43.0,36.0,,1022.5,310.0,6.9,30.16,76.12,6.0,38.78,,,M,,,GNR,1062109,2023-10-24 01:00:00+00:00,9440.0,6.63,,
248537,2023-10-24 02:00:00+00:00,0.0,2023-10-24 01:56,43.0,36.0,,1023.0,310.0,4.6,30.18,76.12,4.0,40.27,,,M,,,GNR,1062113,2023-10-24 02:00:00+00:00,9540.0,6.67,,
248538,2023-10-24 03:00:00+00:00,0.0,2023-10-24 02:56,43.0,35.0,,1023.3,310.0,5.75,30.19,73.16,5.0,39.46,,,M,,,GNR,1062117,2023-10-24 03:00:00+00:00,9640.0,6.71,,
248539,2023-10-24 04:00:00+00:00,0.0,2023-10-24 03:56,41.0,34.0,,1023.6,320.0,3.45,30.19,75.94,3.0,38.98,,,M,,,GNR,1062121,2023-10-24 04:00:00+00:00,5170.0,4.89,,
248540,2023-10-24 05:00:00+00:00,0.0,2023-10-24 04:56,39.0,33.0,,1024.0,0.0,0.0,30.2,78.86,0.0,39.0,,,M,,,GNR,1062125,2023-10-24 05:00:00+00:00,2220.0,3.41,,
248541,2023-10-24 06:00:00+00:00,0.0,2023-10-24 05:56,38.0,33.0,,1024.6,0.0,0.0,30.22,82.0,0.0,38.0,,,M,,,GNR,1062129,2023-10-24 06:00:00+00:00,1500.0,2.93,,
248542,2023-10-24 07:00:00+00:00,0.0,2023-10-24 06:56,37.0,33.0,,1025.0,,3.45,30.23,85.29,3.0,34.4,,,M,,,GNR,1062133,2023-10-24 07:00:00+00:00,1350.0,2.82,,
248543,2023-10-24 08:00:00+00:00,0.0,2023-10-24 07:56,36.0,32.0,,1025.2,0.0,0.0,30.24,85.23,0.0,36.0,,,M,,,GNR,1062137,2023-10-24 08:00:00+00:00,1330.0,2.8,,
248544,2023-10-24 09:00:00+00:00,0.0,2023-10-24 08:56,33.0,30.0,,1025.5,0.0,0.0,30.24,88.58,0.0,33.0,,,M,,,GNR,1062141,2023-10-24 09:00:00+00:00,1320.0,2.79,,
248545,2023-10-24 10:00:00+00:00,0.0,2023-10-24 09:56,32.0,30.0,,1025.7,0.0,0.0,30.25,92.22,0.0,32.0,,,M,,,GNR,1062145,2023-10-24 10:00:00+00:00,1300.0,2.78,,
248546,2023-10-24 11:00:00+00:00,0.0,2023-10-24 10:56,31.0,28.0,,1025.9,50.0,3.45,30.25,88.48,3.0,27.55,,,M,,,GNR,1062149,2023-10-24 11:00:00+00:00,1290.0,2.77,,
248547,2023-10-24 12:00:00+00:00,0.0,2023-10-24 11:56,35.0,32.0,,1026.7,200.0,4.6,30.28,88.68,4.0,30.92,,,M,,,GNR,1062153,2023-10-24 12:00:00+00:00,1290.0,2.77,,
248548,2023-10-24 13:00:00+00:00,0.0,2023-10-24 12:56,40.0,35.0,,1027.1,0.0,0.0,30.29,82.15,0.0,40.0,,,M,,,GNR,1062157,2023-10-24 13:00:00+00:00,5600.0,5.08,,
248549,2023-10-24 14:00:00+00:00,0.0,2023-10-24 13:56,42.0,35.0,,1027.0,190.0,4.6,30.29,76.03,4.0,39.1,,,M,,,GNR,1062161,2023-10-24 14:00:00+00:00,9360.0,6.6,,
248550,2023-10-24 15:00:00+00:00,0.0,2023-10-24 14:56,44.0,34.0,,1026.3,,4.6,30.27,67.66,4.0,41.43,,,M,,,GNR,1062165,2023-10-24 15:00:00+00:00,9410.0,6.62,,
248551,2023-10-24 16:00:00+00:00,0.0,2023-10-24 15:56,46.0,35.0,,1026.0,,3.45,30.26,65.26,3.0,44.69,,,M,,,GNR,1062169,2023-10-24 16:00:00+00:00,4640.0,4.65,2023-10-24 16:00:00+00:00,gs://gcp-public-data-sentinel-2/tiles/19/T/DL/S2B_MSIL1C_20231024T154229_N0509_R011_T19TDL_20231024T185857.SAFE
248552,2023-10-24 17:00:00+00:00,0.0,2023-10-24 16:56,47.0,34.0,,1025.5,,3.45,30.25,60.38,3.0,45.84,,,M,,,GNR,1062173,2023-10-24 17:00:00+00:00,2070.0,3.32,,
248553,2023-10-24 18:00:00+00:00,0.0,2023-10-24 17:56,48.0,35.0,,1024.9,,3.45,30.23,60.52,3.0,46.98,,,M,,,GNR,1062177,2023-10-24 18:00:00+00:00,1420.0,2.87,,
248554,2023-10-24 19:00:00+00:00,0.0,2023-10-24 18:56,47.0,36.0,,1024.7,200.0,6.9,30.22,65.38,6.0,43.6,,,M,,,GNR,1062181,2023-10-24 19:00:00+00:00,1270.0,2.75,,
248555,2023-10-24 20:00:00+00:00,0.0,2023-10-24 19:56,48.0,37.0,,1024.7,190.0,3.45,30.22,65.51,3.0,46.98,,,M,,,GNR,1062185,2023-10-24 20:00:00+00:00,1240.0,2.73,,
248556,2023-10-24 21:00:00+00:00,0.0,2023-10-24 20:56,48.0,38.0,,1024.6,,3.45,30.22,68.13,3.0,46.98,,,M,,,GNR,1062189,2023-10-24 21:00:00+00:00,1240.0,2.73,,
248557,2023-10-24 22:00:00+00:00,0.0,2023-10-24 21:56,46.0,38.0,,1024.5,200.0,4.6,30.21,73.47,4.0,43.77,,,M,,,GNR,1062193,2023-10-24 22:00:00+00:00,4770.0,4.71,,
248558,2023-10-24 23:00:00+00:00,0.0,2023-10-24 22:56,45.0,38.0,,1024.5,0.0,0.0,30.21,76.31,0.0,45.0,,,M,,,GNR,1062197,2023-10-24 23:00:00+00:00,9490.0,6.65,,
248559,2023-10-25 00:00:00+00:00,0.0,2023-10-24 23:56,44.0,37.0,,1024.1,160.0,3.45,30.2,76.22,3.0,42.41,,,M,,,GNR,1062201,2023-10-25 00:00:00+00:00,9560.0,6.68,,
248560,2023-10-25 01:00:00+00:00,0.0,2023-10-25 00:56,42.0,37.0,,1023.5,100.0,3.45,30.19,82.3,3.0,40.12,,,M,,,GNR,1062205,2023-10-25 01:00:00+00:00,9540.0,6.67,,
248561,2023-10-25 02:00:00+00:00,0.0,2023-10-25 01:56,41.0,37.0,,1023.6,,4.6,30.19,85.54,4.0,37.93,,,M,,,GNR,1062209,2023-10-25 02:00:00+00:00,9560.0,6.68,,
248562,2023-10-25 03:00:00+00:00,0.0,2023-10-25 02:56,42.0,38.0,,1023.5,0.0,0.0,30.19,85.6,0.0,42.0,,,M,,,GNR,1062213,2023-10-25 03:00:00+00:00,9560.0,6.68,,
248563,2023-10-25 04:00:00+00:00,0.0,2023-10-25 03:56,42.0,39.0,,1023.5,0.0,0.0,30.19,89.01,0.0,42.0,,,M,,,GNR,1062217,2023-10-25 04:00:00+00:00,9590.0,6.69,,
248564,2023-10-25 05:00:00+00:00,0.0,2023-10-25 04:56,42.0,38.0,,1022.7,80.0,3.45,30.17,85.6,3.0,40.12,,,M,,,GNR,1062221,2023-10-25 05:00:00+00:00,4830.0,4.74,,
248565,2023-10-25 06:00:00+00:00,0.0,2023-10-25 05:56,43.0,37.0,,1022.5,0.0,0.0,30.16,79.19,0.0,43.0,,,M,,,GNR,1062225,2023-10-25 06:00:00+00:00,2090.0,3.33,,
248566,2023-10-25 07:00:00+00:00,0.0,2023-10-25 06:56,45.0,37.0,,1022.3,0.0,0.0,30.16,73.37,0.0,45.0,,,M,,,GNR,1062229,2023-10-25 07:00:00+00:00,1410.0,2.86,,
248567,2023-10-25 08:00:00+00:00,0.0,2023-10-25 07:56,44.0,38.0,,1022.1,190.0,3.45,30.15,79.27,3.0,42.41,,,M,,,GNR,1062233,2023-10-25 08:00:00+00:00,1230.0,2.72,,
248568,2023-10-25 09:00:00+00:00,0.25,2023-10-25 08:56,44.0,40.0,,1021.1,0.0,0.0,30.12,85.71,0.0,44.0,,,M,,,GNR,1062237,2023-10-25 09:00:00+00:00,1220.0,2.71,,
248569,2023-10-25 10:00:00+00:00,0.0,2023-10-25 09:56,44.0,39.0,,1021.3,0.0,0.0,30.13,82.44,0.0,44.0,,,M,,,GNR,1062241,2023-10-25 10:00:00+00:00,1200.0,2.7,,
248570,2023-10-25 11:00:00+00:00,0.0,2023-10-25 10:56,46.0,39.0,,1021.0,160.0,3.45,30.12,76.4,3.0,44.69,,,M,,,GNR,1062245,2023-10-25 11:00:00+00:00,5600.0,5.08,,
248571,2023-10-25 12:00:00+00:00,0.0,2023-10-25 11:56,46.0,40.0,,1021.0,140.0,3.45,30.12,79.44,3.0,44.69,,,M,,,GNR,1062249,2023-10-25 12:00:00+00:00,9360.0,6.6,,
248572,2023-10-25 13:00:00+00:00,0.0,2023-10-25 12:56,50.0,41.0,,1020.7,0.0,0.0,30.11,71.07,0.0,50.0,,,M,,,GNR,1062253,2023-10-25 13:00:00+00:00,9440.0,6.63,,
248573,2023-10-25 14:00:00+00:00,0.0,2023-10-25 13:56,55.0,44.0,,1020.3,0.0,0.0,30.1,66.36,0.0,55.0,,,M,,,GNR,1062257,2023-10-25 14:00:00+00:00,9460.0,6.64,,
248574,2023-10-25 15:00:00+00:00,0.0,2023-10-25 14:56,59.0,46.0,,1019.7,,3.45,30.09,61.98,3.0,59.0,,,M,,,GNR,1062261,2023-10-25 15:00:00+00:00,4750.0,4.7,,
248575,2023-10-25 16:00:00+00:00,0.0,2023-10-25 15:56,61.0,46.0,,1020.0,,3.45,30.1,57.72,3.0,61.0,,,M,,,GNR,1062265,2023-10-25 16:00:00+00:00,2090.0,3.33,,
248576,2023-10-25 17:00:00+00:00,0.0,2023-10-25 16:56,61.0,47.0,,1018.3,0.0,0.0,30.05,59.94,0.0,61.0,,,M,,,GNR,1062269,2023-10-25 17:00:00+00:00,1380.0,2.84,,
248577,2023-10-25 18:00:00+00:00,0.0,2023-10-25 17:56,61.0,49.0,,1018.0,0.0,0.0,30.04,64.61,0.0,61.0,,,M,,,GNR,1062273,2023-10-25 18:00:00+00:00,1190.0,2.69,,
248578,2023-10-25 19:00:00+00:00,0.0,2023-10-25 18:56,58.0,49.0,,1017.6,160.0,3.45,30.03,71.91,3.0,58.0,,,M,,,GNR,1062277,2023-10-25 19:00:00+00:00,1170.0,2.67,,
248579,2023-10-25 20:00:00+00:00,0.0,2023-10-25 19:56,58.0,49.0,,1018.0,130.0,5.75,30.04,71.91,5.0,58.0,,,M,,,GNR,1062281,2023-10-25 20:00:00+00:00,1160.0,2.66,,
248580,2023-10-25 21:00:00+00:00,0.0,2023-10-25 20:56,59.0,51.0,,1017.7,200.0,5.75,30.04,74.74,5.0,59.0,,,M,,,GNR,1062285,2023-10-25 21:00:00+00:00,4700.0,4.68,,
248581,2023-10-25 22:00:00+00:00,0.0,2023-10-25 21:56,59.0,51.0,,1017.9,200.0,3.45,30.04,74.74,3.0,59.0,,,M,,,GNR,1062289,2023-10-25 22:00:00+00:00,9260.0,6.56,,
248582,2023-10-25 23:00:00+00:00,0.0,2023-10-25 22:56,59.0,51.0,,1018.4,0.0,0.0,30.06,74.74,0.0,59.0,,,M,,,GNR,1062293,2023-10-25 23:00:00+00:00,9310.0,6.58,,
248583,2023-10-26 00:00:00+00:00,0.0,2023-10-25 23:56,59.0,51.0,,1019.0,,3.45,30.08,74.74,3.0,59.0,,,M,,,GNR,1062297,2023-10-26 00:00:00+00:00,9440.0,6.63,,
248584,2023-10-26 01:00:00+00:00,0.0,2023-10-26 00:56,60.0,51.0,,1019.2,210.0,4.6,30.09,72.12,4.0,60.0,,,M,,,GNR,1062301,2023-10-26 01:00:00+00:00,9360.0,6.6,,
248585,2023-10-26 02:00:00+00:00,0.0,2023-10-26 01:56,59.0,51.0,,1019.1,,,30.09,74.74,,59.0,,,M,,,GNR,1062305,2023-10-26 02:00:00+00:00,9340.0,6.59,,
248586,2023-10-26 03:00:00+00:00,0.0,2023-10-26 02:56,59.0,51.0,,1019.5,0.0,0.0,30.1,74.74,0.0,59.0,,,M,,,GNR,1062309,2023-10-26 03:00:00+00:00,9340.0,6.59,,
248587,2023-10-26 04:00:00+00:00,0.0,2023-10-26 03:56,60.0,51.0,,1019.6,0.0,0.0,30.11,72.12,0.0,60.0,,,M,,,GNR,1062313,2023-10-26 04:00:00+00:00,4300.0,4.49,,
248588,2023-10-26 05:00:00+00:00,0.0,2023-10-26 04:56,60.0,51.0,,1019.5,0.0,0.0,30.1,72.12,0.0,60.0,,,M,,,GNR,1062317,2023-10-26 05:00:00+00:00,1950.0,3.24,,
248589,2023-10-26 06:00:00+00:00,0.0,2023-10-26 05:56,59.0,51.0,,1019.5,0.0,0.0,30.1,74.74,0.0,59.0,,,M,,,GNR,1062321,2023-10-26 06:00:00+00:00,1320.0,2.79,,
248590,2023-10-26 07:00:00+00:00,0.0,2023-10-26 06:56,60.0,50.0,,1019.2,300.0,5.75,30.09,69.49,5.0,60.0,,,M,,,GNR,1062325,2023-10-26 07:00:00+00:00,1160.0,2.66,,
248591,2023-10-26 08:00:00+00:00,0.0,2023-10-26 07:56,60.0,50.0,,1019.0,310.0,5.75,30.09,69.49,5.0,60.0,,,M,,,GNR,1062329,2023-10-26 08:00:00+00:00,1130.0,2.64,,
248592,2023-10-26 09:00:00+00:00,0.0,2023-10-26 08:56,58.0,49.0,,1019.3,0.0,0.0,30.1,71.91,0.0,58.0,,,M,,,GNR,1062333,2023-10-26 09:00:00+00:00,1120.0,2.63,,
248593,2023-10-26 10:00:00+00:00,0.0,2023-10-26 09:56,58.0,50.0,,1019.7,320.0,5.75,30.1,74.64,5.0,58.0,,,M,,,GNR,1062337,2023-10-26 10:00:00+00:00,1110.0,2.62,,
248594,2023-10-26 11:00:00+00:00,0.0,2023-10-26 10:56,60.0,50.0,,1019.9,310.0,6.9,30.11,69.49,6.0,60.0,,,M,,,GNR,1062341,2023-10-26 11:00:00+00:00,1110.0,2.62,,
248595,2023-10-26 12:00:00+00:00,0.0,2023-10-26 11:56,60.0,50.0,,1020.6,330.0,8.05,30.14,69.49,7.0,60.0,,,M,,,GNR,1062345,2023-10-26 12:00:00+00:00,1100.0,2.61,,
248596,2023-10-26 13:00:00+00:00,0.0,2023-10-26 12:56,60.0,51.0,,1021.2,0.0,0.0,30.15,72.12,0.0,60.0,,,M,,,GNR,1062349,2023-10-26 13:00:00+00:00,4080.0,4.39,,
248597,2023-10-26 14:00:00+00:00,0.0,2023-10-26 13:56,61.0,51.0,,1021.2,0.0,0.0,30.15,69.6,0.0,61.0,,,M,,,GNR,1062353,2023-10-26 14:00:00+00:00,9340.0,6.59,,
248598,2023-10-26 15:00:00+00:00,0.0,2023-10-26 14:56,64.0,51.0,,1020.8,,4.6,30.14,62.62,4.0,64.0,,,M,,,GNR,1062357,2023-10-26 15:00:00+00:00,9540.0,6.67,,
248599,2023-10-26 16:00:00+00:00,0.0,2023-10-26 15:56,64.0,52.0,,1020.7,,3.45,30.14,64.97,3.0,64.0,,,M,,,GNR,1062361,2023-10-26 16:00:00+00:00,9720.0,6.74,2023-10-26 16:00:00+00:00,gs://gcp-public-data-sentinel-2/tiles/19/T/DL/S2A_MSIL1C_20231026T153601_N0509_R111_T19TDL_20231026T191035.SAFE
248600,2023-10-26 17:00:00+00:00,0.0,2023-10-26 16:56,65.0,52.0,,1020.3,340.0,4.6,30.13,62.74,4.0,65.0,,,M,,,GNR,1062365,2023-10-26 17:00:00+00:00,9690.0,6.73,,
248601,2023-10-26 18:00:00+00:00,0.0,2023-10-26 17:56,64.0,53.0,,1020.2,310.0,4.6,30.13,67.41,4.0,64.0,,,M,,,GNR,1062369,2023-10-26 18:00:00+00:00,4400.0,4.54,,
248602,2023-10-26 19:00:00+00:00,0.0,2023-10-26 18:56,63.0,54.0,,1020.3,350.0,4.6,30.13,72.42,4.0,63.0,,,M,,,GNR,1062373,2023-10-26 19:00:00+00:00,1930.0,3.23,,
248603,2023-10-26 20:00:00+00:00,0.0,2023-10-26 19:56,62.0,54.0,,1020.2,40.0,3.45,30.12,75.02,3.0,62.0,,,M,,,GNR,1062377,2023-10-26 20:00:00+00:00,1280.0,2.76,,
248604,2023-10-26 21:00:00+00:00,0.0,2023-10-26 20:56,61.0,55.0,,1020.3,0.0,0.0,30.13,80.61,0.0,61.0,,,M,,,GNR,1062381,2023-10-26 21:00:00+00:00,1100.0,2.61,,
248605,2023-10-26 22:00:00+00:00,0.0,2023-10-26 21:56,60.0,54.0,,1020.9,0.0,0.0,30.14,80.53,0.0,60.0,,,M,,,GNR,1062385,2023-10-26 22:00:00+00:00,1330.0,2.8,,
248606,2023-10-26 23:00:00+00:00,0.0,2023-10-26 22:56,61.0,53.0,,1021.2,0.0,0.0,30.15,74.93,0.0,61.0,,,M,,,GNR,1062389,2023-10-26 23:00:00+00:00,9210.0,6.54,,
248607,2023-10-27 00:00:00+00:00,0.0,2023-10-26 23:56,59.0,53.0,,1021.0,340.0,3.45,30.15,80.46,3.0,59.0,,,M,,,GNR,1062393,2023-10-27 00:00:00+00:00,9210.0,6.54,,
248608,2023-10-27 01:00:00+00:00,0.0,2023-10-27 00:56,58.0,54.0,,1020.9,0.0,0.0,30.14,86.51,0.0,58.0,,,M,,,GNR,1062397,2023-10-27 01:00:00+00:00,9260.0,6.56,,
248609,2023-10-27 02:00:00+00:00,0.0,2023-10-27 01:56,59.0,54.0,,1020.7,60.0,3.45,30.14,83.46,3.0,59.0,,,M,,,GNR,1062401,2023-10-27 02:00:00+00:00,9190.0,6.53,,
248610,2023-10-27 03:00:00+00:00,0.0,2023-10-27 02:56,58.0,54.0,,1020.2,0.0,0.0,30.12,86.51,0.0,58.0,,,M,,,GNR,1062405,2023-10-27 03:00:00+00:00,4170.0,4.43,,
248611,2023-10-27 04:00:00+00:00,0.0,2023-10-27 03:56,57.0,54.0,,1019.8,130.0,3.45,30.11,89.68,3.0,57.0,,,M,,,GNR,1062409,2023-10-27 04:00:00+00:00,1870.0,3.19,,
248612,2023-10-27 06:00:00+00:00,0.0,2023-10-27 05:56,56.0,55.0,,1019.7,0.0,0.0,30.11,96.43,0.0,56.0,,,M,,,GNR,1062417,2023-10-27 06:00:00+00:00,1090.0,2.6,,
248613,2023-10-27 07:00:00+00:00,1.52,2023-10-27 06:56,56.0,56.0,,1018.7,150.0,5.75,30.08,100.0,5.0,56.0,,,M,,,GNR,1062421,2023-10-27 07:00:00+00:00,1060.0,2.58,,
248614,2023-10-27 08:00:00+00:00,0.0,2023-10-27 07:56,56.0,55.0,,1018.5,150.0,4.6,30.07,96.43,4.0,56.0,,,M,,,GNR,1062425,2023-10-27 08:00:00+00:00,1060.0,2.58,,
248615,2023-10-27 09:00:00+00:00,0.0,2023-10-27 08:56,56.0,54.0,,1018.2,110.0,4.6,30.06,92.98,4.0,56.0,,,M,,,GNR,1062429,2023-10-27 09:00:00+00:00,1050.0,2.57,,
248616,2023-10-27 10:00:00+00:00,0.0,2023-10-27 09:56,56.0,54.0,,1018.0,150.0,3.45,30.06,92.98,3.0,56.0,,,M,,,GNR,1062433,2023-10-27 10:00:00+00:00,1040.0,2.56,,
248617,2023-10-27 11:00:00+00:00,0.0,2023-10-27 10:56,55.0,54.0,,1017.7,150.0,3.45,30.05,96.42,3.0,55.0,,,M,,,GNR,1062437,2023-10-27 11:00:00+00:00,1040.0,2.56,,
248618,2023-10-27 12:00:00+00:00,0.0,2023-10-27 11:56,54.0,54.0,,1017.8,140.0,3.45,30.05,100.0,3.0,54.0,,,M,,,GNR,1062441,2023-10-27 12:00:00+00:00,1040.0,2.56,,
248619,2023-10-27 13:00:00+00:00,0.0,2023-10-27 12:56,57.0,54.0,,1017.5,120.0,4.6,30.04,89.68,4.0,57.0,,,M,,,GNR,1062445,2023-10-27 13:00:00+00:00,5350.0,4.97,,
248620,2023-10-27 14:00:00+00:00,0.0,2023-10-27 13:56,60.0,55.0,,1016.6,140.0,5.75,30.02,83.53,5.0,60.0,,,M,,,GNR,1062449,2023-10-27 14:00:00+00:00,9140.0,6.51,,
248621,2023-10-27 15:00:00+00:00,0.0,2023-10-27 14:56,63.0,56.0,,1016.3,,3.45,30.01,77.89,3.0,63.0,,,M,,,GNR,1062453,2023-10-27 15:00:00+00:00,9160.0,6.52,,
248622,2023-10-27 16:00:00+00:00,0.0,2023-10-27 15:56,68.0,58.0,,1015.5,,6.9,29.99,70.35,6.0,68.0,,,M,,,GNR,1062457,2023-10-27 16:00:00+00:00,4380.0,4.53,,
248623,2023-10-27 17:00:00+00:00,0.0,2023-10-27 16:56,68.0,57.0,,1014.9,200.0,8.05,29.97,67.86,7.0,68.0,,,M,,,GNR,1062461,2023-10-27 17:00:00+00:00,1900.0,3.21,,
248624,2023-10-27 18:00:00+00:00,0.0,2023-10-27 17:56,69.0,59.0,,1013.9,,4.6,29.94,70.46,4.0,69.0,,,M,,,GNR,1062465,2023-10-27 18:00:00+00:00,1250.0,2.74,,
248625,2023-10-27 19:00:00+00:00,0.0,2023-10-27 18:56,69.0,56.0,,1013.2,190.0,3.45,29.92,63.24,3.0,69.0,,,M,,,GNR,1062469,2023-10-27 19:00:00+00:00,1080.0,2.59,,
248626,2023-10-27 20:00:00+00:00,0.0,2023-10-27 19:56,67.0,57.0,,1012.8,0.0,0.0,29.91,70.24,0.0,67.0,,,M,,,GNR,1062473,2023-10-27 20:00:00+00:00,1050.0,2.57,,
248627,2023-10-27 21:00:00+00:00,0.0,2023-10-27 20:56,66.0,57.0,,1013.0,200.0,3.45,29.91,72.72,3.0,66.0,,,M,,,GNR,1062477,2023-10-27 21:00:00+00:00,4170.0,4.43,,
248628,2023-10-27 22:00:00+00:00,0.0,2023-10-27 21:56,64.0,57.0,,1012.7,0.0,0.0,29.9,77.97,0.0,64.0,,,M,,,GNR,1062481,2023-10-27 22:00:00+00:00,9090.0,6.49,,
248629,2023-10-27 23:00:00+00:00,0.0,2023-10-27 22:56,62.0,56.0,,1012.6,0.0,0.0,29.9,80.68,0.0,62.0,,,M,,,GNR,1062485,2023-10-27 23:00:00+00:00,9140.0,6.51,,
248630,2023-10-28 00:00:00+00:00,0.0,2023-10-27 23:56,63.0,57.0,,1012.2,0.0,0.0,29.89,80.76,0.0,63.0,,,M,,,GNR,1062489,2023-10-28 00:00:00+00:00,9140.0,6.51,,
248631,2023-10-28 01:00:00+00:00,0.0,2023-10-28 00:56,62.0,56.0,,1012.1,0.0,0.0,29.89,80.68,0.0,62.0,,,M,,,GNR,1062493,2023-10-28 01:00:00+00:00,9190.0,6.53,,
248632,2023-10-28 02:00:00+00:00,0.0,2023-10-28 01:56,62.0,56.0,,1011.9,0.0,0.0,29.88,80.68,0.0,62.0,,,M,,,GNR,1062497,2023-10-28 02:00:00+00:00,9210.0,6.54,,
248633,2023-10-28 03:00:00+00:00,0.0,2023-10-28 02:56,60.0,56.0,,1011.5,190.0,4.6,29.87,86.61,4.0,60.0,,,M,,,GNR,1062501,2023-10-28 03:00:00+00:00,9240.0,6.55,,
248634,2023-10-28 04:00:00+00:00,0.0,2023-10-28 03:56,62.0,55.0,,1010.9,0.0,0.0,29.86,77.81,0.0,62.0,,,M,,,GNR,1062505,2023-10-28 04:00:00+00:00,9240.0,6.55,,
248635,2023-10-28 05:00:00+00:00,0.0,2023-10-28 04:56,62.0,55.0,,1010.4,0.0,0.0,29.85,77.81,0.0,62.0,,,M,,,GNR,1062509,2023-10-28 05:00:00+00:00,9190.0,6.53,,
248636,2023-10-28 06:00:00+00:00,0.0,2023-10-28 05:56,61.0,55.0,,1010.0,0.0,0.0,29.83,80.61,0.0,61.0,,,M,,,GNR,1062513,2023-10-28 06:00:00+00:00,4400.0,4.54,,
248637,2023-10-28 07:00:00+00:00,0.0,2023-10-28 06:56,59.0,55.0,,1009.5,0.0,0.0,29.82,86.56,0.0,59.0,,,M,,,GNR,1062517,2023-10-28 07:00:00+00:00,1900.0,3.21,,
248638,2023-10-28 08:00:00+00:00,0.0,2023-10-28 07:56,62.0,56.0,,1009.3,,3.45,29.81,80.68,3.0,62.0,,,M,,,GNR,1062521,2023-10-28 08:00:00+00:00,1230.0,2.72,,
248639,2023-10-28 10:00:00+00:00,0.0,2023-10-28 09:56,59.0,55.0,,1009.0,0.0,0.0,29.8,86.56,0.0,59.0,,,M,,,GNR,1062529,2023-10-28 10:00:00+00:00,1010.0,2.53,,
248640,2023-10-28 11:00:00+00:00,0.0,2023-10-28 10:56,59.0,55.0,,1009.2,0.0,0.0,29.8,86.56,0.0,59.0,,,M,,,GNR,1062533,2023-10-28 11:00:00+00:00,987.0,2.51,,
248641,2023-10-28 12:00:00+00:00,0.0,2023-10-28 11:56,61.0,57.0,,1009.1,,3.45,29.8,86.67,3.0,61.0,,,M,,,GNR,1062537,2023-10-28 12:00:00+00:00,987.0,2.51,,
248642,2023-10-28 13:00:00+00:00,0.0,2023-10-28 12:56,62.0,56.0,,1008.1,210.0,6.9,29.77,80.68,6.0,62.0,,,M,,,GNR,1062541,2023-10-28 13:00:00+00:00,976.0,2.5,,
248643,2023-10-28 14:00:00+00:00,0.0,2023-10-28 13:56,68.0,57.0,,1008.0,,5.75,29.77,67.86,5.0,68.0,,,M,,,GNR,1062545,2023-10-28 14:00:00+00:00,976.0,2.5,,
248644,2023-10-28 15:00:00+00:00,0.0,2023-10-28 14:56,69.0,57.0,,1007.9,,3.45,29.77,65.57,3.0,69.0,,,M,,,GNR,1062549,2023-10-28 15:00:00+00:00,976.0,2.5,,
248645,2023-10-28 16:00:00+00:00,0.0,2023-10-28 15:56,71.0,56.0,,1007.4,,5.75,29.76,59.07,5.0,71.0,,,M,,,GNR,1062553,2023-10-28 16:00:00+00:00,964.0,2.49,,
248646,2023-10-28 17:00:00+00:00,0.0,2023-10-28 16:56,73.0,57.0,,1007.3,,,29.76,57.23,,73.0,,,M,,,GNR,1062557,2023-10-28 17:00:00+00:00,964.0,2.49,,
248647,2023-10-28 19:00:00+00:00,0.0,2023-10-28 18:56,69.0,54.0,,1007.7,,5.75,29.76,58.8,5.0,69.0,,,M,,,GNR,1062565,2023-10-28 19:00:00+00:00,964.0,2.49,,
248648,2023-10-28 20:00:00+00:00,0.0,2023-10-28 19:56,65.0,52.0,,1009.1,310.0,20.7,29.8,62.74,18.0,65.0,,31.0,M,31.0,,GNR,1062569,2023-10-28 20:00:00+00:00,964.0,2.49,,
248649,2023-10-28 21:00:00+00:00,0.0,2023-10-28 20:56,60.0,45.0,,1010.7,290.0,8.05,29.84,57.58,7.0,60.0,,17.0,M,29.0,,GNR,1062573,2023-10-28 21:00:00+00:00,964.0,2.49,,
248650,2023-10-28 22:00:00+00:00,0.0,2023-10-28 21:56,56.0,43.0,,1011.8,300.0,10.35,29.87,61.59,9.0,56.0,,28.0,M,28.0,,GNR,1062577,2023-10-28 22:00:00+00:00,8600.0,6.3,,
248651,2023-10-28 23:00:00+00:00,0.0,2023-10-28 22:56,53.0,38.0,,1013.3,300.0,14.95,29.91,56.59,13.0,53.0,,27.0,M,32.0,,GNR,1062581,2023-10-28 23:00:00+00:00,8600.0,6.3,,
248652,2023-10-29 00:00:00+00:00,0.0,2023-10-28 23:56,50.0,35.0,,1014.1,310.0,20.7,29.94,56.16,18.0,50.0,,30.0,M,30.0,,GNR,1062585,2023-10-29 00:00:00+00:00,8600.0,6.3,,
248653,2023-10-29 01:00:00+00:00,0.0,2023-10-29 00:56,47.0,35.0,,1014.9,320.0,19.55,29.96,62.84,17.0,39.73,,29.0,M,34.0,,GNR,1062589,2023-10-29 01:00:00+00:00,8600.0,6.3,,
248654,2023-10-29 02:00:00+00:00,0.0,2023-10-29 01:56,44.0,34.0,,1016.0,320.0,17.25,29.99,67.66,15.0,36.34,,27.0,M,29.0,,GNR,1062593,2023-10-29 02:00:00+00:00,8630.0,6.31,,
248655,2023-10-29 03:00:00+00:00,0.0,2023-10-29 02:56,42.0,32.0,,1017.0,320.0,18.4,30.02,67.42,16.0,33.45,,28.0,M,33.0,,GNR,1062597,2023-10-29 03:00:00+00:00,8650.0,6.32,,
248656,2023-10-29 04:00:00+00:00,0.0,2023-10-29 03:56,40.0,30.0,,1017.0,320.0,18.4,30.02,67.18,16.0,30.85,,28.0,M,35.0,,GNR,1062601,2023-10-29 04:00:00+00:00,8650.0,6.32,,
248657,2023-10-29 05:00:00+00:00,0.0,2023-10-29 04:56,39.0,29.0,,1017.5,320.0,13.8,30.03,67.06,12.0,30.91,,25.0,M,30.0,,GNR,1062605,2023-10-29 05:00:00+00:00,4490.0,4.58,,
248658,2023-10-29 06:00:00+00:00,0.0,2023-10-29 05:56,38.0,29.0,,1017.9,320.0,16.1,30.04,69.74,14.0,28.9,,26.0,M,28.0,,GNR,1062609,2023-10-29 06:00:00+00:00,1890.0,3.2,,
248659,2023-10-29 07:00:00+00:00,0.0,2023-10-29 06:56,37.0,28.0,,1017.9,330.0,13.8,30.04,69.63,12.0,28.37,,23.0,M,,,GNR,1062613,2023-10-29 07:00:00+00:00,1190.0,2.69,,
248660,2023-10-29 08:00:00+00:00,0.0,2023-10-29 07:56,37.0,28.0,,1018.6,340.0,14.95,30.06,69.63,13.0,27.97,,22.0,M,,,GNR,1062617,2023-10-29 08:00:00+00:00,999.0,2.52,,
248661,2023-10-29 09:00:00+00:00,0.0,2023-10-29 08:56,36.0,28.0,,1019.8,310.0,8.05,30.09,72.43,7.0,29.65,,20.0,M,,,GNR,1062621,2023-10-29 09:00:00+00:00,942.0,2.47,,
248662,2023-10-29 10:00:00+00:00,0.0,2023-10-29 09:56,35.0,27.0,,1020.3,300.0,8.05,30.1,72.32,7.0,28.44,,16.0,M,,,GNR,1062625,2023-10-29 10:00:00+00:00,930.0,2.46,,
248663,2023-10-29 11:00:00+00:00,0.0,2023-10-29 10:56,34.0,26.0,,1020.1,310.0,9.2,30.09,72.22,8.0,26.58,,,M,,,GNR,1062629,2023-10-29 11:00:00+00:00,919.0,2.45,,
248664,2023-10-29 12:00:00+00:00,0.0,2023-10-29 11:56,34.0,26.0,,1020.1,330.0,16.1,30.09,72.22,14.0,23.74,,24.0,M,26.0,,GNR,1062633,2023-10-29 12:00:00+00:00,908.0,2.44,,
248665,2023-10-29 13:00:00+00:00,0.0,2023-10-29 12:56,34.0,27.0,,1021.6,310.0,9.2,30.13,75.26,8.0,26.58,,17.0,M,,,GNR,1062637,2023-10-29 13:00:00+00:00,908.0,2.44,,
248666,2023-10-29 14:00:00+00:00,0.0,2023-10-29 13:56,35.0,27.0,,1021.5,310.0,12.65,30.13,72.32,11.0,26.26,,18.0,M,,,GNR,1062641,2023-10-29 14:00:00+00:00,897.0,2.43,,
248667,2023-10-29 15:00:00+00:00,0.0,2023-10-29 14:56,35.0,26.0,,1021.9,300.0,6.9,30.14,69.39,6.0,29.14,,18.0,M,,,GNR,1062645,2023-10-29 15:00:00+00:00,897.0,2.43,,
248668,2023-10-29 16:00:00+00:00,0.0,2023-10-29 15:56,35.0,26.0,,1021.9,300.0,4.6,30.13,69.39,4.0,30.92,,,M,,,GNR,1062649,2023-10-29 16:00:00+00:00,897.0,2.43,2023-10-29 16:00:00+00:00,gs://gcp-public-data-sentinel-2/tiles/19/T/DL/S2A_MSIL1C_20231029T154351_N0509_R011_T19TDL_20231029T192703.SAFE
248669,2023-10-29 17:00:00+00:00,0.0,2023-10-29 16:56,36.0,26.0,,1021.3,320.0,4.6,30.11,66.69,4.0,32.09,,,M,,,GNR,1062653,2023-10-29 17:00:00+00:00,887.0,2.42,,
248670,2023-10-29 18:00:00+00:00,0.0,2023-10-29 17:56,37.0,26.0,,1020.3,,3.45,30.08,64.11,3.0,34.4,,,M,,,GNR,1062657,2023-10-29 18:00:00+00:00,887.0,2.42,,
248671,2023-10-29 19:00:00+00:00,0.0,2023-10-29 18:56,38.0,26.0,,1020.2,330.0,10.35,30.08,61.64,9.0,30.97,,,M,,,GNR,1062661,2023-10-29 19:00:00+00:00,876.0,2.41,,
248672,2023-10-29 20:00:00+00:00,0.0,2023-10-29 19:56,39.0,27.0,,1020.7,320.0,5.75,30.1,61.78,5.0,34.71,,,M,,,GNR,1062665,2023-10-29 20:00:00+00:00,876.0,2.41,,
248673,2023-10-29 21:00:00+00:00,0.0,2023-10-29 20:56,38.0,27.0,,1020.8,310.0,8.05,30.1,64.24,7.0,32.09,,,M,,,GNR,1062669,2023-10-29 21:00:00+00:00,4100.0,4.4,,
248674,2023-10-29 22:00:00+00:00,0.0,2023-10-29 21:56,38.0,27.0,,1020.6,310.0,6.9,30.09,64.24,6.0,32.76,,,M,,,GNR,1062673,2023-10-29 22:00:00+00:00,9040.0,6.47,,
248675,2023-10-29 23:00:00+00:00,0.0,2023-10-29 22:56,37.0,28.0,,1020.9,320.0,8.05,30.1,69.63,7.0,30.87,,,M,,,GNR,1062677,2023-10-29 23:00:00+00:00,9140.0,6.51,,
248676,2023-10-30 00:00:00+00:00,0.0,2023-10-29 23:56,36.0,28.0,,1021.3,320.0,6.9,30.11,72.43,6.0,30.35,,,M,,,GNR,1062681,2023-10-30 00:00:00+00:00,9160.0,6.52,,
248677,2023-10-30 01:00:00+00:00,0.0,2023-10-30 00:56,36.0,28.0,,1020.7,350.0,6.9,30.09,72.43,6.0,30.35,,,M,,,GNR,1062685,2023-10-30 01:00:00+00:00,9240.0,6.55,,
248678,2023-10-30 02:00:00+00:00,0.0,2023-10-30 01:56,36.0,27.0,,1020.5,360.0,9.2,30.09,69.51,8.0,29.04,,,M,,,GNR,1062689,2023-10-30 02:00:00+00:00,9260.0,6.56,,
248679,2023-10-30 03:00:00+00:00,0.0,2023-10-30 02:56,35.0,25.0,,1020.7,350.0,5.75,30.09,66.57,5.0,29.96,,,M,,,GNR,1062693,2023-10-30 03:00:00+00:00,9290.0,6.57,,
248680,2023-10-30 04:00:00+00:00,0.0,2023-10-30 03:56,35.0,26.0,,1020.0,360.0,5.75,30.07,69.39,5.0,29.96,,,M,,,GNR,1062697,2023-10-30 04:00:00+00:00,9260.0,6.56,,
248681,2023-10-30 05:00:00+00:00,0.0,2023-10-30 04:56,35.0,27.0,,1019.4,40.0,3.45,30.06,72.32,3.0,32.12,,,M,,,GNR,1062701,2023-10-30 05:00:00+00:00,4470.0,4.57,,
248682,2023-10-30 06:00:00+00:00,0.0,2023-10-30 05:56,35.0,26.0,,1019.2,0.0,0.0,30.05,69.39,0.0,35.0,,,M,,,GNR,1062705,2023-10-30 06:00:00+00:00,2010.0,3.28,,
248683,2023-10-30 07:00:00+00:00,0.0,2023-10-30 06:56,35.0,26.0,,1018.1,100.0,4.6,30.02,69.39,4.0,30.92,,,M,,,GNR,1062709,2023-10-30 07:00:00+00:00,1340.0,2.81,,
248684,2023-10-30 08:00:00+00:00,0.0,2023-10-30 07:56,34.0,26.0,,1017.1,130.0,6.9,29.99,72.22,6.0,27.94,,,M,,,GNR,1062713,2023-10-30 08:00:00+00:00,1150.0,2.65,,
248685,2023-10-30 09:00:00+00:00,0.0,2023-10-30 08:56,33.0,25.0,,1016.7,120.0,8.05,29.98,72.11,7.0,26.0,,,M,,,GNR,1062717,2023-10-30 09:00:00+00:00,1110.0,2.62,,
248686,2023-10-30 10:00:00+00:00,0.25,2023-10-30 09:56,31.0,26.0,,1016.7,90.0,8.05,29.98,81.48,7.0,23.56,,,M,,,GNR,1062721,2023-10-30 10:00:00+00:00,1100.0,2.61,,
248687,2023-10-30 11:00:00+00:00,0.76,2023-10-30 10:56,30.0,26.0,,1015.1,110.0,9.2,29.93,84.85,8.0,21.65,,,M,,,GNR,1062725,2023-10-30 11:00:00+00:00,1100.0,2.61,,
248688,2023-10-30 12:00:00+00:00,0.25,2023-10-30 11:56,29.0,26.0,,1014.7,120.0,8.05,29.91,88.38,7.0,21.12,,,M,,,GNR,1062729,2023-10-30 12:00:00+00:00,1100.0,2.61,,
248689,2023-10-30 13:00:00+00:00,2.29,2023-10-30 12:56,29.0,26.0,,1014.0,100.0,9.2,29.89,88.38,8.0,20.42,,,M,,,GNR,1062733,2023-10-30 13:00:00+00:00,1100.0,2.61,,
248690,2023-10-30 14:00:00+00:00,3.56,2023-10-30 13:56,29.0,27.0,,1012.7,120.0,9.2,29.85,92.12,8.0,20.42,,,M,,,GNR,1062737,2023-10-30 14:00:00+00:00,1100.0,2.61,,
248691,2023-10-30 15:00:00+00:00,1.78,2023-10-30 14:56,30.0,27.0,,1011.8,110.0,10.35,29.83,88.44,9.0,21.03,,,M,,,GNR,1062741,2023-10-30 15:00:00+00:00,1100.0,2.61,,
248692,2023-10-30 16:00:00+00:00,1.78,2023-10-30 15:56,30.0,28.0,,1010.9,130.0,8.05,29.8,92.15,7.0,22.34,,,M,,,GNR,1062745,2023-10-30 16:00:00+00:00,1100.0,2.61,,
248693,2023-10-30 17:00:00+00:00,0.51,2023-10-30 16:56,29.0,27.0,,1009.3,140.0,6.9,29.76,92.12,6.0,21.92,,,M,,,GNR,1062749,2023-10-30 17:00:00+00:00,1100.0,2.61,,
248694,2023-10-30 18:00:00+00:00,0.76,2023-10-30 17:56,29.0,28.0,,1007.9,140.0,4.6,29.71,95.99,4.0,23.92,,,M,,,GNR,1062753,2023-10-30 18:00:00+00:00,5550.0,5.06,,
248695,2023-10-30 19:00:00+00:00,0.51,2023-10-30 18:56,30.0,27.0,,1006.9,140.0,4.6,29.69,88.44,4.0,25.08,,,M,,,GNR,1062757,2023-10-30 19:00:00+00:00,9210.0,6.54,,
248696,2023-10-30 20:00:00+00:00,0.0,2023-10-30 19:56,30.0,27.0,,1006.6,0.0,0.0,29.68,88.44,0.0,30.0,,,M,,,GNR,1062761,2023-10-30 20:00:00+00:00,9290.0,6.57,,
248697,2023-10-30 21:00:00+00:00,0.51,2023-10-30 20:56,30.0,28.0,,1006.5,0.0,0.0,29.67,92.15,0.0,30.0,,,M,,,GNR,1062765,2023-10-30 21:00:00+00:00,9290.0,6.57,,
248698,2023-10-30 22:00:00+00:00,0.25,2023-10-30 21:56,30.0,28.0,,1007.1,0.0,0.0,29.69,92.15,0.0,30.0,,,M,,,GNR,1062769,2023-10-30 22:00:00+00:00,9290.0,6.57,,
248699,2023-10-30 23:00:00+00:00,0.25,2023-10-30 22:56,30.0,27.0,,1007.8,0.0,0.0,29.71,88.44,0.0,30.0,,,M,,,GNR,1062773,2023-10-30 23:00:00+00:00,9360.0,6.6,,
248700,2023-10-31 00:00:00+00:00,0.0,2023-10-30 23:56,30.0,28.0,,1007.9,0.0,0.0,29.71,92.15,0.0,30.0,,,M,,,GNR,1062777,2023-10-31 00:00:00+00:00,9340.0,6.59,,
248701,2023-10-31 01:00:00+00:00,0.0,2023-10-31 00:56,31.0,28.0,,1007.9,310.0,4.6,29.71,88.48,4.0,26.25,,,M,,,GNR,1062781,2023-10-31 01:00:00+00:00,9410.0,6.62,,
248702,2023-10-31 02:00:00+00:00,0.0,2023-10-31 01:56,33.0,31.0,,1008.3,300.0,9.2,29.72,92.25,8.0,25.34,,,M,,,GNR,1062785,2023-10-31 02:00:00+00:00,9440.0,6.63,,
248703,2023-10-31 03:00:00+00:00,0.0,2023-10-31 02:56,33.0,30.0,,1008.7,300.0,10.35,29.74,88.58,9.0,24.76,,20.0,M,,,GNR,1062789,2023-10-31 03:00:00+00:00,4590.0,4.63,,
248704,2023-10-31 04:00:00+00:00,0.0,2023-10-31 03:56,32.0,29.0,,1009.2,300.0,10.35,29.75,88.53,9.0,23.51,,18.0,M,,,GNR,1062793,2023-10-31 04:00:00+00:00,2010.0,3.28,,
248705,2023-10-31 05:00:00+00:00,0.0,2023-10-31 04:56,32.0,30.0,,1009.6,310.0,8.05,29.76,92.22,7.0,24.78,,16.0,M,,,GNR,1062797,2023-10-31 05:00:00+00:00,1320.0,2.79,,
248706,2023-10-31 06:00:00+00:00,0.0,2023-10-31 05:56,33.0,30.0,,1009.6,300.0,9.2,29.76,88.58,8.0,25.34,,15.0,M,,,GNR,1062801,2023-10-31 06:00:00+00:00,1110.0,2.62,,
248707,2023-10-31 07:00:00+00:00,0.0,2023-10-31 06:56,33.0,29.0,,1010.2,300.0,14.95,29.78,85.04,13.0,22.85,,23.0,M,,,GNR,1062805,2023-10-31 07:00:00+00:00,1080.0,2.59,,
248708,2023-10-31 08:00:00+00:00,0.0,2023-10-31 07:56,31.0,27.0,,1011.2,300.0,11.5,29.81,84.92,10.0,21.71,,22.0,M,26.0,,GNR,1062809,2023-10-31 08:00:00+00:00,1060.0,2.58,,
248709,2023-10-31 09:00:00+00:00,0.0,2023-10-31 08:56,30.0,25.0,,1012.1,310.0,13.8,29.83,81.4,12.0,19.46,,23.0,M,27.0,,GNR,1062813,2023-10-31 09:00:00+00:00,1050.0,2.57,,
248710,2023-10-31 10:00:00+00:00,0.0,2023-10-31 09:56,29.0,23.0,,1013.0,300.0,11.5,29.86,77.98,10.0,19.21,,26.0,M,29.0,,GNR,1062817,2023-10-31 10:00:00+00:00,1050.0,2.57,,
248711,2023-10-31 11:00:00+00:00,0.0,2023-10-31 10:56,28.0,23.0,,1014.1,310.0,13.8,29.89,81.25,12.0,16.91,,20.0,M,28.0,,GNR,1062821,2023-10-31 11:00:00+00:00,1040.0,2.56,,
248712,2023-10-31 12:00:00+00:00,0.0,2023-10-31 11:56,28.0,23.0,,1015.6,310.0,9.2,29.93,81.25,8.0,19.19,,16.0,M,,,GNR,1062825,2023-10-31 12:00:00+00:00,1030.0,2.55,,
248713,2023-10-31 13:00:00+00:00,0.0,2023-10-31 12:56,29.0,22.0,,1016.6,320.0,10.35,29.96,74.77,9.0,19.78,,17.0,M,,,GNR,1062829,2023-10-31 13:00:00+00:00,1040.0,2.56,,
248714,2023-10-31 14:00:00+00:00,0.0,2023-10-31 13:56,30.0,22.0,,1017.0,310.0,8.05,29.98,71.78,7.0,22.34,,16.0,M,,,GNR,1062833,2023-10-31 14:00:00+00:00,1030.0,2.55,,
248715,2023-10-31 15:00:00+00:00,0.0,2023-10-31 14:56,31.0,21.0,,1017.4,320.0,11.5,29.99,66.07,10.0,21.71,,16.0,M,,,GNR,1062837,2023-10-31 15:00:00+00:00,1030.0,2.55,,
248716,2023-10-31 16:00:00+00:00,0.0,2023-10-31 15:56,33.0,21.0,,1017.4,320.0,9.2,29.99,60.95,8.0,25.34,,18.0,M,,,GNR,1062841,2023-10-31 16:00:00+00:00,1020.0,2.54,2023-10-31 16:00:00+00:00,gs://gcp-public-data-sentinel-2/tiles/19/T/DL/S2B_MSIL1C_20231031T153559_N0509_R111_T19TDL_20231031T184638.SAFE
248717,2023-10-31 17:00:00+00:00,0.0,2023-10-31 16:56,34.0,22.0,,1017.5,290.0,8.05,30.0,61.09,7.0,27.22,,,M,,,GNR,1062845,2023-10-31 17:00:00+00:00,1020.0,2.54,,
248718,2023-10-31 18:00:00+00:00,0.0,2023-10-31 17:56,35.0,22.0,,1017.6,,,30.0,58.7,,,,,M,,,GNR,1062849,2023-10-31 18:00:00+00:00,1020.0,2.54,,
248719,2023-10-31 19:00:00+00:00,0.0,2023-10-31 18:56,33.0,21.0,,1017.8,310.0,9.2,30.0,60.95,8.0,25.34,,,M,,,GNR,1062853,2023-10-31 19:00:00+00:00,1010.0,2.53,,
248720,2023-10-31 20:00:00+00:00,0.0,2023-10-31 19:56,32.0,21.0,,1017.8,290.0,6.9,30.0,63.45,6.0,25.53,,,M,,,GNR,1062857,2023-10-31 20:00:00+00:00,1010.0,2.53,,
248721,2023-10-31 21:00:00+00:00,0.0,2023-10-31 20:56,31.0,21.0,,1018.0,280.0,4.6,30.01,66.07,4.0,26.25,,,M,,,GNR,1062861,2023-10-31 21:00:00+00:00,5460.0,5.02,,
248722,2023-10-31 22:00:00+00:00,0.0,2023-10-31 21:56,31.0,20.0,,1018.2,,3.45,30.01,63.32,3.0,27.55,,,M,,,GNR,1062865,2023-10-31 22:00:00+00:00,9310.0,6.58,,
248723,2023-10-31 23:00:00+00:00,0.0,2023-10-31 22:56,31.0,19.0,,1018.6,0.0,0.0,30.02,60.67,0.0,31.0,,,M,,,GNR,1062869,2023-10-31 23:00:00+00:00,9360.0,6.6,,
248724,2023-11-01 00:00:00+00:00,0.0,2023-10-31 23:56,31.0,19.0,,1018.5,300.0,3.45,30.02,60.67,3.0,27.55,,,M,,,GNR,1062873,2023-11-01 00:00:00+00:00,9410.0,6.62,,
248725,2023-11-01 01:00:00+00:00,0.0,2023-11-01 00:56,30.0,20.0,,1018.6,0.0,0.0,30.02,65.94,0.0,30.0,,,M,,,GNR,1062877,2023-11-01 01:00:00+00:00,9410.0,6.62,,
248726,2023-11-01 02:00:00+00:00,0.0,2023-11-01 01:56,31.0,20.0,,1018.3,0.0,0.0,30.02,63.32,0.0,31.0,,,M,,,GNR,1062881,2023-11-01 02:00:00+00:00,9460.0,6.64,,
248727,2023-11-01 03:00:00+00:00,0.0,2023-11-01 02:56,27.0,20.0,,1018.1,0.0,0.0,30.01,74.57,0.0,27.0,,,M,,,GNR,1062885,2023-11-01 03:00:00+00:00,9510.0,6.66,,
248728,2023-11-01 04:00:00+00:00,0.0,2023-11-01 03:56,29.0,22.0,,1017.9,0.0,0.0,30.01,74.77,0.0,29.0,,,M,,,GNR,1062889,2023-11-01 04:00:00+00:00,9440.0,6.63,,
248729,2023-11-01 05:00:00+00:00,0.0,2023-11-01 04:56,29.0,22.0,,1017.7,0.0,0.0,30.0,74.77,0.0,29.0,,,M,,,GNR,1062893,2023-11-01 05:00:00+00:00,4230.0,4.46,,
248730,2023-11-01 06:00:00+00:00,0.0,2023-11-01 05:56,28.0,21.0,,1017.3,0.0,0.0,29.99,74.67,0.0,28.0,,,M,,,GNR,1062897,2023-11-01 06:00:00+00:00,1890.0,3.2,,
248731,2023-11-01 07:00:00+00:00,0.0,2023-11-01 06:56,28.0,23.0,,1017.2,0.0,0.0,29.98,81.25,0.0,28.0,,,M,,,GNR,1062901,2023-11-01 07:00:00+00:00,1240.0,2.73,,
248732,2023-11-01 08:00:00+00:00,0.0,2023-11-01 07:56,27.0,23.0,,1016.7,110.0,3.45,29.97,84.66,3.0,22.97,,,M,,,GNR,1062905,2023-11-01 08:00:00+00:00,1060.0,2.58,,
248733,2023-11-01 09:00:00+00:00,0.0,2023-11-01 08:56,27.0,21.0,,1016.8,0.0,0.0,29.97,77.8,0.0,27.0,,,M,,,GNR,1062909,2023-11-01 09:00:00+00:00,1030.0,2.55,,
248734,2023-11-01 10:00:00+00:00,0.0,2023-11-01 09:56,27.0,22.0,,1016.9,0.0,0.0,29.97,81.17,0.0,27.0,,,M,,,GNR,1062913,2023-11-01 10:00:00+00:00,1020.0,2.54,,
248735,2023-11-01 11:00:00+00:00,0.0,2023-11-01 10:56,28.0,22.0,,1017.1,220.0,3.45,29.98,77.89,3.0,24.12,,,M,,,GNR,1062917,2023-11-01 11:00:00+00:00,1020.0,2.54,,
248736,2023-11-01 12:00:00+00:00,0.0,2023-11-01 11:56,28.0,25.0,,1017.4,,3.45,29.99,88.33,3.0,24.12,,,M,,,GNR,1062921,2023-11-01 12:00:00+00:00,1010.0,2.53,,
248737,2023-11-01 13:00:00+00:00,0.25,2023-11-01 12:56,29.0,24.0,,1017.4,10.0,5.75,29.99,81.32,5.0,22.83,,,M,,,GNR,1062925,2023-11-01 13:00:00+00:00,1010.0,2.53,,
248738,2023-11-01 14:00:00+00:00,0.0,2023-11-01 13:56,31.0,23.0,,1017.1,350.0,8.05,29.98,71.89,7.0,23.56,,,M,,,GNR,1062929,2023-11-01 14:00:00+00:00,6270.0,5.36,,
248739,2023-11-01 15:00:00+00:00,0.0,2023-11-01 14:56,32.0,21.0,,1016.8,10.0,9.2,29.97,63.45,8.0,24.11,,,M,,,GNR,1062933,2023-11-01 15:00:00+00:00,9360.0,6.6,,
248740,2023-11-01 16:00:00+00:00,0.0,2023-11-01 15:56,33.0,22.0,,1015.8,10.0,11.5,29.94,63.59,10.0,24.22,,19.0,M,,,GNR,1062937,2023-11-01 16:00:00+00:00,4490.0,4.58,,
248741,2023-11-01 17:00:00+00:00,0.0,2023-11-01 16:56,34.0,20.0,,1015.1,350.0,10.35,29.93,56.12,9.0,26.0,,15.0,M,,,GNR,1062941,2023-11-01 17:00:00+00:00,1930.0,3.23,,
248742,2023-11-01 18:00:00+00:00,0.0,2023-11-01 17:56,33.0,20.0,,1015.1,,6.9,29.92,58.41,6.0,26.73,,,M,,,GNR,1062945,2023-11-01 18:00:00+00:00,1240.0,2.73,,
248743,2023-11-01 19:00:00+00:00,0.0,2023-11-01 18:56,32.0,19.0,,1015.6,350.0,8.05,29.94,58.27,7.0,24.78,,,M,,,GNR,1062949,2023-11-01 19:00:00+00:00,1030.0,2.55,,
248744,2023-11-01 20:00:00+00:00,0.0,2023-11-01 19:56,34.0,19.0,,1016.2,320.0,8.05,29.95,53.77,7.0,27.22,,,M,,,GNR,1062953,2023-11-01 20:00:00+00:00,987.0,2.51,,
248745,2023-11-01 21:00:00+00:00,0.0,2023-11-01 20:56,32.0,17.0,,1016.8,350.0,6.9,29.97,53.46,6.0,25.53,,,M,,,GNR,1062957,2023-11-01 21:00:00+00:00,4450.0,4.56,,
248746,2023-11-01 22:00:00+00:00,0.0,2023-11-01 21:56,31.0,17.0,,1017.4,340.0,4.6,29.99,55.67,4.0,26.25,,,M,,,GNR,1062961,2023-11-01 22:00:00+00:00,9260.0,6.56,,
248747,2023-11-01 23:00:00+00:00,0.0,2023-11-01 22:56,31.0,18.0,,1018.1,20.0,9.2,30.01,58.12,8.0,22.88,,,M,,,GNR,1062965,2023-11-01 23:00:00+00:00,9390.0,6.61,,
248748,2023-11-02 00:00:00+00:00,0.0,2023-11-01 23:56,29.0,18.0,,1018.7,360.0,6.9,30.02,63.05,6.0,21.92,,,M,,,GNR,1062969,2023-11-02 00:00:00+00:00,9410.0,6.62,,
248749,2023-11-02 01:00:00+00:00,0.0,2023-11-02 00:56,29.0,18.0,,1019.2,320.0,8.05,30.04,63.05,7.0,21.12,,,M,,,GNR,1062973,2023-11-02 01:00:00+00:00,9440.0,6.63,,
248750,2023-11-02 02:00:00+00:00,0.0,2023-11-02 01:56,29.0,20.0,,1019.5,330.0,11.5,30.05,68.69,10.0,19.21,,,M,,,GNR,1062977,2023-11-02 02:00:00+00:00,9440.0,6.63,,
248751,2023-11-02 03:00:00+00:00,0.0,2023-11-02 02:56,28.0,18.0,,1020.1,310.0,8.05,30.07,65.69,7.0,19.9,,17.0,M,,,GNR,1062981,2023-11-02 03:00:00+00:00,4450.0,4.56,,
248752,2023-11-02 04:00:00+00:00,0.0,2023-11-02 03:56,26.0,18.0,,1020.8,300.0,8.05,30.09,71.33,7.0,17.47,,,M,,,GNR,1062985,2023-11-02 04:00:00+00:00,1920.0,3.22,,
248753,2023-11-02 05:00:00+00:00,0.0,2023-11-02 04:56,26.0,18.0,,1021.5,300.0,6.9,30.1,71.33,6.0,18.3,,,M,,,GNR,1062989,2023-11-02 05:00:00+00:00,1230.0,2.72,,
248754,2023-11-02 06:00:00+00:00,0.0,2023-11-02 05:56,26.0,17.0,,1021.9,310.0,8.05,30.12,68.32,7.0,17.47,,,M,,,GNR,1062993,2023-11-02 06:00:00+00:00,1030.0,2.55,,
248755,2023-11-02 07:00:00+00:00,0.0,2023-11-02 06:56,26.0,17.0,,1022.6,310.0,8.05,30.14,68.32,7.0,17.47,,,M,,,GNR,1062997,2023-11-02 07:00:00+00:00,987.0,2.51,,
248756,2023-11-02 08:00:00+00:00,0.0,2023-11-02 07:56,25.0,17.0,,1022.9,300.0,6.9,30.15,71.22,6.0,17.1,,,M,,,GNR,1063001,2023-11-02 08:00:00+00:00,976.0,2.5,,
248757,2023-11-02 09:00:00+00:00,0.0,2023-11-02 08:56,24.0,16.0,,1023.5,0.0,0.0,30.16,71.11,0.0,24.0,,,M,,,GNR,1063005,2023-11-02 09:00:00+00:00,976.0,2.5,,
248758,2023-11-02 10:00:00+00:00,0.0,2023-11-02 09:56,24.0,17.0,,1024.1,,4.6,30.18,74.26,4.0,18.08,,,M,,,GNR,1063009,2023-11-02 10:00:00+00:00,976.0,2.5,,
248759,2023-11-02 11:00:00+00:00,0.0,2023-11-02 10:56,21.0,16.0,,1024.8,0.0,0.0,30.2,80.69,0.0,21.0,,,M,,,GNR,1063013,2023-11-02 11:00:00+00:00,964.0,2.49,,
248760,2023-11-02 12:00:00+00:00,0.0,2023-11-02 11:56,25.0,19.0,,1025.7,,3.45,30.22,77.62,3.0,20.69,,,M,,,GNR,1063017,2023-11-02 12:00:00+00:00,4720.0,4.69,,
248761,2023-11-02 13:00:00+00:00,0.0,2023-11-02 12:56,29.0,20.0,,1026.0,,4.6,30.24,68.69,4.0,23.92,,,M,,,GNR,1063021,2023-11-02 13:00:00+00:00,9360.0,6.6,,
248762,2023-11-02 14:00:00+00:00,0.0,2023-11-02 13:56,30.0,17.0,,1026.4,290.0,9.2,30.25,57.98,8.0,21.65,,17.0,M,,,GNR,1063025,2023-11-02 14:00:00+00:00,9360.0,6.6,,
248763,2023-11-02 15:00:00+00:00,0.0,2023-11-02 14:56,32.0,19.0,,1026.8,,,30.26,58.27,,,,,M,,,GNR,1063029,2023-11-02 15:00:00+00:00,4380.0,4.53,,
248764,2023-11-02 16:00:00+00:00,0.0,2023-11-02 15:56,34.0,19.0,,1026.8,,6.9,30.26,53.77,6.0,27.94,,,M,,,GNR,1063033,2023-11-02 16:00:00+00:00,1890.0,3.2,,
248765,2023-11-02 17:00:00+00:00,0.0,2023-11-02 16:56,36.0,20.0,,1026.3,,3.45,30.25,51.83,3.0,33.26,,,M,,,GNR,1063037,2023-11-02 17:00:00+00:00,1200.0,2.7,,
248766,2023-11-02 18:00:00+00:00,0.0,2023-11-02 17:56,36.0,20.0,,1026.3,,5.75,30.25,51.83,5.0,31.15,,,M,,,GNR,1063041,2023-11-02 18:00:00+00:00,999.0,2.52,,
248767,2023-11-02 19:00:00+00:00,0.0,2023-11-02 18:56,38.0,20.0,,1026.2,,4.6,30.25,47.9,4.0,34.43,,,M,,,GNR,1063045,2023-11-02 19:00:00+00:00,964.0,2.49,,
248768,2023-11-02 20:00:00+00:00,0.0,2023-11-02 19:56,37.0,21.0,,1026.4,240.0,4.6,30.25,51.99,4.0,33.26,,,M,,,GNR,1063049,2023-11-02 20:00:00+00:00,953.0,2.48,,
248769,2023-11-02 21:00:00+00:00,0.0,2023-11-02 20:56,36.0,21.0,,1026.8,0.0,0.0,30.26,54.08,0.0,36.0,,,M,,,GNR,1063053,2023-11-02 21:00:00+00:00,3910.0,4.31,,
248770,2023-11-02 22:00:00+00:00,0.0,2023-11-02 21:56,32.0,21.0,,1027.3,0.0,0.0,30.27,63.45,0.0,32.0,,,M,,,GNR,1063057,2023-11-02 22:00:00+00:00,9310.0,6.58,,
248771,2023-11-02 23:00:00+00:00,0.0,2023-11-02 22:56,31.0,21.0,,1027.9,,3.45,30.29,66.07,3.0,27.55,,,M,,,GNR,1063061,2023-11-02 23:00:00+00:00,9360.0,6.6,,
248772,2023-11-03 00:00:00+00:00,0.0,2023-11-02 23:56,32.0,21.0,,1028.0,,3.45,30.3,63.45,3.0,28.69,,,M,,,GNR,1063065,2023-11-03 00:00:00+00:00,9410.0,6.62,,
248773,2023-11-03 01:00:00+00:00,0.0,2023-11-03 00:56,31.0,20.0,,1028.3,0.0,0.0,30.3,63.32,0.0,31.0,,,M,,,GNR,1063069,2023-11-03 01:00:00+00:00,9460.0,6.64,,
248774,2023-11-03 02:00:00+00:00,0.0,2023-11-03 01:56,31.0,20.0,,1028.6,0.0,0.0,30.32,63.32,0.0,31.0,,,M,,,GNR,1063073,2023-11-03 02:00:00+00:00,9460.0,6.64,,
248775,2023-11-03 03:00:00+00:00,0.0,2023-11-03 02:56,30.0,19.0,,1028.8,0.0,0.0,30.32,63.18,0.0,30.0,,,M,,,GNR,1063077,2023-11-03 03:00:00+00:00,9440.0,6.63,,
248776,2023-11-03 04:00:00+00:00,0.0,2023-11-03 03:56,28.0,19.0,,1029.0,0.0,0.0,30.33,68.57,0.0,28.0,,,M,,,GNR,1063081,2023-11-03 04:00:00+00:00,4380.0,4.53,,
248777,2023-11-03 05:00:00+00:00,0.0,2023-11-03 04:56,29.0,19.0,,1028.9,120.0,3.45,30.33,65.81,3.0,25.26,,,M,,,GNR,1063085,2023-11-03 05:00:00+00:00,1890.0,3.2,,
248778,2023-11-03 06:00:00+00:00,0.0,2023-11-03 05:56,30.0,18.0,,1028.6,190.0,3.45,30.32,60.53,3.0,26.4,,,M,,,GNR,1063089,2023-11-03 06:00:00+00:00,1200.0,2.7,,
248779,2023-11-03 07:00:00+00:00,0.0,2023-11-03 06:56,31.0,19.0,,1028.5,190.0,5.75,30.32,60.67,5.0,25.21,,,M,,,GNR,1063093,2023-11-03 07:00:00+00:00,999.0,2.52,,
248780,2023-11-03 08:00:00+00:00,0.0,2023-11-03 07:56,31.0,20.0,,1028.4,150.0,3.45,30.32,63.32,3.0,27.55,,,M,,,GNR,1063097,2023-11-03 08:00:00+00:00,964.0,2.49,,
248781,2023-11-03 09:00:00+00:00,0.0,2023-11-03 08:56,32.0,21.0,,1028.5,170.0,3.45,30.32,63.45,3.0,28.69,,,M,,,GNR,1063101,2023-11-03 09:00:00+00:00,953.0,2.48,,
248782,2023-11-03 10:00:00+00:00,0.0,2023-11-03 09:56,31.0,21.0,,1028.6,150.0,4.6,30.32,66.07,4.0,26.25,,,M,,,GNR,1063105,2023-11-03 10:00:00+00:00,953.0,2.48,,
248783,2023-11-03 11:00:00+00:00,0.0,2023-11-03 10:56,32.0,21.0,,1028.5,130.0,3.45,30.32,63.45,3.0,28.69,,,M,,,GNR,1063109,2023-11-03 11:00:00+00:00,4660.0,4.66,,
248784,2023-11-03 12:00:00+00:00,0.0,2023-11-03 11:56,32.0,21.0,,1028.3,0.0,0.0,30.31,63.45,0.0,32.0,,,M,,,GNR,1063113,2023-11-03 12:00:00+00:00,9340.0,6.59,,
248785,2023-11-03 13:00:00+00:00,0.0,2023-11-03 12:56,32.0,21.0,,1028.1,140.0,5.75,30.31,63.45,5.0,26.4,,,M,,,GNR,1063117,2023-11-03 13:00:00+00:00,9410.0,6.62,,
248786,2023-11-03 14:00:00+00:00,0.0,2023-11-03 13:56,31.0,22.0,,1028.1,150.0,6.9,30.3,68.92,6.0,24.33,,,M,,,GNR,1063121,2023-11-03 14:00:00+00:00,4570.0,4.62,,
248787,2023-11-03 15:00:00+00:00,0.0,2023-11-03 14:56,34.0,24.0,,1027.2,140.0,9.2,30.28,66.45,8.0,26.58,,,M,,,GNR,1063125,2023-11-03 15:00:00+00:00,1920.0,3.22,,
248788,2023-11-03 16:00:00+00:00,0.0,2023-11-03 15:56,39.0,26.0,,1026.3,160.0,6.9,30.25,59.27,6.0,33.96,,,M,,,GNR,1063129,2023-11-03 16:00:00+00:00,1200.0,2.7,2023-11-03 16:00:00+00:00,gs://gcp-public-data-sentinel-2/tiles/19/T/DL/S2B_MSIL1C_20231103T154329_N0509_R011_T19TDL_20231106T083507.SAFE
248789,2023-11-03 16:00:00+00:00,0.0,2023-11-03 15:56,39.0,26.0,,1026.3,160.0,6.9,30.25,59.27,6.0,33.96,,,M,,,GNR,1063129,2023-11-03 16:00:00+00:00,1200.0,2.7,2023-11-03 16:00:00+00:00,gs://gcp-public-data-sentinel-2/tiles/19/T/DL/S2B_MSIL1C_20231103T154329_N0509_R011_T19TDL_20231106T083507.SAFE
248790,2023-11-03 17:00:00+00:00,0.0,2023-11-03 16:56,43.0,27.0,,1025.5,170.0,9.2,30.23,52.91,8.0,37.66,,,M,,,GNR,1063133,2023-11-03 17:00:00+00:00,976.0,2.5,,
248791,2023-11-03 18:00:00+00:00,0.0,2023-11-03 17:56,45.0,27.0,,1024.4,170.0,9.2,30.2,49.02,8.0,40.13,,17.0,M,,,GNR,1063137,2023-11-03 18:00:00+00:00,942.0,2.47,,
248792,2023-11-03 19:00:00+00:00,0.0,2023-11-03 18:56,46.0,26.0,,1023.2,180.0,11.5,30.17,45.29,10.0,40.52,,20.0,M,,,GNR,1063141,2023-11-03 19:00:00+00:00,930.0,2.46,,
248793,2023-11-03 20:00:00+00:00,0.0,2023-11-03 19:56,46.0,25.0,,1022.8,,6.9,30.16,43.44,6.0,42.39,,16.0,M,,,GNR,1063145,2023-11-03 20:00:00+00:00,930.0,2.46,,
248794,2023-11-03 21:00:00+00:00,0.0,2023-11-03 20:56,44.0,24.0,,1022.3,170.0,5.75,30.14,44.96,5.0,40.65,,,M,,,GNR,1063149,2023-11-03 21:00:00+00:00,919.0,2.45,,
248795,2023-11-03 22:00:00+00:00,0.0,2023-11-03 21:56,41.0,24.0,,1022.3,170.0,5.75,30.14,50.46,5.0,37.08,,,M,,,GNR,1063153,2023-11-03 22:00:00+00:00,4040.0,4.37,,
248796,2023-11-03 23:00:00+00:00,0.0,2023-11-03 22:56,40.0,26.0,,1022.1,160.0,6.9,30.14,57.01,6.0,35.17,,,M,,,GNR,1063157,2023-11-03 23:00:00+00:00,9410.0,6.62,,
248797,2023-11-04 00:00:00+00:00,0.0,2023-11-03 23:56,39.0,27.0,,1022.1,150.0,5.75,30.14,61.78,5.0,34.71,,,M,,,GNR,1063161,2023-11-04 00:00:00+00:00,9440.0,6.63,,
248798,2023-11-04 01:00:00+00:00,0.0,2023-11-04 00:56,39.0,28.0,,1021.6,120.0,6.9,30.12,64.37,6.0,33.96,,,M,,,GNR,1063165,2023-11-04 01:00:00+00:00,9440.0,6.63,,
248799,2023-11-04 02:00:00+00:00,0.0,2023-11-04 01:56,39.0,29.0,,1021.1,110.0,5.75,30.1,67.06,5.0,34.71,,,M,,,GNR,1063169,2023-11-04 02:00:00+00:00,9490.0,6.65,,
248800,2023-11-04 03:00:00+00:00,0.0,2023-11-04 02:56,39.0,29.0,,1020.0,140.0,6.9,30.08,67.06,6.0,33.96,,,M,,,GNR,1063173,2023-11-04 03:00:00+00:00,9460.0,6.64,,
248801,2023-11-04 04:00:00+00:00,0.0,2023-11-04 03:56,40.0,30.0,,1019.0,160.0,5.75,30.05,67.18,5.0,35.9,,,M,,,GNR,1063177,2023-11-04 04:00:00+00:00,4510.0,4.59,,
248802,2023-11-04 05:00:00+00:00,0.0,2023-11-04 04:56,40.0,29.0,,1018.8,170.0,3.45,30.05,64.5,3.0,37.83,,,M,,,GNR,1063181,2023-11-04 05:00:00+00:00,1900.0,3.21,,
248803,2023-11-04 06:00:00+00:00,0.0,2023-11-04 05:56,40.0,29.0,,1018.5,0.0,0.0,30.04,64.5,0.0,40.0,,,M,,,GNR,1063185,2023-11-04 06:00:00+00:00,1200.0,2.7,,
248804,2023-11-04 07:00:00+00:00,0.0,2023-11-04 06:56,40.0,28.0,,1018.1,150.0,5.75,30.03,61.91,5.0,35.9,,,M,,,GNR,1063189,2023-11-04 07:00:00+00:00,987.0,2.51,,
248805,2023-11-04 08:00:00+00:00,0.0,2023-11-04 07:56,41.0,28.0,,1017.5,160.0,4.6,30.02,59.55,4.0,37.93,,,M,,,GNR,1063193,2023-11-04 08:00:00+00:00,953.0,2.48,,
248806,2023-11-04 09:00:00+00:00,0.0,2023-11-04 08:56,41.0,28.0,,1017.2,180.0,3.45,30.0,59.55,3.0,38.98,,,M,,,GNR,1063197,2023-11-04 09:00:00+00:00,942.0,2.47,,
248807,2023-11-04 10:00:00+00:00,0.0,2023-11-04 09:56,40.0,29.0,,1017.9,100.0,6.9,30.02,64.5,6.0,35.17,,,M,,,GNR,1063201,2023-11-04 10:00:00+00:00,930.0,2.46,,
248808,2023-11-04 11:00:00+00:00,0.0,2023-11-04 10:56,41.0,29.0,,1018.2,0.0,0.0,30.03,62.04,0.0,41.0,,,M,,,GNR,1063205,2023-11-04 11:00:00+00:00,919.0,2.45,,
248809,2023-11-04 12:00:00+00:00,0.0,2023-11-04 11:56,45.0,30.0,,1018.6,,3.45,30.04,55.43,3.0,43.55,,,M,,,GNR,1063209,2023-11-04 12:00:00+00:00,919.0,2.45,,
248810,2023-11-04 13:00:00+00:00,0.0,2023-11-04 12:56,45.0,31.0,,1019.2,0.0,0.0,30.06,57.73,0.0,45.0,,,M,,,GNR,1063213,2023-11-04 13:00:00+00:00,919.0,2.45,,
248811,2023-11-04 14:00:00+00:00,0.0,2023-11-04 13:56,46.0,35.0,,1019.4,,4.6,30.07,65.26,4.0,43.77,,,M,,,GNR,1063217,2023-11-04 14:00:00+00:00,930.0,2.46,,
248812,2023-11-04 15:00:00+00:00,0.0,2023-11-04 14:56,47.0,34.0,,1019.3,,4.6,30.07,60.38,4.0,44.94,,,M,,,GNR,1063221,2023-11-04 15:00:00+00:00,919.0,2.45,,
248813,2023-11-04 16:00:00+00:00,0.0,2023-11-04 15:56,48.0,36.0,,1019.2,0.0,0.0,30.06,62.97,0.0,48.0,,,M,,,GNR,1063225,2023-11-04 16:00:00+00:00,919.0,2.45,,
248814,2023-11-04 17:00:00+00:00,0.0,2023-11-04 16:56,48.0,36.0,,1019.0,,,30.06,62.97,,,,,M,,,GNR,1063229,2023-11-04 17:00:00+00:00,919.0,2.45,,
248815,2023-11-04 18:00:00+00:00,0.0,2023-11-04 17:56,50.0,38.0,,1018.3,0.0,0.0,30.04,63.23,0.0,50.0,,,M,,,GNR,1063233,2023-11-04 18:00:00+00:00,919.0,2.45,,
248816,2023-11-04 19:00:00+00:00,0.0,2023-11-04 18:56,49.0,38.0,,1018.2,290.0,5.75,30.04,65.63,5.0,46.58,,,M,,,GNR,1063237,2023-11-04 19:00:00+00:00,919.0,2.45,,
248817,2023-11-04 20:00:00+00:00,0.0,2023-11-04 19:56,47.0,38.0,,1018.3,,5.75,30.04,70.74,5.0,44.21,,,M,,,GNR,1063241,2023-11-04 20:00:00+00:00,919.0,2.45,,
248818,2023-11-04 21:00:00+00:00,0.0,2023-11-04 20:56,45.0,38.0,,1018.6,310.0,4.6,30.04,76.31,4.0,42.6,,,M,,,GNR,1063245,2023-11-04 21:00:00+00:00,4320.0,4.5,,
248819,2023-11-04 22:00:00+00:00,0.0,2023-11-04 21:56,43.0,37.0,,1019.0,310.0,3.45,30.06,79.19,3.0,41.26,,,M,,,GNR,1063249,2023-11-04 22:00:00+00:00,9090.0,6.49,,
248820,2023-11-04 23:00:00+00:00,0.0,2023-11-04 22:56,42.0,36.0,,1019.1,310.0,3.45,30.06,79.11,3.0,40.12,,,M,,,GNR,1063253,2023-11-04 23:00:00+00:00,9190.0,6.53,,
248821,2023-11-05 00:00:00+00:00,0.0,2023-11-04 23:56,42.0,37.0,,1018.8,0.0,0.0,30.05,82.3,0.0,42.0,,,M,,,GNR,1063257,2023-11-05 00:00:00+00:00,9310.0,6.58,,
248822,2023-11-05 01:00:00+00:00,0.0,2023-11-05 00:56,40.0,36.0,,1018.7,0.0,0.0,30.05,85.48,0.0,40.0,,,M,,,GNR,1063261,2023-11-05 01:00:00+00:00,9240.0,6.55,,
248823,2023-11-05 02:00:00+00:00,0.0,2023-11-05 01:56,38.0,34.0,,1018.4,0.0,0.0,30.04,85.35,0.0,38.0,,,M,,,GNR,1063265,2023-11-05 02:00:00+00:00,9290.0,6.57,,
248824,2023-11-05 03:00:00+00:00,0.0,2023-11-05 02:56,37.0,33.0,,1018.3,0.0,0.0,30.04,85.29,0.0,37.0,,,M,,,GNR,1063269,2023-11-05 03:00:00+00:00,9260.0,6.56,,
248825,2023-11-05 04:00:00+00:00,0.0,2023-11-05 03:56,37.0,34.0,,1017.6,0.0,0.0,30.01,88.78,0.0,37.0,,,M,,,GNR,1063273,2023-11-05 04:00:00+00:00,4300.0,4.49,,
248826,2023-11-05 06:00:00+00:00,0.0,2023-11-05 05:56,39.0,36.0,,1016.0,0.0,0.0,29.97,88.87,0.0,39.0,,,M,,,GNR,1063277,2023-11-05 06:00:00+00:00,1870.0,3.19,,
248827,2023-11-05 06:00:00+00:00,0.0,2023-11-05 05:56,39.0,36.0,,1016.0,0.0,0.0,29.97,88.87,0.0,39.0,,,M,,,GNR,1063278,2023-11-05 06:00:00+00:00,1200.0,2.7,,
248828,2023-11-05 07:00:00+00:00,0.0,2023-11-05 06:56,41.0,37.0,,1015.8,20.0,3.45,29.97,85.54,3.0,38.98,,,M,,,GNR,1063285,2023-11-05 07:00:00+00:00,999.0,2.52,,
248829,2023-11-05 08:00:00+00:00,0.0,2023-11-05 07:56,41.0,37.0,,1015.6,340.0,5.75,29.96,85.54,5.0,37.08,,,M,,,GNR,1063289,2023-11-05 08:00:00+00:00,953.0,2.48,,
248830,2023-11-05 09:00:00+00:00,0.0,2023-11-05 08:56,42.0,36.0,,1015.6,310.0,4.6,29.96,79.11,4.0,39.1,,,M,,,GNR,1063293,2023-11-05 09:00:00+00:00,942.0,2.47,,
248831,2023-11-05 10:00:00+00:00,0.0,2023-11-05 09:56,41.0,33.0,,1015.4,,4.6,29.95,72.96,4.0,37.93,,,M,,,GNR,1063297,2023-11-05 10:00:00+00:00,942.0,2.47,,
248832,2023-11-05 11:00:00+00:00,0.0,2023-11-05 10:56,41.0,30.0,,1015.1,320.0,4.6,29.94,64.63,4.0,37.93,,,M,,,GNR,1063301,2023-11-05 11:00:00+00:00,930.0,2.46,,
248833,2023-11-05 12:00:00+00:00,0.0,2023-11-05 11:56,41.0,31.0,,1015.3,310.0,4.6,29.95,67.3,4.0,37.93,,,M,,,GNR,1063305,2023-11-05 12:00:00+00:00,930.0,2.46,,
248834,2023-11-05 13:00:00+00:00,0.0,2023-11-05 12:56,41.0,31.0,,1015.6,,4.6,29.96,67.3,4.0,37.93,,,M,,,GNR,1063309,2023-11-05 13:00:00+00:00,930.0,2.46,,
248835,2023-11-05 14:00:00+00:00,0.0,2023-11-05 13:56,44.0,31.0,,1015.5,,4.6,29.95,59.97,4.0,41.43,,,M,,,GNR,1063313,2023-11-05 14:00:00+00:00,919.0,2.45,,
248836,2023-11-05 15:00:00+00:00,0.0,2023-11-05 14:56,43.0,30.0,,1015.4,320.0,9.2,29.95,59.83,8.0,37.66,,,M,,,GNR,1063317,2023-11-05 15:00:00+00:00,999.0,2.52,,
248837,2023-11-05 16:00:00+00:00,0.0,2023-11-05 15:56,44.0,30.0,,1014.8,310.0,8.05,29.93,57.59,7.0,39.41,,,M,,,GNR,1063321,2023-11-05 16:00:00+00:00,1190.0,2.69,2023-11-05 16:00:00+00:00,gs://gcp-public-data-sentinel-2/tiles/19/T/DL/S2A_MSIL1C_20231105T153551_N0509_R111_T19TDL_20231105T190948.SAFE
248838,2023-11-05 17:00:00+00:00,0.0,2023-11-05 16:56,48.0,27.0,,1013.7,300.0,10.35,29.9,43.77,9.0,43.41,,17.0,M,,,GNR,1063325,2023-11-05 17:00:00+00:00,1390.0,2.85,,
248839,2023-11-05 18:00:00+00:00,0.0,2023-11-05 17:56,45.0,27.0,,1013.9,320.0,11.5,29.91,49.02,10.0,39.27,,23.0,M,26.0,,GNR,1063329,2023-11-05 18:00:00+00:00,1570.0,2.98,,
248840,2023-11-05 19:00:00+00:00,0.0,2023-11-05 18:56,45.0,25.0,,1013.5,310.0,11.5,29.9,45.12,10.0,39.27,,25.0,M,,,GNR,1063333,2023-11-05 19:00:00+00:00,1690.0,3.07,,
248841,2023-11-05 20:00:00+00:00,0.0,2023-11-05 19:56,44.0,26.0,,1014.2,300.0,11.5,29.92,48.86,10.0,38.02,,23.0,M,27.0,,GNR,1063337,2023-11-05 20:00:00+00:00,1780.0,3.13,,
248842,2023-11-05 21:00:00+00:00,0.0,2023-11-05 20:56,41.0,25.0,,1014.4,300.0,6.9,29.92,52.61,6.0,36.37,,,M,,,GNR,1063341,2023-11-05 21:00:00+00:00,1840.0,3.17,,
248843,2023-11-05 22:00:00+00:00,0.0,2023-11-05 21:56,38.0,24.0,,1016.1,330.0,12.65,29.97,56.71,11.0,30.05,,,M,,,GNR,1063345,2023-11-05 22:00:00+00:00,6070.0,5.28,,
248844,2023-11-05 23:00:00+00:00,0.0,2023-11-05 22:56,37.0,22.0,,1017.1,330.0,13.8,30.0,54.23,12.0,28.37,,21.0,M,,,GNR,1063349,2023-11-05 23:00:00+00:00,10100.0,6.89,,
248845,2023-11-06 00:00:00+00:00,0.0,2023-11-05 23:56,36.0,24.0,,1018.1,320.0,13.8,30.03,61.37,12.0,27.09,,19.0,M,,,GNR,1063353,2023-11-06 00:00:00+00:00,10200.0,6.92,,
248846,2023-11-06 01:00:00+00:00,0.0,2023-11-06 00:56,34.0,21.0,,1018.6,320.0,11.5,30.04,58.56,10.0,25.48,,21.0,M,,,GNR,1063357,2023-11-06 01:00:00+00:00,10200.0,6.92,,
248847,2023-11-06 02:00:00+00:00,0.0,2023-11-06 01:56,32.0,20.0,,1019.0,330.0,12.65,30.05,60.81,11.0,22.47,,19.0,M,,,GNR,1063361,2023-11-06 02:00:00+00:00,10200.0,6.94,,
248848,2023-11-06 03:00:00+00:00,0.0,2023-11-06 02:56,32.0,23.0,,1019.3,20.0,8.05,30.06,69.04,7.0,24.78,,,M,,,GNR,1063365,2023-11-06 03:00:00+00:00,10300.0,6.98,,
248849,2023-11-06 04:00:00+00:00,0.0,2023-11-06 03:56,31.0,23.0,,1019.4,20.0,4.6,30.06,71.89,4.0,26.25,,,M,,,GNR,1063369,2023-11-06 04:00:00+00:00,10300.0,6.96,,
248850,2023-11-06 05:00:00+00:00,0.0,2023-11-06 04:56,29.0,21.0,,1019.6,20.0,6.9,30.07,71.67,6.0,21.92,,,M,,,GNR,1063373,2023-11-06 05:00:00+00:00,5390.0,4.99,,
248851,2023-11-06 06:00:00+00:00,0.0,2023-11-06 05:56,30.0,20.0,,1019.9,0.0,0.0,30.07,65.94,0.0,30.0,,,M,,,GNR,1063377,2023-11-06 06:00:00+00:00,2860.0,3.78,,
248852,2023-11-06 07:00:00+00:00,0.0,2023-11-06 06:56,29.0,20.0,,1020.3,320.0,3.45,30.09,68.69,3.0,25.26,,,M,,,GNR,1063381,2023-11-06 07:00:00+00:00,2200.0,3.4,,
248853,2023-11-06 08:00:00+00:00,0.0,2023-11-06 07:56,29.0,20.0,,1020.1,0.0,0.0,30.08,68.69,0.0,29.0,,,M,,,GNR,1063385,2023-11-06 08:00:00+00:00,2030.0,3.29,,
248854,2023-11-06 09:00:00+00:00,0.0,2023-11-06 08:56,29.0,21.0,,1020.9,0.0,0.0,30.1,71.67,0.0,29.0,,,M,,,GNR,1063389,2023-11-06 09:00:00+00:00,1990.0,3.27,,
248855,2023-11-06 10:00:00+00:00,0.0,2023-11-06 09:56,28.0,21.0,,1021.6,0.0,0.0,30.11,74.67,0.0,28.0,,,M,,,GNR,1063393,2023-11-06 10:00:00+00:00,2060.0,3.31,,
248856,2023-11-06 11:00:00+00:00,0.0,2023-11-06 10:56,27.0,21.0,,1022.1,0.0,0.0,30.13,77.8,0.0,27.0,,,M,,,GNR,1063397,2023-11-06 11:00:00+00:00,2120.0,3.35,,
248857,2023-11-06 12:00:00+00:00,0.0,2023-11-06 11:56,26.0,21.0,,1022.3,0.0,0.0,30.13,81.09,0.0,26.0,,,M,,,GNR,1063401,2023-11-06 12:00:00+00:00,2110.0,3.34,,
248858,2023-11-06 13:00:00+00:00,0.0,2023-11-06 12:56,30.0,23.0,,1022.9,150.0,3.45,30.15,74.87,3.0,26.4,,,M,,,GNR,1063405,2023-11-06 13:00:00+00:00,2090.0,3.33,,
248859,2023-11-06 14:00:00+00:00,0.0,2023-11-06 13:56,31.0,23.0,,1022.8,,3.45,30.15,71.89,3.0,27.55,,,M,,,GNR,1063409,2023-11-06 14:00:00+00:00,5370.0,4.98,,
248860,2023-11-06 15:00:00+00:00,0.0,2023-11-06 14:56,34.0,23.0,,1022.5,,5.75,30.14,63.72,5.0,28.77,,,M,,,GNR,1063413,2023-11-06 15:00:00+00:00,6860.0,5.6,,
248861,2023-11-06 16:00:00+00:00,0.0,2023-11-06 15:56,35.0,20.0,,1021.5,,3.45,30.11,53.93,3.0,32.12,,,M,,,GNR,1063417,2023-11-06 16:00:00+00:00,6340.0,5.39,,
248862,2023-11-06 17:00:00+00:00,0.0,2023-11-06 16:56,35.0,22.0,,1020.7,,3.45,30.09,58.7,3.0,32.12,,,M,,,GNR,1063421,2023-11-06 17:00:00+00:00,6490.0,5.45,,
248863,2023-11-06 18:00:00+00:00,0.0,2023-11-06 17:56,37.0,22.0,,1020.1,,3.45,30.07,54.23,3.0,34.4,,,M,,,GNR,1063425,2023-11-06 18:00:00+00:00,4940.0,4.79,,
248864,2023-11-06 19:00:00+00:00,0.0,2023-11-06 18:56,37.0,22.0,,1019.3,220.0,3.45,30.05,54.23,3.0,34.4,,,M,,,GNR,1063429,2023-11-06 19:00:00+00:00,2790.0,3.74,,
248865,2023-11-06 20:00:00+00:00,0.0,2023-11-06 19:56,36.0,22.0,,1019.4,,6.9,30.05,56.42,6.0,30.35,,,M,,,GNR,1063433,2023-11-06 20:00:00+00:00,2170.0,3.38,,
248866,2023-11-06 21:00:00+00:00,0.0,2023-11-06 20:56,35.0,22.0,,1019.1,140.0,5.75,30.04,58.7,5.0,29.96,,,M,,,GNR,1063437,2023-11-06 21:00:00+00:00,2060.0,3.31,,
248867,2023-11-06 22:00:00+00:00,0.0,2023-11-06 21:56,33.0,22.0,,1018.8,140.0,6.9,30.03,63.59,6.0,26.73,,,M,,,GNR,1063441,2023-11-06 22:00:00+00:00,2030.0,3.29,,
248868,2023-11-06 23:00:00+00:00,0.0,2023-11-06 22:56,33.0,23.0,,1019.0,140.0,6.9,30.03,66.32,6.0,26.73,,,M,,,GNR,1063445,2023-11-06 23:00:00+00:00,2170.0,3.38,,
248869,2023-11-07 00:00:00+00:00,0.0,2023-11-06 23:56,33.0,23.0,,1018.1,140.0,8.05,30.01,66.32,7.0,26.0,,,M,,,GNR,1063449,2023-11-07 00:00:00+00:00,6340.0,5.39,,
248870,2023-11-07 01:00:00+00:00,0.0,2023-11-07 00:56,32.0,24.0,,1017.4,150.0,8.05,29.99,72.0,7.0,24.78,,15.0,M,,,GNR,1063453,2023-11-07 01:00:00+00:00,6360.0,5.4,,
248871,2023-11-07 02:00:00+00:00,0.0,2023-11-07 01:56,32.0,25.0,,1016.5,140.0,9.2,29.97,75.07,8.0,24.11,,14.0,M,,,GNR,1063457,2023-11-07 02:00:00+00:00,6340.0,5.39,,
248872,2023-11-07 03:00:00+00:00,0.0,2023-11-07 02:56,32.0,25.0,,1015.8,150.0,8.05,29.95,75.07,7.0,24.78,,15.0,M,,,GNR,1063461,2023-11-07 03:00:00+00:00,6340.0,5.39,,
248873,2023-11-07 04:00:00+00:00,0.0,2023-11-07 03:56,33.0,26.0,,1014.9,150.0,12.65,29.92,75.17,11.0,23.73,,20.0,M,,,GNR,1063465,2023-11-07 04:00:00+00:00,4620.0,4.64,,
248874,2023-11-07 05:00:00+00:00,0.0,2023-11-07 04:56,32.0,28.0,,1013.9,140.0,10.35,29.89,84.98,9.0,23.51,,17.0,M,,,GNR,1063469,2023-11-07 05:00:00+00:00,2650.0,3.66,,
248875,2023-11-07 06:00:00+00:00,1.02,2023-11-07 05:56,32.0,30.0,,1012.7,140.0,10.35,29.86,92.22,9.0,23.51,,,M,,,GNR,1063473,2023-11-07 06:00:00+00:00,2070.0,3.32,,
248876,2023-11-07 07:00:00+00:00,1.27,2023-11-07 06:56,33.0,31.0,,1010.9,130.0,12.65,29.81,92.25,11.0,23.73,,19.0,M,,,GNR,1063477,2023-11-07 07:00:00+00:00,1960.0,3.25,,
248877,2023-11-07 08:00:00+00:00,0.76,2023-11-07 07:56,33.0,32.0,,1009.7,140.0,9.2,29.77,96.06,8.0,25.34,,17.0,M,,,GNR,1063481,2023-11-07 08:00:00+00:00,1950.0,3.24,,
248878,2023-11-07 09:00:00+00:00,1.02,2023-11-07 08:56,33.0,32.0,,1008.4,140.0,11.5,29.73,96.06,10.0,24.22,,18.0,M,,,GNR,1063485,2023-11-07 09:00:00+00:00,1930.0,3.23,,
248879,2023-11-07 10:00:00+00:00,0.25,2023-11-07 09:56,35.0,34.0,,1007.1,150.0,11.5,29.69,96.09,10.0,26.73,,,M,,,GNR,1063489,2023-11-07 10:00:00+00:00,1930.0,3.23,,
248880,2023-11-07 11:00:00+00:00,0.0,2023-11-07 10:56,37.0,36.0,,1006.1,130.0,8.05,29.67,96.13,7.0,30.87,,,M,,,GNR,1063493,2023-11-07 11:00:00+00:00,1920.0,3.22,,
248881,2023-11-07 12:00:00+00:00,0.0,2023-11-07 11:56,39.0,39.0,,1005.3,150.0,8.05,29.64,100.0,7.0,33.31,,,M,,,GNR,1063497,2023-11-07 12:00:00+00:00,1900.0,3.21,,
248882,2023-11-07 13:00:00+00:00,0.0,2023-11-07 12:56,44.0,43.0,,1004.6,180.0,10.35,29.63,96.24,9.0,38.44,,21.0,M,,,GNR,1063501,2023-11-07 13:00:00+00:00,1900.0,3.21,,
248883,2023-11-07 14:00:00+00:00,0.0,2023-11-07 13:56,45.0,44.0,,1003.3,180.0,9.2,29.59,96.26,8.0,40.13,,21.0,M,,,GNR,1063505,2023-11-07 14:00:00+00:00,2250.0,3.43,,
248884,2023-11-07 15:00:00+00:00,0.0,2023-11-07 14:56,46.0,45.0,,1002.5,200.0,6.9,29.57,96.28,6.0,42.39,,23.0,M,,,GNR,1063509,2023-11-07 15:00:00+00:00,6240.0,5.35,,
248885,2023-11-07 16:00:00+00:00,0.0,2023-11-07 15:56,47.0,46.0,,1001.2,200.0,12.65,29.53,96.29,11.0,41.42,,17.0,M,,,GNR,1063513,2023-11-07 16:00:00+00:00,6270.0,5.36,,
248886,2023-11-07 17:00:00+00:00,0.0,2023-11-07 16:56,47.0,46.0,,1000.0,190.0,10.35,29.5,96.29,9.0,42.17,,18.0,M,,,GNR,1063517,2023-11-07 17:00:00+00:00,4620.0,4.64,,
248887,2023-11-07 18:00:00+00:00,0.0,2023-11-07 17:56,47.0,45.0,,999.3,,5.75,29.48,92.71,5.0,44.21,,,M,,,GNR,1063521,2023-11-07 18:00:00+00:00,2580.0,3.62,,
248888,2023-11-07 19:00:00+00:00,0.25,2023-11-07 18:56,48.0,46.0,,998.9,,4.6,29.47,92.74,4.0,46.1,,,M,,,GNR,1063525,2023-11-07 19:00:00+00:00,2010.0,3.28,,
248889,2023-11-07 20:00:00+00:00,0.0,2023-11-07 19:56,48.0,46.0,,998.9,210.0,4.6,29.47,92.74,4.0,46.1,,,M,,,GNR,1063529,2023-11-07 20:00:00+00:00,1900.0,3.21,,
248890,2023-11-07 21:00:00+00:00,0.51,2023-11-07 20:56,47.0,46.0,,999.0,,3.45,29.47,96.29,3.0,45.84,,,M,,,GNR,1063533,2023-11-07 21:00:00+00:00,1890.0,3.2,,
248891,2023-11-07 22:00:00+00:00,0.0,2023-11-07 21:56,48.0,44.0,,999.4,280.0,12.65,29.48,85.95,11.0,42.69,,23.0,M,,,GNR,1063537,2023-11-07 22:00:00+00:00,2290.0,3.45,,
248892,2023-11-07 23:00:00+00:00,0.0,2023-11-07 22:56,46.0,42.0,,1000.2,300.0,13.8,29.51,85.83,12.0,39.82,,26.0,M,26.0,,GNR,1063541,2023-11-07 23:00:00+00:00,6190.0,5.33,,
248893,2023-11-08 00:00:00+00:00,0.0,2023-11-07 23:56,43.0,37.0,,1001.5,310.0,13.8,29.54,79.19,12.0,36.0,,28.0,M,31.0,,GNR,1063545,2023-11-08 00:00:00+00:00,6190.0,5.33,,
248894,2023-11-08 01:00:00+00:00,0.0,2023-11-08 00:56,39.0,34.0,,1002.5,300.0,14.95,29.57,82.08,13.0,30.54,,23.0,M,31.0,,GNR,1063549,2023-11-08 01:00:00+00:00,6220.0,5.34,,
248895,2023-11-08 02:00:00+00:00,0.0,2023-11-08 01:56,38.0,33.0,,1003.4,300.0,11.5,29.6,82.0,10.0,30.49,,20.0,M,,,GNR,1063553,2023-11-08 02:00:00+00:00,6220.0,5.34,,
248896,2023-11-08 03:00:00+00:00,0.0,2023-11-08 02:56,36.0,31.0,,1004.0,310.0,14.95,29.61,81.86,13.0,26.69,,26.0,M,29.0,,GNR,1063557,2023-11-08 03:00:00+00:00,6220.0,5.34,,
248897,2023-11-08 04:00:00+00:00,0.0,2023-11-08 03:56,34.0,30.0,,1004.1,320.0,11.5,29.62,85.11,10.0,25.48,,23.0,M,31.0,,GNR,1063561,2023-11-08 04:00:00+00:00,4590.0,4.63,,
248898,2023-11-08 05:00:00+00:00,0.0,2023-11-08 04:56,33.0,27.0,,1004.9,310.0,19.55,29.64,78.34,17.0,21.39,,29.0,M,34.0,,GNR,1063565,2023-11-08 05:00:00+00:00,2520.0,3.59,,
248899,2023-11-08 06:00:00+00:00,0.0,2023-11-08 05:56,31.0,26.0,,1005.1,310.0,16.1,29.64,81.48,14.0,19.87,,25.0,M,31.0,,GNR,1063569,2023-11-08 06:00:00+00:00,1930.0,3.23,,
248900,2023-11-08 07:00:00+00:00,0.0,2023-11-08 06:56,31.0,23.0,,1004.7,310.0,20.7,29.64,71.89,18.0,18.43,,43.0,M,43.0,,GNR,1063573,2023-11-08 07:00:00+00:00,1830.0,3.16,,
248901,2023-11-08 08:00:00+00:00,0.0,2023-11-08 07:56,29.0,20.0,,1005.9,310.0,17.25,29.67,68.69,15.0,16.89,,32.0,M,41.0,,GNR,1063577,2023-11-08 08:00:00+00:00,1800.0,3.14,,
248902,2023-11-08 09:00:00+00:00,0.0,2023-11-08 08:56,29.0,20.0,,1006.3,310.0,18.4,29.68,68.69,16.0,16.51,,36.0,M,36.0,,GNR,1063581,2023-11-08 09:00:00+00:00,1800.0,3.14,,
248903,2023-11-08 10:00:00+00:00,0.0,2023-11-08 09:56,29.0,19.0,,1007.1,310.0,18.4,29.7,65.81,16.0,16.51,,32.0,M,37.0,,GNR,1063585,2023-11-08 10:00:00+00:00,1780.0,3.13,,
248904,2023-11-08 11:00:00+00:00,0.0,2023-11-08 10:56,28.0,18.0,,1007.4,310.0,24.15,29.71,65.69,21.0,13.52,,39.0,M,39.0,,GNR,1063589,2023-11-08 11:00:00+00:00,1770.0,3.12,,
248905,2023-11-08 12:00:00+00:00,0.0,2023-11-08 11:56,28.0,17.0,,1008.5,310.0,24.15,29.74,62.91,21.0,13.52,,43.0,M,43.0,,GNR,1063593,2023-11-08 12:00:00+00:00,1750.0,3.11,,
248906,2023-11-08 13:00:00+00:00,0.0,2023-11-08 12:56,28.0,17.0,,1009.5,320.0,19.55,29.76,62.91,17.0,14.83,,45.0,M,45.0,,GNR,1063597,2023-11-08 13:00:00+00:00,1750.0,3.11,,
248907,2023-11-08 14:00:00+00:00,0.0,2023-11-08 13:56,29.0,18.0,,1009.8,310.0,16.1,29.77,63.05,14.0,17.3,,28.0,M,39.0,,GNR,1063601,2023-11-08 14:00:00+00:00,1950.0,3.24,,
248908,2023-11-08 15:00:00+00:00,0.0,2023-11-08 14:56,29.0,18.0,,1010.4,310.0,18.4,29.79,63.05,16.0,16.51,,31.0,M,41.0,,GNR,1063605,2023-11-08 15:00:00+00:00,6100.0,5.29,,
248909,2023-11-08 16:00:00+00:00,0.0,2023-11-08 15:56,30.0,18.0,,1010.2,320.0,23.0,29.78,60.53,20.0,16.48,,34.0,M,34.0,,GNR,1063609,2023-11-08 16:00:00+00:00,4660.0,4.66,2023-11-08 16:00:00+00:00,gs://gcp-public-data-sentinel-2/tiles/19/T/DL/S2A_MSIL1C_20231108T154441_N0509_R011_T19TDL_20231108T222152.SAFE
248910,2023-11-08 17:00:00+00:00,0.0,2023-11-08 16:56,32.0,19.0,,1009.9,310.0,19.55,29.77,58.27,17.0,20.08,,35.0,M,36.0,,GNR,1063613,2023-11-08 17:00:00+00:00,2490.0,3.57,,
248911,2023-11-08 18:00:00+00:00,0.0,2023-11-08 17:56,35.0,20.0,,1010.1,330.0,23.0,29.78,53.93,20.0,23.12,,37.0,M,41.0,,GNR,1063617,2023-11-08 18:00:00+00:00,1870.0,3.19,,
248912,2023-11-08 19:00:00+00:00,0.0,2023-11-08 18:56,35.0,20.0,,1010.0,330.0,20.7,29.78,53.93,18.0,23.7,,35.0,M,44.0,,GNR,1063621,2023-11-08 19:00:00+00:00,1740.0,3.1,,
248913,2023-11-08 20:00:00+00:00,0.0,2023-11-08 19:56,,,,,,,29.8,,,,,,M,42.0,,GNR,1063625,2023-11-08 20:00:00+00:00,1720.0,3.09,,
248914,2023-11-08 21:00:00+00:00,0.0,2023-11-08 20:56,32.0,20.0,,1011.4,320.0,26.45,29.82,60.81,23.0,18.31,,34.0,M,34.0,,GNR,1063629,2023-11-08 21:00:00+00:00,1710.0,3.08,,
248915,2023-11-08 22:00:00+00:00,0.0,2023-11-08 21:56,30.0,19.0,,1012.3,330.0,28.75,29.84,63.18,25.0,15.11,,35.0,M,37.0,,GNR,1063633,2023-11-08 22:00:00+00:00,1690.0,3.07,,
248916,2023-11-08 23:00:00+00:00,0.0,2023-11-08 22:56,30.0,19.0,,1013.2,320.0,25.3,29.87,63.18,22.0,15.9,,40.0,M,40.0,,GNR,1063637,2023-11-08 23:00:00+00:00,1980.0,3.26,,
248917,2023-11-09 00:00:00+00:00,0.0,2023-11-08 23:56,29.0,18.0,,1013.9,310.0,20.7,29.89,63.05,18.0,15.8,,30.0,M,39.0,,GNR,1063641,2023-11-09 00:00:00+00:00,6000.0,5.25,,
248918,2023-11-09 01:00:00+00:00,0.0,2023-11-09 00:56,29.0,18.0,,1013.5,320.0,16.1,29.87,63.05,14.0,17.3,,31.0,M,35.0,,GNR,1063645,2023-11-09 01:00:00+00:00,6050.0,5.27,,
248919,2023-11-09 02:00:00+00:00,0.0,2023-11-09 01:56,28.0,17.0,,1014.1,320.0,18.4,29.89,62.91,16.0,15.2,,34.0,M,35.0,,GNR,1063649,2023-11-09 02:00:00+00:00,6050.0,5.27,,
248920,2023-11-09 03:00:00+00:00,0.0,2023-11-09 02:56,28.0,16.0,,1014.0,320.0,24.15,29.89,60.25,21.0,13.52,,33.0,M,35.0,,GNR,1063653,2023-11-09 03:00:00+00:00,6020.0,5.26,,
248921,2023-11-09 04:00:00+00:00,0.0,2023-11-09 03:56,28.0,15.0,,1013.6,330.0,19.55,29.87,57.68,17.0,14.83,,28.0,M,35.0,,GNR,1063657,2023-11-09 04:00:00+00:00,6020.0,5.26,,
248922,2023-11-09 05:00:00+00:00,0.0,2023-11-09 04:56,27.0,16.0,,1013.6,340.0,19.55,29.87,62.78,17.0,13.52,,27.0,M,27.0,,GNR,1063661,2023-11-09 05:00:00+00:00,4280.0,4.48,,
248923,2023-11-09 06:00:00+00:00,0.0,2023-11-09 05:56,27.0,16.0,,1014.5,360.0,9.2,29.9,62.78,8.0,17.95,,19.0,M,,,GNR,1063665,2023-11-09 06:00:00+00:00,2340.0,3.48,,
248924,2023-11-09 07:00:00+00:00,0.0,2023-11-09 06:56,26.0,17.0,,1015.0,320.0,5.75,29.92,68.32,5.0,19.27,,,M,,,GNR,1063669,2023-11-09 07:00:00+00:00,1750.0,3.11,,
248925,2023-11-09 08:00:00+00:00,0.0,2023-11-09 07:56,26.0,16.0,,,310.0,10.35,29.9,65.43,9.0,16.05,,19.0,M,,,GNR,1063673,2023-11-09 08:00:00+00:00,1650.0,3.04,,
248926,2023-11-09 09:00:00+00:00,0.0,2023-11-09 08:56,26.0,16.0,,1014.2,330.0,18.4,29.89,65.43,16.0,12.6,,26.0,M,26.0,,GNR,1063677,2023-11-09 09:00:00+00:00,1630.0,3.03,,
248927,2023-11-09 10:00:00+00:00,0.0,2023-11-09 09:56,25.0,15.0,,1014.5,340.0,9.2,29.9,65.3,8.0,15.49,,16.0,M,,,GNR,1063681,2023-11-09 10:00:00+00:00,1620.0,3.02,,
248928,2023-11-09 11:00:00+00:00,0.0,2023-11-09 10:56,25.0,16.0,,1014.8,350.0,10.35,29.91,68.2,9.0,14.81,,14.0,M,,,GNR,1063685,2023-11-09 11:00:00+00:00,1610.0,3.01,,
248929,2023-11-09 12:00:00+00:00,0.0,2023-11-09 11:56,25.0,16.0,,1014.2,10.0,4.6,29.89,68.2,4.0,19.25,,,M,,,GNR,1063689,2023-11-09 12:00:00+00:00,1610.0,3.01,,
248930,2023-11-09 13:00:00+00:00,0.0,2023-11-09 12:56,25.0,17.0,,1014.5,20.0,3.45,29.9,71.22,3.0,20.69,,,M,,,GNR,1063693,2023-11-09 13:00:00+00:00,1590.0,3.0,,
248931,2023-11-09 14:00:00+00:00,0.0,2023-11-09 13:56,27.0,18.0,,1014.6,0.0,0.0,29.9,68.45,0.0,27.0,,,M,,,GNR,1063697,2023-11-09 14:00:00+00:00,1590.0,3.0,,
248932,2023-11-09 15:00:00+00:00,0.0,2023-11-09 14:56,28.0,17.0,,1013.8,90.0,5.75,29.88,62.91,5.0,21.64,,,M,,,GNR,1063701,2023-11-09 15:00:00+00:00,1580.0,2.99,,
248933,2023-11-09 16:00:00+00:00,0.0,2023-11-09 15:56,29.0,18.0,,1012.7,160.0,5.75,29.85,63.05,5.0,22.83,,,M,,,GNR,1063705,2023-11-09 16:00:00+00:00,1580.0,2.99,,
248934,2023-11-09 17:00:00+00:00,0.0,2023-11-09 16:56,29.0,18.0,,1012.5,130.0,8.05,29.84,63.05,7.0,21.12,,,M,,,GNR,1063709,2023-11-09 17:00:00+00:00,1570.0,2.98,,
248935,2023-11-09 18:00:00+00:00,0.0,2023-11-09 17:56,28.0,20.0,,1011.8,140.0,6.9,29.82,71.56,6.0,20.71,,,M,,,GNR,1063713,2023-11-09 18:00:00+00:00,1570.0,2.98,,
248936,2023-11-09 19:00:00+00:00,0.25,2023-11-09 18:56,27.0,23.0,,1011.5,140.0,9.2,29.81,84.66,8.0,17.95,,,M,,,GNR,1063717,2023-11-09 19:00:00+00:00,1890.0,3.2,,
248937,2023-11-09 20:00:00+00:00,0.25,2023-11-09 19:56,26.0,23.0,,1011.0,,6.9,29.79,88.23,6.0,18.3,,,M,,,GNR,1063721,2023-11-09 20:00:00+00:00,5930.0,5.22,,
248938,2023-11-09 21:00:00+00:00,0.25,2023-11-09 20:56,26.0,23.0,,1010.7,130.0,10.35,29.79,88.23,9.0,16.05,,,M,,,GNR,1063725,2023-11-09 21:00:00+00:00,5930.0,5.22,,
248939,2023-11-09 22:00:00+00:00,0.0,2023-11-09 21:56,26.0,24.0,,1011.3,140.0,8.05,29.8,92.01,7.0,17.47,,,M,,,GNR,1063729,2023-11-09 22:00:00+00:00,5950.0,5.23,,
248940,2023-11-09 23:00:00+00:00,0.0,2023-11-09 22:56,26.0,23.0,,1011.3,140.0,9.2,29.8,88.23,8.0,16.72,,,M,,,GNR,1063733,2023-11-09 23:00:00+00:00,5930.0,5.22,,
248941,2023-11-10 00:00:00+00:00,0.25,2023-11-09 23:56,26.0,24.0,,1011.4,140.0,10.35,29.81,92.01,9.0,16.05,,,M,,,GNR,1063737,2023-11-10 00:00:00+00:00,5950.0,5.23,,
248942,2023-11-10 01:00:00+00:00,0.0,2023-11-10 00:56,26.0,24.0,,1011.3,150.0,6.9,29.8,92.01,6.0,18.3,,,M,,,GNR,1063741,2023-11-10 01:00:00+00:00,5950.0,5.23,,
248943,2023-11-10 02:00:00+00:00,0.0,2023-11-10 01:56,26.0,24.0,,1011.0,150.0,5.75,29.8,92.01,5.0,19.27,,,M,,,GNR,1063745,2023-11-10 02:00:00+00:00,5950.0,5.23,,
248944,2023-11-10 03:00:00+00:00,0.0,2023-11-10 02:56,26.0,25.0,,1011.0,150.0,4.6,29.79,95.93,4.0,20.41,,,M,,,GNR,1063749,2023-11-10 03:00:00+00:00,5950.0,5.23,,
248945,2023-11-10 04:00:00+00:00,0.0,2023-11-10 03:56,27.0,26.0,,1010.5,150.0,3.45,29.78,95.95,3.0,22.97,,,M,,,GNR,1063753,2023-11-10 04:00:00+00:00,4450.0,4.56,,
248946,2023-11-10 05:00:00+00:00,0.0,2023-11-10 04:56,27.0,26.0,,1010.0,120.0,3.45,29.77,95.95,3.0,22.97,,,M,,,GNR,1063757,2023-11-10 05:00:00+00:00,2320.0,3.47,,
248947,2023-11-10 06:00:00+00:00,0.0,2023-11-10 05:56,27.0,26.0,,1009.8,190.0,4.6,29.76,95.95,4.0,21.58,,,M,,,GNR,1063761,2023-11-10 06:00:00+00:00,1690.0,3.07,,
248948,2023-11-10 07:00:00+00:00,0.0,2023-11-10 06:56,29.0,28.0,,1009.8,0.0,0.0,29.76,95.99,0.0,29.0,,,M,,,GNR,1063765,2023-11-10 07:00:00+00:00,1570.0,2.98,,
248949,2023-11-10 08:00:00+00:00,0.0,2023-11-10 07:56,28.0,26.0,,1009.8,0.0,0.0,29.76,92.08,0.0,28.0,,,M,,,GNR,1063769,2023-11-10 08:00:00+00:00,1540.0,2.96,,
248950,2023-11-10 09:00:00+00:00,0.0,2023-11-10 08:56,30.0,28.0,,1009.8,190.0,3.45,29.76,92.15,3.0,26.4,,,M,,,GNR,1063773,2023-11-10 09:00:00+00:00,1530.0,2.95,,
248951,2023-11-10 10:00:00+00:00,0.0,2023-11-10 09:56,30.0,28.0,,1009.9,0.0,0.0,29.77,92.15,0.0,30.0,,,M,,,GNR,1063777,2023-11-10 10:00:00+00:00,1530.0,2.95,,
248952,2023-11-10 11:00:00+00:00,0.0,2023-11-10 10:56,29.0,27.0,,1010.5,220.0,4.6,29.78,92.12,4.0,23.92,,,M,,,GNR,1063781,2023-11-10 11:00:00+00:00,1510.0,2.94,,
248953,2023-11-10 12:00:00+00:00,0.0,2023-11-10 11:56,30.0,28.0,,1011.1,150.0,3.45,29.8,92.15,3.0,26.4,,,M,,,GNR,1063785,2023-11-10 12:00:00+00:00,1510.0,2.94,,
248954,2023-11-10 13:00:00+00:00,0.0,2023-11-10 12:56,32.0,29.0,,1011.0,0.0,0.0,29.8,88.53,0.0,32.0,,,M,,,GNR,1063789,2023-11-10 13:00:00+00:00,1510.0,2.94,,
248955,2023-11-10 14:00:00+00:00,0.0,2023-11-10 13:56,32.0,29.0,,1011.1,190.0,3.45,29.8,88.53,3.0,28.69,,,M,,,GNR,1063793,2023-11-10 14:00:00+00:00,1500.0,2.93,,
248956,2023-11-10 15:00:00+00:00,0.0,2023-11-10 14:56,35.0,29.0,,1011.1,,6.9,29.8,78.51,6.0,29.14,,,M,,,GNR,1063797,2023-11-10 15:00:00+00:00,1500.0,2.93,,
248957,2023-11-10 16:00:00+00:00,0.0,2023-11-10 15:56,37.0,29.0,,1011.2,,6.9,29.81,72.54,6.0,31.55,,,M,,,GNR,1063801,2023-11-10 16:00:00+00:00,1500.0,2.93,2023-11-10 16:00:00+00:00,gs://gcp-public-data-sentinel-2/tiles/19/T/DL/S2B_MSIL1C_20231110T153559_N0509_R111_T19TDL_20231110T172603.SAFE
248958,2023-11-10 17:00:00+00:00,0.0,2023-11-10 16:56,38.0,28.0,,1011.0,290.0,12.65,29.8,66.94,11.0,30.05,,25.0,M,,,GNR,1063805,2023-11-10 17:00:00+00:00,1490.0,2.92,,
248959,2023-11-10 18:00:00+00:00,0.0,2023-11-10 17:56,39.0,29.0,,1011.0,,6.9,29.81,67.06,6.0,33.96,,,M,28.0,,GNR,1063809,2023-11-10 18:00:00+00:00,1490.0,2.92,,
248960,2023-11-10 19:00:00+00:00,0.0,2023-11-10 18:56,39.0,29.0,,1011.1,300.0,6.9,29.81,67.06,6.0,33.96,,,M,,,GNR,1063813,2023-11-10 19:00:00+00:00,1470.0,2.91,,
248961,2023-11-10 20:00:00+00:00,0.0,2023-11-10 19:56,38.0,29.0,,1011.6,300.0,6.9,29.82,69.74,6.0,32.76,,,M,,,GNR,1063817,2023-11-10 20:00:00+00:00,1470.0,2.91,,
248962,2023-11-10 21:00:00+00:00,0.0,2023-11-10 20:56,38.0,29.0,,1012.2,0.0,0.0,29.84,69.74,0.0,38.0,,,M,,,GNR,1063821,2023-11-10 21:00:00+00:00,1470.0,2.91,,
248963,2023-11-10 22:00:00+00:00,0.25,2023-11-10 21:56,36.0,30.0,,1012.3,0.0,0.0,29.84,78.6,0.0,36.0,,,M,,,GNR,1063825,2023-11-10 22:00:00+00:00,1460.0,2.9,,
248964,2023-11-10 23:00:00+00:00,0.0,2023-11-10 22:56,37.0,29.0,,1012.8,,5.75,29.86,72.54,5.0,32.33,,,M,,,GNR,1063829,2023-11-10 23:00:00+00:00,6240.0,5.35,,
248965,2023-11-11 00:00:00+00:00,0.0,2023-11-10 23:56,38.0,29.0,,1012.8,,,29.86,69.74,,,,,M,,,GNR,1063833,2023-11-11 00:00:00+00:00,9590.0,6.69,,
248966,2023-11-11 01:00:00+00:00,0.0,2023-11-11 00:56,37.0,29.0,,1013.0,,4.6,29.87,72.54,4.0,33.26,,,M,,,GNR,1063837,2023-11-11 01:00:00+00:00,9610.0,6.7,,
248967,2023-11-11 02:00:00+00:00,0.0,2023-11-11 01:56,36.0,29.0,,1012.9,,4.6,29.87,75.46,4.0,32.09,,,M,,,GNR,1063841,2023-11-11 02:00:00+00:00,9660.0,6.72,,
248968,2023-11-11 03:00:00+00:00,0.0,2023-11-11 02:56,36.0,30.0,,1013.1,,6.9,29.87,78.6,6.0,30.35,,,M,,,GNR,1063845,2023-11-11 03:00:00+00:00,9690.0,6.73,,
248969,2023-11-11 04:00:00+00:00,0.0,2023-11-11 03:56,34.0,30.0,,1013.6,310.0,6.9,29.89,85.11,6.0,27.94,,20.0,M,,,GNR,1063849,2023-11-11 04:00:00+00:00,4880.0,4.76,,
248970,2023-11-11 05:00:00+00:00,0.0,2023-11-11 04:56,34.0,29.0,,1014.1,310.0,12.65,29.9,81.71,11.0,24.99,,18.0,M,,,GNR,1063853,2023-11-11 05:00:00+00:00,2270.0,3.44,,
248971,2023-11-11 06:00:00+00:00,0.0,2023-11-11 05:56,33.0,24.0,,1014.7,300.0,9.2,29.92,69.16,8.0,25.34,,20.0,M,,,GNR,1063857,2023-11-11 06:00:00+00:00,1620.0,3.02,,
248972,2023-11-11 07:00:00+00:00,0.0,2023-11-11 06:56,32.0,21.0,,1014.9,290.0,9.2,29.93,63.45,8.0,24.11,,16.0,M,27.0,,GNR,1063861,2023-11-11 07:00:00+00:00,1470.0,2.91,,
248973,2023-11-11 08:00:00+00:00,0.0,2023-11-11 07:56,31.0,23.0,,1015.6,300.0,11.5,29.94,71.89,10.0,21.71,,23.0,M,,,GNR,1063865,2023-11-11 08:00:00+00:00,1460.0,2.9,,
248974,2023-11-11 09:00:00+00:00,0.0,2023-11-11 08:56,30.0,22.0,,1016.5,310.0,16.1,29.97,71.78,14.0,18.58,,26.0,M,26.0,,GNR,1063869,2023-11-11 09:00:00+00:00,1450.0,2.89,,
248975,2023-11-11 10:00:00+00:00,0.0,2023-11-11 09:56,30.0,21.0,,1017.1,300.0,12.65,29.98,68.81,11.0,19.94,,21.0,M,,,GNR,1063873,2023-11-11 10:00:00+00:00,1430.0,2.88,,
248976,2023-11-11 11:00:00+00:00,0.0,2023-11-11 10:56,29.0,19.0,,1018.1,320.0,23.0,30.01,65.81,20.0,15.15,,31.0,M,31.0,,GNR,1063877,2023-11-11 11:00:00+00:00,1430.0,2.88,,
248977,2023-11-11 12:00:00+00:00,0.0,2023-11-11 11:56,28.0,18.0,,1019.2,310.0,13.8,30.05,65.69,12.0,16.91,,23.0,M,30.0,,GNR,1063881,2023-11-11 12:00:00+00:00,1420.0,2.87,,
248978,2023-11-11 13:00:00+00:00,0.0,2023-11-11 12:56,28.0,18.0,,1020.4,310.0,10.35,30.08,65.69,9.0,18.54,,22.0,M,28.0,,GNR,1063885,2023-11-11 13:00:00+00:00,1420.0,2.87,,
248979,2023-11-11 14:00:00+00:00,0.0,2023-11-11 13:56,28.0,18.0,,1020.9,310.0,12.65,30.09,65.69,11.0,17.41,,26.0,M,26.0,,GNR,1063889,2023-11-11 14:00:00+00:00,1420.0,2.87,,
248980,2023-11-11 15:00:00+00:00,0.0,2023-11-11 14:56,29.0,19.0,,1021.6,310.0,12.65,30.12,65.81,11.0,18.68,,22.0,M,27.0,,GNR,1063893,2023-11-11 15:00:00+00:00,1410.0,2.86,,
248981,2023-11-11 16:00:00+00:00,0.0,2023-11-11 15:56,30.0,19.0,,1021.9,310.0,11.5,30.12,63.18,10.0,20.46,,25.0,M,,,GNR,1063897,2023-11-11 16:00:00+00:00,1410.0,2.86,,
248982,2023-11-11 17:00:00+00:00,0.0,2023-11-11 16:56,30.0,19.0,,1022.5,310.0,8.05,30.14,63.18,7.0,22.34,,23.0,M,28.0,,GNR,1063901,2023-11-11 17:00:00+00:00,1410.0,2.86,,
248983,2023-11-11 18:00:00+00:00,0.0,2023-11-11 17:56,31.0,19.0,,1022.7,290.0,11.5,30.15,60.67,10.0,21.71,,24.0,M,,,GNR,1063905,2023-11-11 18:00:00+00:00,1390.0,2.85,,
248984,2023-11-11 19:00:00+00:00,0.0,2023-11-11 18:56,31.0,19.0,,1023.4,300.0,13.8,30.17,60.67,12.0,20.73,,25.0,M,,,GNR,1063909,2023-11-11 19:00:00+00:00,1390.0,2.85,,
248985,2023-11-11 20:00:00+00:00,0.0,2023-11-11 19:56,31.0,19.0,,1024.1,310.0,14.95,30.19,60.67,13.0,20.29,,26.0,M,26.0,,GNR,1063913,2023-11-11 20:00:00+00:00,1380.0,2.84,,
248986,2023-11-11 21:00:00+00:00,0.0,2023-11-11 20:56,30.0,19.0,,1025.2,320.0,14.95,30.21,63.18,13.0,19.01,,22.0,M,26.0,,GNR,1063917,2023-11-11 21:00:00+00:00,1380.0,2.84,,
248987,2023-11-11 22:00:00+00:00,0.0,2023-11-11 21:56,30.0,19.0,,1025.9,320.0,14.95,30.23,63.18,13.0,19.01,,19.0,M,28.0,,GNR,1063921,2023-11-11 22:00:00+00:00,1370.0,2.83,,
248988,2023-11-11 23:00:00+00:00,0.0,2023-11-11 22:56,30.0,19.0,,1026.4,310.0,12.65,30.25,63.18,11.0,19.94,,23.0,M,,,GNR,1063925,2023-11-11 23:00:00+00:00,3950.0,4.33,,
248989,2023-11-12 00:00:00+00:00,0.0,2023-11-11 23:56,29.0,19.0,,1027.1,310.0,8.05,30.27,65.81,7.0,21.12,,21.0,M,,,GNR,1063929,2023-11-12 00:00:00+00:00,9560.0,6.68,,
248990,2023-11-12 01:00:00+00:00,0.0,2023-11-12 00:56,29.0,19.0,,1027.4,310.0,8.05,30.28,65.81,7.0,21.12,,21.0,M,26.0,,GNR,1063933,2023-11-12 01:00:00+00:00,9560.0,6.68,,
248991,2023-11-12 02:00:00+00:00,0.0,2023-11-12 01:56,29.0,19.0,,1028.0,310.0,11.5,30.3,65.81,10.0,19.21,,18.0,M,,,GNR,1063937,2023-11-12 02:00:00+00:00,9610.0,6.7,,
248992,2023-11-12 03:00:00+00:00,0.0,2023-11-12 02:56,29.0,18.0,,1028.3,300.0,10.35,30.31,63.05,9.0,19.78,,23.0,M,,,GNR,1063941,2023-11-12 03:00:00+00:00,9610.0,6.7,,
248993,2023-11-12 04:00:00+00:00,0.0,2023-11-12 03:56,29.0,18.0,,1028.1,310.0,14.95,30.3,63.05,13.0,17.73,,20.0,M,,,GNR,1063945,2023-11-12 04:00:00+00:00,4490.0,4.58,,
248994,2023-11-12 05:00:00+00:00,0.0,2023-11-12 04:56,29.0,19.0,,1028.6,300.0,13.8,30.31,65.81,12.0,18.18,,20.0,M,,,GNR,1063949,2023-11-12 05:00:00+00:00,2120.0,3.35,,
248995,2023-11-12 06:00:00+00:00,0.0,2023-11-12 05:56,29.0,19.0,,1028.5,310.0,12.65,30.31,65.81,11.0,18.68,,23.0,M,,,GNR,1063953,2023-11-12 06:00:00+00:00,1510.0,2.94,,
248996,2023-11-12 07:00:00+00:00,0.0,2023-11-12 06:56,29.0,19.0,,1028.9,330.0,11.5,30.32,65.81,10.0,19.21,,19.0,M,,,GNR,1063957,2023-11-12 07:00:00+00:00,1380.0,2.84,,
248997,2023-11-12 08:00:00+00:00,0.0,2023-11-12 07:56,28.0,19.0,,1029.3,320.0,11.5,30.33,68.57,10.0,17.95,,16.0,M,,,GNR,1063961,2023-11-12 08:00:00+00:00,1370.0,2.83,,
248998,2023-11-12 09:00:00+00:00,0.0,2023-11-12 08:56,28.0,19.0,,1029.5,320.0,10.35,30.34,68.57,9.0,18.54,,19.0,M,,,GNR,1063965,2023-11-12 09:00:00+00:00,1290.0,2.77,,
248999,2023-11-12 10:00:00+00:00,0.0,2023-11-12 09:56,27.0,19.0,,1029.8,320.0,9.2,30.35,71.45,8.0,17.95,,,M,,,GNR,1063969,2023-11-12 10:00:00+00:00,1200.0,2.7,,
249000,2023-11-12 11:00:00+00:00,0.0,2023-11-12 10:56,27.0,19.0,,1030.0,310.0,8.05,30.35,71.45,7.0,18.68,,16.0,M,,,GNR,1063973,2023-11-12 11:00:00+00:00,1190.0,2.69,,
249001,2023-11-12 12:00:00+00:00,0.0,2023-11-12 11:56,27.0,19.0,,1030.6,320.0,11.5,30.37,71.45,10.0,16.7,,15.0,M,,,GNR,1063977,2023-11-12 12:00:00+00:00,1180.0,2.68,,
249002,2023-11-12 13:00:00+00:00,0.0,2023-11-12 12:56,27.0,19.0,,1031.1,320.0,9.2,30.38,71.45,8.0,17.95,,16.0,M,,,GNR,1063981,2023-11-12 13:00:00+00:00,1180.0,2.68,,
249003,2023-11-12 14:00:00+00:00,0.0,2023-11-12 13:56,28.0,19.0,,1031.0,,6.9,30.38,68.57,6.0,20.71,,15.0,M,,,GNR,1063985,2023-11-12 14:00:00+00:00,1170.0,2.67,,
249004,2023-11-12 15:00:00+00:00,0.0,2023-11-12 14:56,28.0,19.0,,1031.1,330.0,9.2,30.39,68.57,8.0,19.19,,17.0,M,,,GNR,1063989,2023-11-12 15:00:00+00:00,1170.0,2.67,,
249005,2023-11-12 16:00:00+00:00,0.0,2023-11-12 15:56,28.0,20.0,,1030.7,320.0,11.5,30.38,71.56,10.0,17.95,,16.0,M,,,GNR,1063993,2023-11-12 16:00:00+00:00,1170.0,2.67,,
249006,2023-11-12 17:00:00+00:00,0.0,2023-11-12 16:56,29.0,20.0,,1030.4,310.0,10.35,30.37,68.69,9.0,19.78,,17.0,M,,,GNR,1063997,2023-11-12 17:00:00+00:00,1160.0,2.66,,
249007,2023-11-12 18:00:00+00:00,0.0,2023-11-12 17:56,29.0,20.0,,1030.0,320.0,9.2,30.35,68.69,8.0,20.42,,,M,,,GNR,1064001,2023-11-12 18:00:00+00:00,1160.0,2.66,,
249008,2023-11-12 19:00:00+00:00,0.0,2023-11-12 18:56,30.0,20.0,,1029.8,320.0,12.65,30.35,65.94,11.0,19.94,,19.0,M,,,GNR,1064005,2023-11-12 19:00:00+00:00,1150.0,2.65,,
249009,2023-11-12 20:00:00+00:00,0.0,2023-11-12 19:56,30.0,20.0,,1029.5,310.0,11.5,30.34,65.94,10.0,20.46,,18.0,M,,,GNR,1064009,2023-11-12 20:00:00+00:00,1150.0,2.65,,
249010,2023-11-12 21:00:00+00:00,0.0,2023-11-12 20:56,29.0,19.0,,1029.5,350.0,8.05,30.34,65.81,7.0,21.12,,16.0,M,,,GNR,1064013,2023-11-12 21:00:00+00:00,1150.0,2.65,,
249011,2023-11-12 22:00:00+00:00,0.0,2023-11-12 21:56,28.0,19.0,,1029.6,330.0,10.35,30.34,68.57,9.0,18.54,,,M,,,GNR,1064017,2023-11-12 22:00:00+00:00,1130.0,2.64,,
249012,2023-11-12 23:00:00+00:00,0.0,2023-11-12 22:56,28.0,18.0,,1029.8,330.0,12.65,30.35,65.69,11.0,17.41,,18.0,M,,,GNR,1064021,2023-11-12 23:00:00+00:00,1130.0,2.64,,
249013,2023-11-13 00:00:00+00:00,0.0,2023-11-12 23:56,27.0,17.0,,1029.7,320.0,12.65,30.34,65.56,11.0,16.15,,,M,,,GNR,1064025,2023-11-13 00:00:00+00:00,1130.0,2.64,,
249014,2023-11-13 01:00:00+00:00,0.0,2023-11-13 00:56,28.0,18.0,,1029.3,330.0,14.95,30.33,65.69,13.0,16.44,,18.0,M,,,GNR,1064029,2023-11-13 01:00:00+00:00,9290.0,6.57,,
249015,2023-11-13 02:00:00+00:00,0.0,2023-11-13 01:56,27.0,18.0,,1029.3,340.0,11.5,30.33,68.45,10.0,16.7,,,M,,,GNR,1064033,2023-11-13 02:00:00+00:00,9310.0,6.58,,
249016,2023-11-13 03:00:00+00:00,0.0,2023-11-13 02:56,27.0,18.0,,1028.8,340.0,13.8,30.32,68.45,12.0,15.64,,21.0,M,,,GNR,1064037,2023-11-13 03:00:00+00:00,9340.0,6.59,,
249017,2023-11-13 04:00:00+00:00,0.0,2023-11-13 03:56,26.0,18.0,,1028.8,320.0,9.2,30.31,71.33,8.0,16.72,,,M,,,GNR,1064041,2023-11-13 04:00:00+00:00,9360.0,6.6,,
249018,2023-11-13 05:00:00+00:00,0.0,2023-11-13 04:56,26.0,18.0,,1028.4,340.0,11.5,30.3,71.33,10.0,15.44,,,M,,,GNR,1064045,2023-11-13 05:00:00+00:00,5460.0,5.02,,
249019,2023-11-13 06:00:00+00:00,0.0,2023-11-13 05:56,26.0,18.0,,1028.4,330.0,8.05,30.3,71.33,7.0,17.47,,,M,,,GNR,1064049,2023-11-13 06:00:00+00:00,2270.0,3.44,,
249020,2023-11-13 07:00:00+00:00,0.0,2023-11-13 06:56,25.0,18.0,,1028.4,330.0,9.2,30.31,74.36,8.0,15.49,,,M,,,GNR,1064053,2023-11-13 07:00:00+00:00,1450.0,2.89,,
249021,2023-11-13 08:00:00+00:00,0.0,2023-11-13 07:56,24.0,17.0,,1028.0,320.0,11.5,30.29,74.26,10.0,12.94,,17.0,M,,,GNR,1064057,2023-11-13 08:00:00+00:00,1180.0,2.68,,
249022,2023-11-13 09:00:00+00:00,0.0,2023-11-13 08:56,24.0,17.0,,1027.6,330.0,10.35,30.28,74.26,9.0,13.57,,,M,,,GNR,1064061,2023-11-13 09:00:00+00:00,1170.0,2.67,,
249023,2023-11-13 10:00:00+00:00,0.0,2023-11-13 09:56,24.0,17.0,,1027.2,330.0,12.65,30.27,74.26,11.0,12.36,,19.0,M,,,GNR,1064065,2023-11-13 10:00:00+00:00,1250.0,2.74,,
249024,2023-11-13 11:00:00+00:00,0.0,2023-11-13 10:56,24.0,18.0,,1026.9,360.0,8.05,30.26,77.53,7.0,15.03,,,M,,,GNR,1064069,2023-11-13 11:00:00+00:00,1250.0,2.74,,
249025,2023-11-13 12:00:00+00:00,0.0,2023-11-13 11:56,24.0,18.0,,1026.9,350.0,6.9,30.26,77.53,6.0,15.9,,,M,,,GNR,1064073,2023-11-13 12:00:00+00:00,1250.0,2.74,,
249026,2023-11-13 13:00:00+00:00,0.0,2023-11-13 12:56,25.0,19.0,,1027.0,330.0,8.05,30.26,77.62,7.0,16.25,,,M,,,GNR,1064077,2023-11-13 13:00:00+00:00,1250.0,2.74,,
249027,2023-11-13 14:00:00+00:00,0.0,2023-11-13 13:56,25.0,19.0,,1026.8,310.0,10.35,30.25,77.62,9.0,14.81,,,M,,,GNR,1064081,2023-11-13 14:00:00+00:00,1240.0,2.73,,
249028,2023-11-13 15:00:00+00:00,0.0,2023-11-13 14:56,26.0,19.0,,1025.9,30.0,4.6,30.23,74.46,4.0,20.41,,,M,,,GNR,1064085,2023-11-13 15:00:00+00:00,5460.0,5.02,,
249029,2023-11-13 16:00:00+00:00,0.0,2023-11-13 15:56,27.0,19.0,,1024.9,340.0,3.45,30.2,71.45,3.0,22.97,,,M,,,GNR,1064089,2023-11-13 16:00:00+00:00,3850.0,4.28,2023-11-13 16:00:00+00:00,gs://gcp-public-data-sentinel-2/tiles/19/T/DL/S2B_MSIL1C_20231113T154509_N0509_R011_T19TDL_20231113T173856.SAFE
249030,2023-11-13 17:00:00+00:00,0.0,2023-11-13 16:56,29.0,20.0,,1023.8,0.0,0.0,30.17,68.69,0.0,29.0,,,M,,,GNR,1064093,2023-11-13 17:00:00+00:00,1980.0,3.26,,
249031,2023-11-13 18:00:00+00:00,0.0,2023-11-13 17:56,31.0,20.0,,1022.9,0.0,0.0,30.15,63.32,0.0,31.0,,,M,,,GNR,1064097,2023-11-13 18:00:00+00:00,1380.0,2.84,,
249032,2023-11-13 19:00:00+00:00,0.0,2023-11-13 18:56,33.0,20.0,,1022.2,0.0,0.0,30.13,58.41,0.0,33.0,,,M,,,GNR,1064101,2023-11-13 19:00:00+00:00,1270.0,2.75,,
249033,2023-11-13 20:00:00+00:00,0.0,2023-11-13 19:56,34.0,20.0,,1021.8,0.0,0.0,30.12,56.12,0.0,34.0,,,M,,,GNR,1064105,2023-11-13 20:00:00+00:00,1230.0,2.72,,
249034,2023-11-13 21:00:00+00:00,0.0,2023-11-13 20:56,30.0,18.0,,1021.7,120.0,4.6,30.11,60.53,4.0,25.08,,,M,,,GNR,1064109,2023-11-13 21:00:00+00:00,1220.0,2.71,,
249035,2023-11-13 22:00:00+00:00,0.0,2023-11-13 21:56,28.0,18.0,,1021.3,130.0,4.6,30.1,65.69,4.0,22.75,,,M,,,GNR,1064113,2023-11-13 22:00:00+00:00,5530.0,5.05,,
249036,2023-11-13 23:00:00+00:00,0.0,2023-11-13 22:56,27.0,18.0,,1021.4,140.0,4.6,30.1,68.45,4.0,21.58,,,M,,,GNR,1064117,2023-11-13 23:00:00+00:00,5600.0,5.08,,
249037,2023-11-14 00:00:00+00:00,0.0,2023-11-13 23:56,25.0,18.0,,1021.2,120.0,5.75,30.09,74.36,5.0,18.08,,,M,,,GNR,1064121,2023-11-14 00:00:00+00:00,5620.0,5.09,,
249038,2023-11-14 01:00:00+00:00,0.0,2023-11-14 00:56,25.0,18.0,,1021.0,130.0,5.75,30.08,74.36,5.0,18.08,,,M,,,GNR,1064125,2023-11-14 01:00:00+00:00,5620.0,5.09,,
249039,2023-11-14 02:00:00+00:00,0.0,2023-11-14 01:56,24.0,18.0,,1020.8,130.0,6.9,30.08,77.53,6.0,15.9,,,M,,,GNR,1064129,2023-11-14 02:00:00+00:00,5620.0,5.09,,
249040,2023-11-14 03:00:00+00:00,0.0,2023-11-14 02:56,23.0,18.0,,1020.4,120.0,6.9,30.07,80.85,6.0,14.69,,,M,,,GNR,1064133,2023-11-14 03:00:00+00:00,5620.0,5.09,,
249041,2023-11-14 04:00:00+00:00,0.0,2023-11-14 03:56,22.0,18.0,,1020.3,120.0,5.75,30.06,84.33,5.0,14.52,,,M,,,GNR,1064137,2023-11-14 04:00:00+00:00,5620.0,5.09,,
249042,2023-11-14 05:00:00+00:00,0.0,2023-11-14 04:56,22.0,18.0,,1019.8,110.0,4.6,30.05,84.33,4.0,15.74,,,M,,,GNR,1064141,2023-11-14 05:00:00+00:00,5650.0,5.1,,
249043,2023-11-14 06:00:00+00:00,0.0,2023-11-14 05:56,21.0,17.0,,1019.6,120.0,4.6,30.05,84.26,4.0,14.57,,,M,,,GNR,1064145,2023-11-14 06:00:00+00:00,4000.0,4.35,,
249044,2023-11-14 07:00:00+00:00,0.0,2023-11-14 06:56,22.0,18.0,,1019.6,0.0,0.0,30.05,84.33,0.0,22.0,,,M,,,GNR,1064149,2023-11-14 07:00:00+00:00,1960.0,3.25,,
249045,2023-11-14 08:00:00+00:00,0.0,2023-11-14 07:56,22.0,18.0,,1019.5,0.0,0.0,30.04,84.33,0.0,22.0,,,M,,,GNR,1064153,2023-11-14 08:00:00+00:00,1340.0,2.81,,
249046,2023-11-14 09:00:00+00:00,0.0,2023-11-14 08:56,21.0,17.0,,1019.8,0.0,0.0,30.05,84.26,0.0,21.0,,,M,,,GNR,1064157,2023-11-14 09:00:00+00:00,1190.0,2.69,,
249047,2023-11-14 10:00:00+00:00,0.0,2023-11-14 09:56,21.0,17.0,,1020.2,0.0,0.0,30.06,84.26,0.0,21.0,,,M,,,GNR,1064161,2023-11-14 10:00:00+00:00,1180.0,2.68,,
249048,2023-11-14 11:00:00+00:00,0.0,2023-11-14 10:56,22.0,20.0,,1020.3,0.0,0.0,30.06,91.87,0.0,22.0,,,M,,,GNR,1064165,2023-11-14 11:00:00+00:00,1170.0,2.67,,
249049,2023-11-14 12:00:00+00:00,0.0,2023-11-14 11:56,23.0,21.0,,1021.2,0.0,0.0,30.09,91.9,0.0,23.0,,,M,,,GNR,1064169,2023-11-14 12:00:00+00:00,1170.0,2.67,,
249050,2023-11-14 13:00:00+00:00,0.0,2023-11-14 12:56,26.0,23.0,,1021.7,340.0,9.2,30.11,88.23,8.0,16.72,,,M,,,GNR,1064173,2023-11-14 13:00:00+00:00,1170.0,2.67,,
249051,2023-11-14 14:00:00+00:00,0.0,2023-11-14 13:56,28.0,25.0,,1022.0,330.0,8.05,30.12,88.33,7.0,19.9,,,M,,,GNR,1064177,2023-11-14 14:00:00+00:00,1160.0,2.66,,
249052,2023-11-14 15:00:00+00:00,0.0,2023-11-14 14:56,30.0,25.0,,1022.4,320.0,9.2,30.13,81.4,8.0,21.65,,,M,,,GNR,1064181,2023-11-14 15:00:00+00:00,5480.0,5.03,,
249053,2023-11-14 16:00:00+00:00,0.0,2023-11-14 15:56,33.0,23.0,,1022.3,330.0,11.5,30.13,66.32,10.0,24.22,,,M,,,GNR,1064185,2023-11-14 16:00:00+00:00,4000.0,4.35,,
249054,2023-11-14 17:00:00+00:00,0.0,2023-11-14 16:56,34.0,22.0,,1022.4,320.0,10.35,30.13,61.09,9.0,26.0,,,M,,,GNR,1064189,2023-11-14 17:00:00+00:00,1950.0,3.24,,
249055,2023-11-14 18:00:00+00:00,0.0,2023-11-14 17:56,36.0,20.0,,1022.1,330.0,11.5,30.12,51.83,10.0,27.98,,,M,,,GNR,1064193,2023-11-14 18:00:00+00:00,1320.0,2.79,,
249056,2023-11-14 19:00:00+00:00,0.0,2023-11-14 18:56,37.0,20.0,,1022.2,330.0,9.2,30.13,49.82,8.0,30.27,,,M,,,GNR,1064197,2023-11-14 19:00:00+00:00,1150.0,2.65,,
249057,2023-11-14 20:00:00+00:00,0.0,2023-11-14 19:56,37.0,20.0,,1022.5,350.0,8.05,30.14,49.82,7.0,30.87,,,M,,,GNR,1064201,2023-11-14 20:00:00+00:00,1120.0,2.63,,
249058,2023-11-14 21:00:00+00:00,0.0,2023-11-14 20:56,34.0,20.0,,1023.2,310.0,10.35,30.15,56.12,9.0,26.0,,16.0,M,,,GNR,1064205,2023-11-14 21:00:00+00:00,1110.0,2.62,,
249059,2023-11-14 22:00:00+00:00,0.0,2023-11-14 21:56,32.0,24.0,,1024.3,,5.75,30.18,72.0,5.0,26.4,,17.0,M,,,GNR,1064209,2023-11-14 22:00:00+00:00,1110.0,2.62,,
249060,2023-11-14 23:00:00+00:00,0.0,2023-11-14 22:56,32.0,25.0,,1024.8,,5.75,30.2,75.07,5.0,26.4,,16.0,M,,,GNR,1064213,2023-11-14 23:00:00+00:00,1100.0,2.61,,
249061,2023-11-15 00:00:00+00:00,0.0,2023-11-14 23:56,32.0,25.0,,1025.0,320.0,11.5,30.21,75.07,10.0,22.97,,21.0,M,,,GNR,1064217,2023-11-15 00:00:00+00:00,5460.0,5.02,,
249062,2023-11-15 01:00:00+00:00,0.0,2023-11-15 00:56,31.0,25.0,,1025.5,330.0,5.75,30.22,78.16,5.0,25.21,,,M,,,GNR,1064221,2023-11-15 01:00:00+00:00,5510.0,5.04,,
249063,2023-11-15 02:00:00+00:00,0.0,2023-11-15 01:56,31.0,25.0,,1026.0,320.0,9.2,30.24,78.16,8.0,22.88,,18.0,M,,,GNR,1064225,2023-11-15 02:00:00+00:00,5530.0,5.05,,
249064,2023-11-15 03:00:00+00:00,0.0,2023-11-15 02:56,32.0,26.0,,1026.0,320.0,8.05,30.24,78.25,7.0,24.78,,,M,,,GNR,1064229,2023-11-15 03:00:00+00:00,5550.0,5.06,,
249065,2023-11-15 04:00:00+00:00,0.0,2023-11-15 03:56,31.0,26.0,,1026.2,310.0,11.5,30.25,81.48,10.0,21.71,,18.0,M,,,GNR,1064233,2023-11-15 04:00:00+00:00,5530.0,5.05,,
249066,2023-11-15 05:00:00+00:00,0.0,2023-11-15 04:56,31.0,25.0,,1026.3,320.0,9.2,30.25,78.16,8.0,22.88,,,M,,,GNR,1064237,2023-11-15 05:00:00+00:00,4210.0,4.45,,
249067,2023-11-15 06:00:00+00:00,0.0,2023-11-15 05:56,31.0,26.0,,1026.3,320.0,10.35,30.25,81.48,9.0,22.27,,18.0,M,,,GNR,1064241,2023-11-15 06:00:00+00:00,1990.0,3.27,,
249068,2023-11-15 07:00:00+00:00,0.0,2023-11-15 06:56,31.0,26.0,,1026.6,320.0,12.65,30.27,81.48,11.0,21.2,,18.0,M,,,GNR,1064245,2023-11-15 07:00:00+00:00,1320.0,2.79,,
249069,2023-11-15 08:00:00+00:00,0.0,2023-11-15 07:56,32.0,26.0,,1026.7,320.0,10.35,30.27,78.25,9.0,23.51,,17.0,M,,,GNR,1064249,2023-11-15 08:00:00+00:00,1150.0,2.65,,
249070,2023-11-15 09:00:00+00:00,0.0,2023-11-15 08:56,32.0,26.0,,1026.9,320.0,9.2,30.27,78.25,8.0,24.11,,,M,,,GNR,1064253,2023-11-15 09:00:00+00:00,1120.0,2.63,,
249071,2023-11-15 10:00:00+00:00,0.0,2023-11-15 09:56,32.0,27.0,,1027.1,320.0,5.75,30.28,81.55,5.0,26.4,,,M,,,GNR,1064257,2023-11-15 10:00:00+00:00,1120.0,2.63,,
249072,2023-11-15 11:00:00+00:00,0.0,2023-11-15 10:56,33.0,26.0,,1027.2,320.0,9.2,30.28,75.17,8.0,25.34,,,M,,,GNR,1064261,2023-11-15 11:00:00+00:00,1110.0,2.62,,
249073,2023-11-15 12:00:00+00:00,0.0,2023-11-15 11:56,33.0,26.0,,1027.6,320.0,6.9,30.29,75.17,6.0,26.73,,,M,,,GNR,1064265,2023-11-15 12:00:00+00:00,1110.0,2.62,,
249074,2023-11-15 13:00:00+00:00,0.0,2023-11-15 12:56,34.0,27.0,,1027.4,,4.6,30.29,75.26,4.0,29.76,,,M,,,GNR,1064269,2023-11-15 13:00:00+00:00,1110.0,2.62,,
249075,2023-11-15 14:00:00+00:00,0.0,2023-11-15 13:56,35.0,27.0,,1027.0,0.0,0.0,30.27,72.32,0.0,35.0,,,M,,,GNR,1064273,2023-11-15 14:00:00+00:00,1100.0,2.61,,
249076,2023-11-15 15:00:00+00:00,0.0,2023-11-15 14:56,37.0,27.0,,1026.4,,3.45,30.26,66.82,3.0,34.4,,,M,,,GNR,1064277,2023-11-15 15:00:00+00:00,5460.0,5.02,,
249077,2023-11-15 16:00:00+00:00,0.0,2023-11-15 15:56,38.0,26.0,,1026.0,190.0,6.9,30.25,61.64,6.0,32.76,,,M,,,GNR,1064281,2023-11-15 16:00:00+00:00,4040.0,4.37,2023-11-15 16:00:00+00:00,gs://gcp-public-data-sentinel-2/tiles/19/T/DL/S2A_MSIL1C_20231115T153551_N0509_R111_T19TDL_20231115T190917.SAFE
249078,2023-11-15 17:00:00+00:00,0.0,2023-11-15 16:56,39.0,26.0,,1024.6,190.0,9.2,30.21,59.27,8.0,32.74,,,M,,,GNR,1064285,2023-11-15 17:00:00+00:00,1920.0,3.22,,
249079,2023-11-15 18:00:00+00:00,0.0,2023-11-15 17:56,41.0,27.0,,1023.6,180.0,8.05,30.18,57.15,7.0,35.75,,16.0,M,,,GNR,1064289,2023-11-15 18:00:00+00:00,1270.0,2.75,,
249080,2023-11-15 19:00:00+00:00,0.0,2023-11-15 18:56,40.0,27.0,,1022.3,,6.9,30.14,59.41,6.0,35.17,,,M,,,GNR,1064293,2023-11-15 19:00:00+00:00,1090.0,2.6,,
249081,2023-11-15 20:00:00+00:00,0.0,2023-11-15 19:56,39.0,27.0,,1021.8,180.0,8.05,30.13,61.78,7.0,33.31,,,M,,,GNR,1064297,2023-11-15 20:00:00+00:00,1060.0,2.58,,
249082,2023-11-15 21:00:00+00:00,0.0,2023-11-15 20:56,36.0,27.0,,1021.4,170.0,5.75,30.11,69.51,5.0,31.15,,,M,,,GNR,1064301,2023-11-15 21:00:00+00:00,1050.0,2.57,,
249083,2023-11-15 22:00:00+00:00,0.0,2023-11-15 21:56,34.0,27.0,,1020.9,140.0,9.2,30.1,75.26,8.0,26.58,,,M,,,GNR,1064305,2023-11-15 22:00:00+00:00,1050.0,2.57,,
249084,2023-11-15 23:00:00+00:00,0.0,2023-11-15 22:56,34.0,27.0,,1020.5,150.0,6.9,30.09,75.26,6.0,27.94,,,M,,,GNR,1064309,2023-11-15 23:00:00+00:00,1050.0,2.57,,
249085,2023-11-16 00:00:00+00:00,0.25,2023-11-15 23:56,33.0,27.0,,1019.6,140.0,10.35,30.06,78.34,9.0,24.76,,,M,,,GNR,1064313,2023-11-16 00:00:00+00:00,1040.0,2.56,,
249086,2023-11-16 01:00:00+00:00,0.0,2023-11-16 00:56,32.0,27.0,,1019.2,140.0,8.05,30.05,81.55,7.0,24.78,,,M,,,GNR,1064317,2023-11-16 01:00:00+00:00,5300.0,4.95,,
249087,2023-11-16 02:00:00+00:00,0.0,2023-11-16 01:56,31.0,28.0,,1019.0,130.0,4.6,30.04,88.48,4.0,26.25,,,M,,,GNR,1064321,2023-11-16 02:00:00+00:00,5460.0,5.02,,
249088,2023-11-16 03:00:00+00:00,0.0,2023-11-16 02:56,31.0,29.0,,1018.8,100.0,4.6,30.03,92.19,4.0,26.25,,,M,,,GNR,1064325,2023-11-16 03:00:00+00:00,5460.0,5.02,,
249089,2023-11-16 04:00:00+00:00,0.0,2023-11-16 03:56,32.0,28.0,,1018.4,0.0,0.0,30.02,84.98,0.0,32.0,,,M,,,GNR,1064329,2023-11-16 04:00:00+00:00,4100.0,4.4,,
249090,2023-11-16 05:00:00+00:00,0.0,2023-11-16 04:56,30.0,27.0,,1017.9,0.0,0.0,30.01,88.44,0.0,30.0,,,M,,,GNR,1064333,2023-11-16 05:00:00+00:00,1930.0,3.23,,
249091,2023-11-16 06:00:00+00:00,0.0,2023-11-16 05:56,32.0,26.0,,1017.4,0.0,0.0,30.0,78.25,0.0,32.0,,,M,,,GNR,1064337,2023-11-16 06:00:00+00:00,1270.0,2.75,,
249092,2023-11-16 07:00:00+00:00,0.0,2023-11-16 06:56,30.0,24.0,,1017.6,0.0,0.0,30.0,78.07,0.0,30.0,,,M,,,GNR,1064341,2023-11-16 07:00:00+00:00,1100.0,2.61,,
249093,2023-11-16 08:00:00+00:00,0.0,2023-11-16 07:56,39.0,27.0,,1017.4,290.0,5.75,30.0,61.78,5.0,34.71,,,M,,,GNR,1064345,2023-11-16 08:00:00+00:00,1080.0,2.59,,
249094,2023-11-16 09:00:00+00:00,0.0,2023-11-16 08:56,38.0,26.0,,1017.6,,3.45,30.01,61.64,3.0,35.55,,,M,,,GNR,1064349,2023-11-16 09:00:00+00:00,1060.0,2.58,,
249095,2023-11-16 10:00:00+00:00,0.0,2023-11-16 09:56,40.0,28.0,,1018.0,300.0,5.75,30.02,61.91,5.0,35.9,,,M,,,GNR,1064353,2023-11-16 10:00:00+00:00,1060.0,2.58,,
249096,2023-11-16 11:00:00+00:00,0.0,2023-11-16 10:56,38.0,29.0,,1018.7,300.0,6.9,30.04,69.74,6.0,32.76,,,M,,,GNR,1064357,2023-11-16 11:00:00+00:00,1060.0,2.58,,
249097,2023-11-16 12:00:00+00:00,0.0,2023-11-16 11:56,38.0,30.0,,1019.2,310.0,6.9,30.05,72.64,6.0,32.76,,,M,,,GNR,1064361,2023-11-16 12:00:00+00:00,1050.0,2.57,,
249098,2023-11-16 13:00:00+00:00,0.0,2023-11-16 12:56,40.0,31.0,,1020.2,,4.6,30.08,69.97,4.0,36.76,,,M,,,GNR,1064365,2023-11-16 13:00:00+00:00,1050.0,2.57,,
249099,2023-11-16 14:00:00+00:00,0.0,2023-11-16 13:56,42.0,32.0,,1020.4,310.0,9.2,30.09,67.42,8.0,36.43,,19.0,M,,,GNR,1064369,2023-11-16 14:00:00+00:00,1050.0,2.57,,
249100,2023-11-16 15:00:00+00:00,0.0,2023-11-16 14:56,44.0,32.0,,1020.5,310.0,11.5,30.09,62.44,10.0,38.02,,19.0,M,,,GNR,1064373,2023-11-16 15:00:00+00:00,1040.0,2.56,,
249101,2023-11-16 16:00:00+00:00,0.0,2023-11-16 15:56,46.0,32.0,,1020.6,330.0,11.5,30.1,57.87,10.0,40.52,,14.0,M,,,GNR,1064377,2023-11-16 16:00:00+00:00,1040.0,2.56,,
249102,2023-11-16 17:00:00+00:00,0.0,2023-11-16 16:56,49.0,27.0,,1019.9,300.0,10.35,30.08,42.16,9.0,44.65,,18.0,M,,,GNR,1064381,2023-11-16 17:00:00+00:00,1030.0,2.55,,
249103,2023-11-16 18:00:00+00:00,0.0,2023-11-16 17:56,49.0,26.0,,1019.8,,6.9,30.08,40.45,6.0,46.0,,16.0,M,,,GNR,1064385,2023-11-16 18:00:00+00:00,1040.0,2.56,,
249104,2023-11-16 19:00:00+00:00,0.0,2023-11-16 18:56,49.0,25.0,,1020.1,300.0,8.05,30.09,38.81,7.0,45.5,,,M,,,GNR,1064389,2023-11-16 19:00:00+00:00,1050.0,2.57,,
249105,2023-11-16 20:00:00+00:00,0.0,2023-11-16 19:56,48.0,23.0,,1019.9,,5.75,30.09,37.06,5.0,45.4,,,M,,,GNR,1064393,2023-11-16 20:00:00+00:00,1040.0,2.56,,
249106,2023-11-16 21:00:00+00:00,0.0,2023-11-16 20:56,45.0,23.0,,1020.3,0.0,0.0,30.09,41.5,0.0,45.0,,,M,,,GNR,1064397,2023-11-16 21:00:00+00:00,1090.0,2.6,,
249107,2023-11-16 22:00:00+00:00,0.0,2023-11-16 21:56,39.0,23.0,,1020.6,0.0,0.0,30.1,52.3,0.0,39.0,,,M,,,GNR,1064401,2023-11-16 22:00:00+00:00,1190.0,2.69,,
249108,2023-11-16 23:00:00+00:00,0.0,2023-11-16 22:56,36.0,23.0,,1021.3,0.0,0.0,30.12,58.85,0.0,36.0,,,M,,,GNR,1064405,2023-11-16 23:00:00+00:00,5390.0,4.99,,
249109,2023-11-17 00:00:00+00:00,0.0,2023-11-16 23:56,40.0,22.0,,1021.3,0.0,0.0,30.12,48.22,0.0,40.0,,,M,,,GNR,1064409,2023-11-17 00:00:00+00:00,5420.0,5.0,,
249110,2023-11-17 01:00:00+00:00,0.0,2023-11-17 00:56,38.0,22.0,,1021.7,0.0,0.0,30.13,52.14,0.0,38.0,,,M,,,GNR,1064413,2023-11-17 01:00:00+00:00,5440.0,5.01,,
249111,2023-11-17 02:00:00+00:00,0.0,2023-11-17 01:56,35.0,23.0,,1021.4,0.0,0.0,30.12,61.23,0.0,35.0,,,M,,,GNR,1064417,2023-11-17 02:00:00+00:00,5440.0,5.01,,
249112,2023-11-17 03:00:00+00:00,0.0,2023-11-17 02:56,33.0,23.0,,1020.8,100.0,3.45,30.1,66.32,3.0,29.83,,,M,,,GNR,1064421,2023-11-17 03:00:00+00:00,5440.0,5.01,,
249113,2023-11-17 04:00:00+00:00,0.0,2023-11-17 03:56,36.0,23.0,,1020.5,130.0,5.75,30.1,58.85,5.0,31.15,,,M,,,GNR,1064425,2023-11-17 04:00:00+00:00,5440.0,5.01,,
249114,2023-11-17 05:00:00+00:00,0.0,2023-11-17 04:56,37.0,23.0,,1020.5,130.0,4.6,30.1,56.57,4.0,33.26,,,M,,,GNR,1064429,2023-11-17 05:00:00+00:00,3890.0,4.3,,
249115,2023-11-17 06:00:00+00:00,0.0,2023-11-17 05:56,36.0,22.0,,1019.9,130.0,6.9,30.08,56.42,6.0,30.35,,,M,,,GNR,1064433,2023-11-17 06:00:00+00:00,1870.0,3.19,,
249116,2023-11-17 07:00:00+00:00,0.0,2023-11-17 06:56,37.0,23.0,,1018.8,130.0,8.05,30.05,56.57,7.0,30.87,,,M,,,GNR,1064437,2023-11-17 07:00:00+00:00,1220.0,2.71,,
249117,2023-11-17 08:00:00+00:00,0.0,2023-11-17 07:56,36.0,23.0,,1018.4,140.0,9.2,30.04,58.85,8.0,29.04,,,M,,,GNR,1064441,2023-11-17 08:00:00+00:00,1050.0,2.57,,
249118,2023-11-17 09:00:00+00:00,0.0,2023-11-17 08:56,38.0,26.0,,1017.6,140.0,9.2,30.01,61.64,8.0,31.5,,15.0,M,,,GNR,1064445,2023-11-17 09:00:00+00:00,1030.0,2.55,,
249119,2023-11-17 10:00:00+00:00,0.0,2023-11-17 09:56,34.0,26.0,,1017.6,140.0,8.05,30.01,72.22,7.0,27.22,,,M,,,GNR,1064449,2023-11-17 10:00:00+00:00,1020.0,2.54,,
249120,2023-11-17 11:00:00+00:00,0.0,2023-11-17 10:56,33.0,28.0,,1017.5,130.0,9.2,30.0,81.63,8.0,25.34,,,M,,,GNR,1064453,2023-11-17 11:00:00+00:00,1020.0,2.54,,
249121,2023-11-17 12:00:00+00:00,0.0,2023-11-17 11:56,34.0,30.0,,1017.0,140.0,9.2,29.99,85.11,8.0,26.58,,,M,,,GNR,1064457,2023-11-17 12:00:00+00:00,1010.0,2.53,,
249122,2023-11-17 13:00:00+00:00,0.0,2023-11-17 12:56,35.0,34.0,,1016.4,150.0,9.2,29.97,96.09,8.0,27.81,,,M,,,GNR,1064461,2023-11-17 13:00:00+00:00,1020.0,2.54,,
249123,2023-11-17 14:00:00+00:00,0.0,2023-11-17 13:56,38.0,37.0,,1015.5,150.0,9.2,29.95,96.14,8.0,31.5,,14.0,M,,,GNR,1064465,2023-11-17 14:00:00+00:00,1010.0,2.53,,
249124,2023-11-17 15:00:00+00:00,0.0,2023-11-17 14:56,38.0,38.0,,1014.6,160.0,8.05,29.92,100.0,7.0,32.09,,,M,,,GNR,1064469,2023-11-17 15:00:00+00:00,1010.0,2.53,,
249125,2023-11-17 16:00:00+00:00,0.0,2023-11-17 15:56,39.0,38.0,,1013.8,140.0,9.2,29.89,96.16,8.0,32.74,,,M,,,GNR,1064473,2023-11-17 16:00:00+00:00,1010.0,2.53,,
249126,2023-11-17 17:00:00+00:00,0.0,2023-11-17 16:56,40.0,39.0,,1012.1,150.0,10.35,29.85,96.18,9.0,33.46,,20.0,M,,,GNR,1064477,2023-11-17 17:00:00+00:00,1010.0,2.53,,
249127,2023-11-17 18:00:00+00:00,0.0,2023-11-17 17:56,41.0,40.0,,1010.7,140.0,13.8,29.81,96.19,12.0,33.46,,18.0,M,,,GNR,1064481,2023-11-17 18:00:00+00:00,1010.0,2.53,,
249128,2023-11-17 19:00:00+00:00,0.0,2023-11-17 18:56,42.0,41.0,,1009.7,140.0,13.8,29.78,96.21,12.0,34.73,,18.0,M,,,GNR,1064485,2023-11-17 19:00:00+00:00,1010.0,2.53,,
249129,2023-11-17 20:00:00+00:00,0.0,2023-11-17 19:56,43.0,42.0,,1008.9,150.0,9.2,29.76,96.23,8.0,37.66,,,M,,,GNR,1064489,2023-11-17 20:00:00+00:00,1010.0,2.53,,
249130,2023-11-17 21:00:00+00:00,0.0,2023-11-17 20:56,44.0,42.0,,1008.5,160.0,6.9,29.75,92.61,6.0,39.98,,,M,,,GNR,1064493,2023-11-17 21:00:00+00:00,999.0,2.52,,
249131,2023-11-17 22:00:00+00:00,0.0,2023-11-17 21:56,44.0,42.0,,1008.6,160.0,8.05,29.75,92.61,7.0,39.41,,,M,,,GNR,1064497,2023-11-17 22:00:00+00:00,999.0,2.52,,
249132,2023-11-17 23:00:00+00:00,0.0,2023-11-17 22:56,45.0,43.0,,1008.0,160.0,9.2,29.73,92.65,8.0,40.13,,,M,,,GNR,1064501,2023-11-17 23:00:00+00:00,1010.0,2.53,,
249133,2023-11-18 00:00:00+00:00,0.0,2023-11-17 23:56,45.0,44.0,,1007.5,160.0,5.75,29.72,96.26,5.0,41.83,,,M,,,GNR,1064505,2023-11-18 00:00:00+00:00,9160.0,6.52,,
249134,2023-11-18 01:00:00+00:00,0.0,2023-11-18 00:56,47.0,45.0,,1007.2,,3.45,29.71,92.71,3.0,45.84,,,M,,,GNR,1064509,2023-11-18 01:00:00+00:00,9290.0,6.57,,
249135,2023-11-18 02:00:00+00:00,0.0,2023-11-18 01:56,46.0,45.0,,1006.9,,4.6,29.7,96.28,4.0,43.77,,,M,,,GNR,1064513,2023-11-18 02:00:00+00:00,9240.0,6.55,,
249136,2023-11-18 03:00:00+00:00,1.02,2023-11-18 02:56,47.0,45.0,,1006.7,,3.45,29.7,92.71,3.0,45.84,,,M,,,GNR,1064517,2023-11-18 03:00:00+00:00,4470.0,4.57,,
249137,2023-11-18 04:00:00+00:00,1.27,2023-11-18 03:56,47.0,45.0,,1006.3,180.0,4.6,29.69,92.71,4.0,44.94,,,M,,,GNR,1064521,2023-11-18 04:00:00+00:00,1890.0,3.2,,
249138,2023-11-18 05:00:00+00:00,1.02,2023-11-18 04:56,46.0,45.0,,1005.9,140.0,5.75,29.67,96.28,5.0,43.02,,,M,,,GNR,1064525,2023-11-18 05:00:00+00:00,1200.0,2.7,,
249139,2023-11-18 06:00:00+00:00,0.76,2023-11-18 05:56,46.0,46.0,,1005.5,130.0,4.6,29.66,100.0,4.0,43.77,,,M,,,GNR,1064529,2023-11-18 06:00:00+00:00,1050.0,2.57,,
249140,2023-11-18 07:00:00+00:00,0.51,2023-11-18 06:56,47.0,45.0,,1005.1,150.0,3.45,29.66,92.71,3.0,45.84,,,M,,,GNR,1064533,2023-11-18 07:00:00+00:00,1030.0,2.55,,
249141,2023-11-18 08:00:00+00:00,0.76,2023-11-18 07:56,46.0,44.0,,1005.7,330.0,11.5,29.67,92.68,10.0,40.52,,17.0,M,,,GNR,1064537,2023-11-18 08:00:00+00:00,1020.0,2.54,,
249142,2023-11-18 09:00:00+00:00,1.52,2023-11-18 08:56,42.0,41.0,,1006.3,360.0,9.2,29.69,96.21,8.0,36.43,,,M,,,GNR,1064541,2023-11-18 09:00:00+00:00,1020.0,2.54,,
249143,2023-11-18 10:00:00+00:00,1.27,2023-11-18 09:56,41.0,39.0,,1006.5,350.0,10.35,29.69,92.52,9.0,34.7,,,M,,,GNR,1064545,2023-11-18 10:00:00+00:00,1020.0,2.54,,
249144,2023-11-18 11:00:00+00:00,2.03,2023-11-18 10:56,41.0,39.0,,1006.6,350.0,12.65,29.69,92.52,11.0,33.84,,,M,,,GNR,1064549,2023-11-18 11:00:00+00:00,1020.0,2.54,,
249145,2023-11-18 12:00:00+00:00,1.02,2023-11-18 11:56,40.0,38.0,,1006.6,350.0,9.2,29.69,92.49,8.0,33.97,,,M,,,GNR,1064553,2023-11-18 12:00:00+00:00,1020.0,2.54,,
249146,2023-11-18 13:00:00+00:00,0.51,2023-11-18 12:56,39.0,37.0,,1006.9,350.0,11.5,29.7,92.45,10.0,31.75,,,M,,,GNR,1064557,2023-11-18 13:00:00+00:00,1020.0,2.54,,
249147,2023-11-18 14:00:00+00:00,0.51,2023-11-18 13:56,38.0,36.0,,1006.5,330.0,11.5,29.69,92.42,10.0,30.49,,20.0,M,,,GNR,1064561,2023-11-18 14:00:00+00:00,1010.0,2.53,,
249148,2023-11-18 15:00:00+00:00,0.51,2023-11-18 14:56,36.0,34.0,,1006.5,350.0,13.8,29.69,92.35,12.0,27.09,,,M,,,GNR,1064565,2023-11-18 15:00:00+00:00,1010.0,2.53,,
249149,2023-11-18 16:00:00+00:00,0.0,2023-11-18 15:56,35.0,33.0,,1006.4,350.0,10.35,29.68,92.32,9.0,27.24,,,M,,,GNR,1064569,2023-11-18 16:00:00+00:00,1010.0,2.53,2023-11-18 16:00:00+00:00,gs://gcp-public-data-sentinel-2/tiles/19/T/DL/S2A_MSIL1C_20231118T154531_N0509_R011_T19TDL_20231118T191840.SAFE
249150,2023-11-18 17:00:00+00:00,0.0,2023-11-18 16:56,35.0,33.0,,1005.8,330.0,10.35,29.67,92.32,9.0,27.24,,15.0,M,,,GNR,1064573,2023-11-18 17:00:00+00:00,1010.0,2.53,,
249151,2023-11-18 18:00:00+00:00,0.0,2023-11-18 17:56,35.0,31.0,,1005.1,340.0,9.2,29.65,85.17,8.0,27.81,,21.0,M,,,GNR,1064577,2023-11-18 18:00:00+00:00,1010.0,2.53,,
249152,2023-11-18 19:00:00+00:00,0.25,2023-11-18 18:56,33.0,31.0,,1005.0,320.0,14.95,29.64,92.25,13.0,22.85,,21.0,M,,,GNR,1064581,2023-11-18 19:00:00+00:00,999.0,2.52,,
249153,2023-11-18 20:00:00+00:00,0.25,2023-11-18 19:56,34.0,30.0,,1004.9,320.0,13.8,29.64,85.11,12.0,24.55,,22.0,M,26.0,,GNR,1064585,2023-11-18 20:00:00+00:00,999.0,2.52,,
249154,2023-11-18 21:00:00+00:00,0.0,2023-11-18 20:56,34.0,29.0,,1005.0,330.0,14.95,29.64,81.71,13.0,24.13,,22.0,M,,,GNR,1064589,2023-11-18 21:00:00+00:00,999.0,2.52,,
249155,2023-11-18 22:00:00+00:00,0.0,2023-11-18 21:56,34.0,28.0,,1004.5,330.0,12.65,29.63,78.43,11.0,24.99,,23.0,M,26.0,,GNR,1064593,2023-11-18 22:00:00+00:00,987.0,2.51,,
249156,2023-11-18 23:00:00+00:00,0.0,2023-11-18 22:56,34.0,27.0,,1004.2,330.0,18.4,29.61,75.26,16.0,23.03,,28.0,M,28.0,,GNR,1064597,2023-11-18 23:00:00+00:00,1060.0,2.58,,
249157,2023-11-19 00:00:00+00:00,0.0,2023-11-18 23:56,32.0,25.0,,1004.1,320.0,17.25,29.61,75.07,15.0,20.78,,26.0,M,28.0,,GNR,1064601,2023-11-19 00:00:00+00:00,9140.0,6.51,,
249158,2023-11-19 01:00:00+00:00,0.0,2023-11-19 00:56,31.0,23.0,,1003.7,310.0,17.25,29.6,71.89,15.0,19.48,,26.0,M,28.0,,GNR,1064605,2023-11-19 01:00:00+00:00,9210.0,6.54,,
249159,2023-11-19 02:00:00+00:00,0.0,2023-11-19 01:56,30.0,21.0,,1003.7,330.0,20.7,29.59,68.81,18.0,17.12,,31.0,M,34.0,,GNR,1064609,2023-11-19 02:00:00+00:00,9210.0,6.54,,
249160,2023-11-19 03:00:00+00:00,0.0,2023-11-19 02:56,29.0,21.0,,1003.4,330.0,18.4,29.58,71.67,16.0,16.51,,28.0,M,34.0,,GNR,1064613,2023-11-19 03:00:00+00:00,4170.0,4.43,,
249161,2023-11-19 04:00:00+00:00,0.0,2023-11-19 03:56,29.0,22.0,,1003.4,320.0,12.65,29.58,74.77,11.0,18.68,,24.0,M,,,GNR,1064617,2023-11-19 04:00:00+00:00,1800.0,3.14,,
249162,2023-11-19 05:00:00+00:00,0.0,2023-11-19 04:56,29.0,22.0,,1003.8,300.0,9.2,29.6,74.77,8.0,20.42,,21.0,M,,,GNR,1064621,2023-11-19 05:00:00+00:00,1160.0,2.66,,
249163,2023-11-19 06:00:00+00:00,0.0,2023-11-19 05:56,29.0,22.0,,1003.6,310.0,10.35,29.59,74.77,9.0,19.78,,18.0,M,,,GNR,1064625,2023-11-19 06:00:00+00:00,1030.0,2.55,,
249164,2023-11-19 07:00:00+00:00,0.0,2023-11-19 06:56,28.0,21.0,,1004.3,,4.6,29.61,74.67,4.0,22.75,,,M,,,GNR,1064629,2023-11-19 07:00:00+00:00,1010.0,2.53,,
249165,2023-11-19 08:00:00+00:00,0.0,2023-11-19 07:56,27.0,21.0,,1004.6,0.0,0.0,29.62,77.8,0.0,27.0,,,M,,,GNR,1064633,2023-11-19 08:00:00+00:00,999.0,2.52,,
249166,2023-11-19 09:00:00+00:00,0.0,2023-11-19 08:56,28.0,20.0,,1004.5,300.0,4.6,29.61,71.56,4.0,22.75,,,M,,,GNR,1064637,2023-11-19 09:00:00+00:00,999.0,2.52,,
249167,2023-11-19 10:00:00+00:00,0.0,2023-11-19 09:56,26.0,21.0,,1004.7,0.0,0.0,29.62,81.09,0.0,26.0,,,M,,,GNR,1064641,2023-11-19 10:00:00+00:00,999.0,2.52,,
249168,2023-11-19 11:00:00+00:00,0.0,2023-11-19 10:56,27.0,21.0,,1004.8,,3.45,29.62,77.8,3.0,22.97,,,M,,,GNR,1064645,2023-11-19 11:00:00+00:00,987.0,2.51,,
249169,2023-11-19 12:00:00+00:00,0.0,2023-11-19 11:56,27.0,22.0,,1005.0,0.0,0.0,29.63,81.17,0.0,27.0,,,M,,,GNR,1064649,2023-11-19 12:00:00+00:00,987.0,2.51,,
249170,2023-11-19 13:00:00+00:00,0.0,2023-11-19 12:56,31.0,24.0,,1005.1,0.0,0.0,29.63,74.97,0.0,31.0,,,M,,,GNR,1064653,2023-11-19 13:00:00+00:00,987.0,2.51,,
249171,2023-11-19 14:00:00+00:00,0.0,2023-11-19 13:56,31.0,24.0,,1005.0,210.0,4.6,29.63,74.97,4.0,26.25,,,M,,,GNR,1064657,2023-11-19 14:00:00+00:00,987.0,2.51,,
249172,2023-11-19 15:00:00+00:00,0.0,2023-11-19 14:56,34.0,26.0,,1004.9,0.0,0.0,29.63,72.22,0.0,34.0,,,M,,,GNR,1064661,2023-11-19 15:00:00+00:00,987.0,2.51,,
249173,2023-11-19 16:00:00+00:00,0.0,2023-11-19 15:56,37.0,28.0,,1004.6,0.0,0.0,29.62,69.63,0.0,37.0,,,M,,,GNR,1064665,2023-11-19 16:00:00+00:00,976.0,2.5,,
249174,2023-11-19 17:00:00+00:00,0.0,2023-11-19 16:56,38.0,27.0,,1004.1,,,29.61,64.24,,,,,M,,,GNR,1064669,2023-11-19 17:00:00+00:00,976.0,2.5,,
249175,2023-11-19 18:00:00+00:00,0.0,2023-11-19 17:56,37.0,26.0,,1004.1,,,29.6,64.11,,,,,M,,,GNR,1064673,2023-11-19 18:00:00+00:00,976.0,2.5,,
249176,2023-11-19 19:00:00+00:00,0.0,2023-11-19 18:56,36.0,26.0,,1004.6,,,29.62,66.69,,,,,M,,,GNR,1064677,2023-11-19 19:00:00+00:00,976.0,2.5,,
249177,2023-11-19 20:00:00+00:00,0.0,2023-11-19 19:56,35.0,27.0,,1005.2,,3.45,29.63,72.32,3.0,32.12,,,M,,,GNR,1064681,2023-11-19 20:00:00+00:00,976.0,2.5,,
249178,2023-11-19 21:00:00+00:00,0.0,2023-11-19 20:56,33.0,25.0,,1006.1,,6.9,29.66,72.11,6.0,26.73,,,M,,,GNR,1064685,2023-11-19 21:00:00+00:00,964.0,2.49,,
249179,2023-11-19 22:00:00+00:00,0.0,2023-11-19 21:56,33.0,25.0,,1007.1,0.0,0.0,29.69,72.11,0.0,33.0,,,M,,,GNR,1064689,2023-11-19 22:00:00+00:00,964.0,2.49,,
249180,2023-11-19 23:00:00+00:00,0.0,2023-11-19 22:56,33.0,25.0,,1008.0,,4.6,29.71,72.11,4.0,28.59,,,M,,,GNR,1064693,2023-11-19 23:00:00+00:00,964.0,2.49,,
249181,2023-11-20 00:00:00+00:00,0.0,2023-11-19 23:56,32.0,26.0,,1008.8,300.0,10.35,29.74,78.25,9.0,23.51,,18.0,M,,,GNR,1064697,2023-11-20 00:00:00+00:00,2090.0,3.33,,
249182,2023-11-20 01:00:00+00:00,0.0,2023-11-20 00:56,32.0,25.0,,1009.5,310.0,13.8,29.76,75.07,12.0,22.0,,21.0,M,,,GNR,1064701,2023-11-20 01:00:00+00:00,9110.0,6.5,,
249183,2023-11-20 02:00:00+00:00,0.0,2023-11-20 01:56,30.0,25.0,,1010.9,320.0,14.95,29.8,81.4,13.0,19.01,,25.0,M,29.0,,GNR,1064705,2023-11-20 02:00:00+00:00,9190.0,6.53,,
249184,2023-11-20 03:00:00+00:00,0.25,2023-11-20 02:56,30.0,24.0,,1011.7,320.0,17.25,29.83,78.07,15.0,18.19,,26.0,M,26.0,,GNR,1064709,2023-11-20 03:00:00+00:00,9190.0,6.53,,
249185,2023-11-20 04:00:00+00:00,0.0,2023-11-20 03:56,29.0,21.0,,1012.6,310.0,12.65,29.85,71.67,11.0,18.68,,28.0,M,28.0,,GNR,1064713,2023-11-20 04:00:00+00:00,4230.0,4.46,,
249186,2023-11-20 05:00:00+00:00,0.0,2023-11-20 04:56,28.0,19.0,,1013.8,310.0,11.5,29.89,68.57,10.0,17.95,,21.0,M,26.0,,GNR,1064717,2023-11-20 05:00:00+00:00,1800.0,3.14,,
249187,2023-11-20 06:00:00+00:00,0.0,2023-11-20 05:56,28.0,19.0,,1014.4,310.0,12.65,29.91,68.57,11.0,17.41,,21.0,M,,,GNR,1064721,2023-11-20 06:00:00+00:00,1130.0,2.64,,
249188,2023-11-20 07:00:00+00:00,0.0,2023-11-20 06:56,28.0,18.0,,1015.5,320.0,16.1,29.94,65.69,14.0,16.01,,24.0,M,,,GNR,1064725,2023-11-20 07:00:00+00:00,976.0,2.5,,
249189,2023-11-20 08:00:00+00:00,0.0,2023-11-20 07:56,26.0,19.0,,1016.6,310.0,17.25,29.97,74.46,15.0,13.0,,28.0,M,28.0,,GNR,1064729,2023-11-20 08:00:00+00:00,953.0,2.48,,
249190,2023-11-20 09:00:00+00:00,0.0,2023-11-20 08:56,25.0,17.0,,1018.0,310.0,16.1,30.0,71.22,14.0,12.14,,26.0,M,27.0,,GNR,1064733,2023-11-20 09:00:00+00:00,942.0,2.47,,
249191,2023-11-20 10:00:00+00:00,0.0,2023-11-20 09:56,24.0,16.0,,1018.8,330.0,16.1,30.03,71.11,14.0,10.85,,22.0,M,26.0,,GNR,1064737,2023-11-20 10:00:00+00:00,942.0,2.47,,
249192,2023-11-20 11:00:00+00:00,0.0,2023-11-20 10:56,23.0,15.0,,1020.4,330.0,14.95,30.07,70.99,13.0,10.04,,22.0,M,27.0,,GNR,1064741,2023-11-20 11:00:00+00:00,930.0,2.46,,
249193,2023-11-20 12:00:00+00:00,0.0,2023-11-20 11:56,22.0,15.0,,1021.9,310.0,9.2,30.11,74.05,8.0,11.79,,18.0,M,,,GNR,1064745,2023-11-20 12:00:00+00:00,930.0,2.46,,
249194,2023-11-20 13:00:00+00:00,0.0,2023-11-20 12:56,23.0,16.0,,1022.4,320.0,11.5,30.13,74.15,10.0,11.68,,20.0,M,,,GNR,1064749,2023-11-20 13:00:00+00:00,930.0,2.46,,
249195,2023-11-20 14:00:00+00:00,0.0,2023-11-20 13:56,23.0,15.0,,1023.6,300.0,9.2,30.16,70.99,8.0,13.03,,17.0,M,,,GNR,1064753,2023-11-20 14:00:00+00:00,919.0,2.45,,
249196,2023-11-20 15:00:00+00:00,0.0,2023-11-20 14:56,26.0,13.0,,1024.2,320.0,12.65,30.18,57.38,11.0,14.88,,22.0,M,,,GNR,1064757,2023-11-20 15:00:00+00:00,919.0,2.45,,
249197,2023-11-20 16:00:00+00:00,0.0,2023-11-20 15:56,28.0,14.0,,1024.2,,5.75,30.18,55.21,5.0,21.64,,23.0,M,,,GNR,1064761,2023-11-20 16:00:00+00:00,919.0,2.45,2023-11-20 16:00:00+00:00,gs://gcp-public-data-sentinel-2/tiles/19/T/DL/S2B_MSIL1C_20231120T153549_N0509_R111_T19TDL_20231120T172540.SAFE
249198,2023-11-20 17:00:00+00:00,0.0,2023-11-20 16:56,29.0,14.0,,1024.7,340.0,16.1,30.2,53.0,14.0,17.3,,22.0,M,27.0,,GNR,1064765,2023-11-20 17:00:00+00:00,919.0,2.45,,
249199,2023-11-20 18:00:00+00:00,0.0,2023-11-20 17:56,28.0,13.0,,1025.0,310.0,13.8,30.21,52.84,12.0,16.91,,20.0,M,,,GNR,1064769,2023-11-20 18:00:00+00:00,908.0,2.44,,
249200,2023-11-20 19:00:00+00:00,0.0,2023-11-20 18:56,28.0,14.0,,1025.6,310.0,13.8,30.22,55.21,12.0,16.91,,21.0,M,28.0,,GNR,1064773,2023-11-20 19:00:00+00:00,908.0,2.44,,
249201,2023-11-20 20:00:00+00:00,0.0,2023-11-20 19:56,27.0,14.0,,1026.5,320.0,14.95,30.25,57.53,13.0,15.16,,25.0,M,29.0,,GNR,1064777,2023-11-20 20:00:00+00:00,908.0,2.44,,
249202,2023-11-20 21:00:00+00:00,0.0,2023-11-20 20:56,26.0,15.0,,1027.6,320.0,13.8,30.28,62.64,12.0,14.37,,25.0,M,,,GNR,1064781,2023-11-20 21:00:00+00:00,897.0,2.43,,
249203,2023-11-20 22:00:00+00:00,0.0,2023-11-20 21:56,25.0,15.0,,1028.6,300.0,9.2,30.31,65.3,8.0,15.49,,18.0,M,,,GNR,1064785,2023-11-20 22:00:00+00:00,897.0,2.43,,
249204,2023-11-20 23:00:00+00:00,0.0,2023-11-20 22:56,24.0,15.0,,1029.9,300.0,8.05,30.34,68.08,7.0,15.03,,20.0,M,,,GNR,1064789,2023-11-20 23:00:00+00:00,942.0,2.47,,
249205,2023-11-21 00:00:00+00:00,0.0,2023-11-20 23:56,24.0,15.0,,1030.6,310.0,10.35,30.36,68.08,9.0,13.57,,17.0,M,,,GNR,1064793,2023-11-21 00:00:00+00:00,9110.0,6.5,,
249206,2023-11-21 01:00:00+00:00,0.0,2023-11-21 00:56,23.0,15.0,,1031.1,320.0,13.8,30.38,70.99,12.0,10.55,,22.0,M,,,GNR,1064797,2023-11-21 01:00:00+00:00,9160.0,6.52,,
249207,2023-11-21 02:00:00+00:00,0.0,2023-11-21 01:56,23.0,15.0,,1031.5,310.0,9.2,30.39,70.99,8.0,13.03,,25.0,M,27.0,,GNR,1064801,2023-11-21 02:00:00+00:00,9190.0,6.53,,
249208,2023-11-21 03:00:00+00:00,0.0,2023-11-21 02:56,22.0,14.0,,1031.9,310.0,10.35,30.4,70.88,9.0,11.08,,21.0,M,,,GNR,1064805,2023-11-21 03:00:00+00:00,9240.0,6.55,,
249209,2023-11-21 04:00:00+00:00,0.0,2023-11-21 03:56,21.0,15.0,,1032.5,300.0,10.35,30.42,77.25,9.0,9.84,,,M,,,GNR,1064809,2023-11-21 04:00:00+00:00,4300.0,4.49,,
249210,2023-11-21 05:00:00+00:00,0.0,2023-11-21 04:56,21.0,14.0,,1033.0,300.0,8.05,30.43,73.94,7.0,11.37,,,M,,,GNR,1064813,2023-11-21 05:00:00+00:00,1770.0,3.12,,
249211,2023-11-21 06:00:00+00:00,0.0,2023-11-21 05:56,21.0,14.0,,1033.0,310.0,10.35,30.43,73.94,9.0,9.84,,18.0,M,,,GNR,1064817,2023-11-21 06:00:00+00:00,1100.0,2.61,,
249212,2023-11-21 07:00:00+00:00,0.0,2023-11-21 06:56,20.0,14.0,,1033.3,310.0,9.2,30.44,77.16,8.0,9.33,,,M,,,GNR,1064821,2023-11-21 07:00:00+00:00,942.0,2.47,,
249213,2023-11-21 08:00:00+00:00,0.0,2023-11-21 07:56,18.0,12.0,,1033.1,0.0,0.0,30.43,76.97,0.0,18.0,,,M,,,GNR,1064825,2023-11-21 08:00:00+00:00,908.0,2.44,,
249214,2023-11-21 09:00:00+00:00,0.0,2023-11-21 08:56,17.0,12.0,,1033.6,0.0,0.0,30.44,80.36,0.0,17.0,,,M,,,GNR,1064829,2023-11-21 09:00:00+00:00,897.0,2.43,,
249215,2023-11-21 10:00:00+00:00,0.0,2023-11-21 09:56,18.0,13.0,,1033.7,30.0,5.75,30.45,80.44,5.0,9.77,,,M,,,GNR,1064833,2023-11-21 10:00:00+00:00,887.0,2.42,,
249216,2023-11-21 11:00:00+00:00,0.0,2023-11-21 10:56,18.0,13.0,,1034.0,360.0,5.75,30.45,80.44,5.0,9.77,,,M,,,GNR,1064837,2023-11-21 11:00:00+00:00,887.0,2.42,,
249217,2023-11-21 12:00:00+00:00,0.0,2023-11-21 11:56,18.0,14.0,,1034.3,30.0,6.9,30.46,84.05,6.0,8.67,,,M,,,GNR,1064841,2023-11-21 12:00:00+00:00,876.0,2.41,,
249218,2023-11-21 13:00:00+00:00,0.0,2023-11-21 12:56,22.0,15.0,,1034.3,60.0,4.6,30.47,74.05,4.0,15.74,,,M,,,GNR,1064845,2023-11-21 13:00:00+00:00,876.0,2.41,,
249219,2023-11-21 14:00:00+00:00,0.0,2023-11-21 13:56,24.0,17.0,,1034.5,320.0,6.9,30.47,74.26,6.0,15.9,,,M,,,GNR,1064849,2023-11-21 14:00:00+00:00,865.0,2.4,,
249220,2023-11-21 15:00:00+00:00,0.0,2023-11-21 14:56,27.0,16.0,,1034.5,330.0,3.45,30.48,62.78,3.0,22.97,,,M,,,GNR,1064853,2023-11-21 15:00:00+00:00,865.0,2.4,,
249221,2023-11-21 16:00:00+00:00,0.0,2023-11-21 15:56,29.0,14.0,,1034.0,,3.45,30.46,53.0,3.0,25.26,,,M,,,GNR,1064857,2023-11-21 16:00:00+00:00,834.0,2.37,,
249222,2023-11-21 17:00:00+00:00,0.0,2023-11-21 16:56,31.0,15.0,,1032.6,70.0,3.45,30.42,51.04,3.0,27.55,,,M,,,GNR,1064861,2023-11-21 17:00:00+00:00,823.0,2.36,,
249223,2023-11-21 18:00:00+00:00,0.0,2023-11-21 17:56,32.0,13.0,,1031.9,0.0,0.0,30.4,44.9,0.0,32.0,,,M,,,GNR,1064865,2023-11-21 18:00:00+00:00,834.0,2.37,,
249224,2023-11-21 19:00:00+00:00,0.0,2023-11-21 18:56,33.0,11.0,,1031.5,0.0,0.0,30.39,39.48,0.0,33.0,,,M,,,GNR,1064869,2023-11-21 19:00:00+00:00,834.0,2.37,,
249225,2023-11-21 20:00:00+00:00,0.0,2023-11-21 19:56,32.0,9.0,,1031.5,150.0,5.75,30.39,37.58,5.0,26.4,,,M,,,GNR,1064873,2023-11-21 20:00:00+00:00,834.0,2.37,,
249226,2023-11-21 21:00:00+00:00,0.0,2023-11-21 20:56,29.0,10.0,,1031.4,150.0,5.75,30.38,44.4,5.0,22.83,,,M,,,GNR,1064877,2023-11-21 21:00:00+00:00,834.0,2.37,,
249227,2023-11-21 22:00:00+00:00,0.0,2023-11-21 21:56,27.0,11.0,,1030.9,140.0,4.6,30.37,50.39,4.0,21.58,,,M,,,GNR,1064881,2023-11-21 22:00:00+00:00,844.0,2.38,,
249228,2023-11-21 23:00:00+00:00,0.0,2023-11-21 22:56,27.0,12.0,,1030.5,140.0,5.75,30.36,52.68,5.0,20.46,,,M,,,GNR,1064885,2023-11-21 23:00:00+00:00,1990.0,3.27,,
249229,2023-11-22 00:00:00+00:00,0.0,2023-11-21 23:56,27.0,13.0,,1030.0,150.0,8.05,30.34,55.06,7.0,18.68,,,M,,,GNR,1064889,2023-11-22 00:00:00+00:00,9190.0,6.53,,
249230,2023-11-22 01:00:00+00:00,0.0,2023-11-22 00:56,26.0,13.0,,1029.1,140.0,6.9,30.32,57.38,6.0,18.3,,,M,,,GNR,1064893,2023-11-22 01:00:00+00:00,9240.0,6.55,,
249231,2023-11-22 02:00:00+00:00,0.0,2023-11-22 01:56,26.0,13.0,,1028.6,150.0,9.2,30.3,57.38,8.0,16.72,,,M,,,GNR,1064897,2023-11-22 02:00:00+00:00,9240.0,6.55,,
249232,2023-11-22 03:00:00+00:00,0.0,2023-11-22 02:56,26.0,13.0,,1028.1,150.0,8.05,30.29,57.38,7.0,17.47,,,M,,,GNR,1064901,2023-11-22 03:00:00+00:00,4380.0,4.53,,
249233,2023-11-22 04:00:00+00:00,0.0,2023-11-22 03:56,25.0,14.0,,1026.9,160.0,10.35,30.26,62.5,9.0,14.81,,15.0,M,,,GNR,1064905,2023-11-22 04:00:00+00:00,1770.0,3.12,,
249234,2023-11-22 05:00:00+00:00,0.0,2023-11-22 04:56,25.0,17.0,,1025.5,140.0,10.35,30.22,71.22,9.0,14.81,,16.0,M,,,GNR,1064909,2023-11-22 05:00:00+00:00,1090.0,2.6,,
249235,2023-11-22 06:00:00+00:00,0.0,2023-11-22 05:56,26.0,17.0,,1024.9,160.0,8.05,30.2,68.32,7.0,17.47,,17.0,M,,,GNR,1064913,2023-11-22 06:00:00+00:00,908.0,2.44,,
249236,2023-11-22 07:00:00+00:00,0.0,2023-11-22 06:56,27.0,18.0,,1023.6,150.0,10.35,30.17,68.45,9.0,17.3,,19.0,M,,,GNR,1064917,2023-11-22 07:00:00+00:00,887.0,2.42,,
249237,2023-11-22 08:00:00+00:00,0.51,2023-11-22 07:56,25.0,22.0,,1022.4,150.0,10.35,30.13,88.18,9.0,14.81,,19.0,M,,,GNR,1064921,2023-11-22 08:00:00+00:00,887.0,2.42,,
249238,2023-11-22 09:00:00+00:00,1.52,2023-11-22 08:56,25.0,23.0,,1020.9,140.0,12.65,30.08,91.97,11.0,13.62,,22.0,M,,,GNR,1064925,2023-11-22 09:00:00+00:00,876.0,2.41,,
249239,2023-11-22 10:00:00+00:00,1.78,2023-11-22 09:56,26.0,24.0,,1019.9,140.0,14.95,30.05,92.01,13.0,13.88,,23.0,M,,,GNR,1064929,2023-11-22 10:00:00+00:00,876.0,2.41,,
249240,2023-11-22 11:00:00+00:00,1.52,2023-11-22 10:56,26.0,24.0,,1018.9,140.0,14.95,30.03,92.01,13.0,13.88,,21.0,M,,,GNR,1064933,2023-11-22 11:00:00+00:00,887.0,2.42,,
249241,2023-11-22 12:00:00+00:00,2.29,2023-11-22 11:56,27.0,25.0,,1018.2,140.0,13.8,30.0,92.05,12.0,15.64,,23.0,M,,,GNR,1064937,2023-11-22 12:00:00+00:00,887.0,2.42,,
249242,2023-11-22 13:00:00+00:00,3.05,2023-11-22 12:56,28.0,27.0,,1017.2,140.0,11.5,29.97,95.97,10.0,17.95,,20.0,M,,,GNR,1064941,2023-11-22 13:00:00+00:00,887.0,2.42,,
249243,2023-11-22 14:00:00+00:00,1.52,2023-11-22 13:56,30.0,29.0,,1016.2,140.0,12.65,29.95,96.0,11.0,19.94,,20.0,M,,,GNR,1064945,2023-11-22 14:00:00+00:00,887.0,2.42,,
249244,2023-11-22 15:00:00+00:00,1.52,2023-11-22 14:56,31.0,30.0,,1014.9,130.0,11.5,29.91,96.02,10.0,21.71,,20.0,M,,,GNR,1064949,2023-11-22 15:00:00+00:00,887.0,2.42,,
249245,2023-11-22 16:00:00+00:00,0.76,2023-11-22 15:56,31.0,30.0,,1013.9,140.0,11.5,29.88,96.02,10.0,21.71,,16.0,M,,,GNR,1064953,2023-11-22 16:00:00+00:00,876.0,2.41,,
249246,2023-11-22 17:00:00+00:00,0.76,2023-11-22 16:56,32.0,30.0,,1012.3,130.0,12.65,29.84,92.22,11.0,22.47,,21.0,M,,,GNR,1064957,2023-11-22 17:00:00+00:00,876.0,2.41,,
249247,2023-11-22 18:00:00+00:00,1.52,2023-11-22 17:56,32.0,31.0,,1011.4,140.0,10.35,29.81,96.04,9.0,23.51,,18.0,M,,,GNR,1064961,2023-11-22 18:00:00+00:00,865.0,2.4,,
249248,2023-11-22 19:00:00+00:00,1.27,2023-11-22 18:56,32.0,31.0,,1010.1,130.0,13.8,29.77,96.04,12.0,22.0,,22.0,M,,,GNR,1064965,2023-11-22 19:00:00+00:00,876.0,2.41,,
249249,2023-11-22 20:00:00+00:00,1.02,2023-11-22 19:56,33.0,32.0,,1008.8,130.0,10.35,29.74,96.06,9.0,24.76,,17.0,M,,,GNR,1064969,2023-11-22 20:00:00+00:00,876.0,2.41,,
249250,2023-11-22 21:00:00+00:00,0.25,2023-11-22 20:56,33.0,31.0,,1008.0,100.0,11.5,29.71,92.25,10.0,24.22,,,M,,,GNR,1064973,2023-11-22 21:00:00+00:00,865.0,2.4,,
249251,2023-11-22 22:00:00+00:00,0.51,2023-11-22 21:56,33.0,31.0,,1007.2,100.0,10.35,29.69,92.25,9.0,24.76,,,M,,,GNR,1064977,2023-11-22 22:00:00+00:00,865.0,2.4,,
249252,2023-11-22 23:00:00+00:00,0.51,2023-11-22 22:56,33.0,32.0,,1006.4,80.0,10.35,29.67,96.06,9.0,24.76,,,M,,,GNR,1064981,2023-11-22 23:00:00+00:00,865.0,2.4,,
249253,2023-11-23 00:00:00+00:00,0.76,2023-11-22 23:56,34.0,32.0,,1005.6,80.0,6.9,29.65,92.29,6.0,27.94,,,M,,,GNR,1064985,2023-11-23 00:00:00+00:00,9190.0,6.53,,
249254,2023-11-23 01:00:00+00:00,0.51,2023-11-23 00:56,34.0,33.0,,1005.0,90.0,6.9,29.63,96.08,6.0,27.94,,,M,,,GNR,1064989,2023-11-23 01:00:00+00:00,9210.0,6.54,,
249255,2023-11-23 02:00:00+00:00,0.51,2023-11-23 01:56,34.0,33.0,,1004.4,320.0,4.6,29.61,96.08,4.0,29.76,,,M,,,GNR,1064993,2023-11-23 02:00:00+00:00,4190.0,4.44,,
249256,2023-11-23 03:00:00+00:00,0.25,2023-11-23 02:56,35.0,34.0,,1003.3,20.0,6.9,29.58,96.09,6.0,29.14,,,M,,,GNR,1064997,2023-11-23 03:00:00+00:00,1740.0,3.1,,
249257,2023-11-23 04:00:00+00:00,0.0,2023-11-23 03:56,34.0,33.0,,1002.8,320.0,4.6,29.56,96.08,4.0,29.76,,,M,,,GNR,1065001,2023-11-23 04:00:00+00:00,1080.0,2.59,,
249258,2023-11-23 05:00:00+00:00,0.0,2023-11-23 04:56,33.0,32.0,,1002.6,340.0,9.2,29.56,96.06,8.0,25.34,,,M,,,GNR,1065005,2023-11-23 05:00:00+00:00,908.0,2.44,,
249259,2023-11-23 06:00:00+00:00,0.0,2023-11-23 05:56,33.0,32.0,,1002.2,330.0,8.05,29.55,96.06,7.0,26.0,,,M,,,GNR,1065009,2023-11-23 06:00:00+00:00,887.0,2.42,,
249260,2023-11-23 07:00:00+00:00,0.0,2023-11-23 06:56,33.0,32.0,,1002.7,340.0,5.75,29.56,96.06,5.0,27.58,,,M,,,GNR,1065013,2023-11-23 07:00:00+00:00,876.0,2.41,,
249261,2023-11-23 08:00:00+00:00,0.0,2023-11-23 07:56,32.0,31.0,,1002.5,340.0,11.5,29.56,96.04,10.0,22.97,,,M,,,GNR,1065017,2023-11-23 08:00:00+00:00,876.0,2.41,,
249262,2023-11-23 09:00:00+00:00,0.0,2023-11-23 08:56,32.0,31.0,,1002.7,340.0,9.2,29.56,96.04,8.0,24.11,,,M,,,GNR,1065021,2023-11-23 09:00:00+00:00,876.0,2.41,,
249263,2023-11-23 10:00:00+00:00,0.0,2023-11-23 09:56,32.0,31.0,,1002.7,360.0,10.35,29.56,96.04,9.0,23.51,,18.0,M,,,GNR,1065025,2023-11-23 10:00:00+00:00,876.0,2.41,,
249264,2023-11-23 11:00:00+00:00,0.0,2023-11-23 10:56,32.0,31.0,,1003.1,340.0,10.35,29.57,96.04,9.0,23.51,,,M,,,GNR,1065029,2023-11-23 11:00:00+00:00,876.0,2.41,,
249265,2023-11-23 12:00:00+00:00,0.0,2023-11-23 11:56,33.0,32.0,,1003.6,330.0,11.5,29.59,96.06,10.0,24.22,,17.0,M,,,GNR,1065033,2023-11-23 12:00:00+00:00,865.0,2.4,,
249266,2023-11-23 13:00:00+00:00,0.0,2023-11-23 12:56,33.0,32.0,,1003.7,330.0,11.5,29.6,96.06,10.0,24.22,,,M,,,GNR,1065037,2023-11-23 13:00:00+00:00,865.0,2.4,,
249267,2023-11-23 14:00:00+00:00,0.0,2023-11-23 13:56,33.0,32.0,,1003.9,330.0,19.55,29.6,96.06,17.0,21.39,,27.0,M,29.0,,GNR,1065041,2023-11-23 14:00:00+00:00,865.0,2.4,,
249268,2023-11-23 15:00:00+00:00,0.0,2023-11-23 14:56,35.0,33.0,,1004.7,330.0,14.95,29.62,92.32,13.0,25.41,,20.0,M,28.0,,GNR,1065045,2023-11-23 15:00:00+00:00,865.0,2.4,,
249269,2023-11-23 16:00:00+00:00,0.0,2023-11-23 15:56,35.0,32.0,,1004.6,330.0,14.95,29.62,88.68,13.0,25.41,,19.0,M,,,GNR,1065049,2023-11-23 16:00:00+00:00,865.0,2.4,2023-11-23 16:00:00+00:00,gs://gcp-public-data-sentinel-2/tiles/19/T/DL/S2B_MSIL1C_20231123T154549_N0509_R011_T19TDL_20231123T192055.SAFE
249270,2023-11-23 17:00:00+00:00,0.0,2023-11-23 16:56,35.0,32.0,,1004.1,320.0,16.1,29.61,88.68,14.0,25.03,,21.0,M,,,GNR,1065053,2023-11-23 17:00:00+00:00,865.0,2.4,,
249271,2023-11-23 18:00:00+00:00,0.0,2023-11-23 17:56,36.0,31.0,,1004.0,320.0,14.95,29.6,81.86,13.0,26.69,,,M,,,GNR,1065057,2023-11-23 18:00:00+00:00,865.0,2.4,,
249272,2023-11-23 19:00:00+00:00,0.0,2023-11-23 18:56,36.0,30.0,,1004.7,320.0,11.5,29.62,78.6,10.0,27.98,,20.0,M,,,GNR,1065061,2023-11-23 19:00:00+00:00,865.0,2.4,,
249273,2023-11-23 20:00:00+00:00,0.0,2023-11-23 19:56,35.0,30.0,,1005.2,310.0,6.9,29.64,81.78,6.0,29.14,,18.0,M,,,GNR,1065065,2023-11-23 20:00:00+00:00,855.0,2.39,,
249274,2023-11-23 21:00:00+00:00,0.0,2023-11-23 20:56,34.0,29.0,,1005.9,310.0,12.65,29.66,81.71,11.0,24.99,,23.0,M,,,GNR,1065069,2023-11-23 21:00:00+00:00,865.0,2.4,,
249275,2023-11-23 22:00:00+00:00,0.0,2023-11-23 21:56,32.0,27.0,,1006.4,310.0,12.65,29.67,81.55,11.0,22.47,,21.0,M,30.0,,GNR,1065073,2023-11-23 22:00:00+00:00,865.0,2.4,,
249276,2023-11-23 23:00:00+00:00,0.0,2023-11-23 22:56,32.0,25.0,,1006.7,300.0,12.65,29.68,75.07,11.0,22.47,,27.0,M,27.0,,GNR,1065077,2023-11-23 23:00:00+00:00,876.0,2.41,,
249277,2023-11-24 00:00:00+00:00,0.0,2023-11-23 23:56,32.0,26.0,,1006.8,300.0,11.5,29.68,78.25,10.0,22.97,,32.0,M,33.0,,GNR,1065081,2023-11-24 00:00:00+00:00,9190.0,6.53,,
249278,2023-11-24 01:00:00+00:00,0.0,2023-11-24 00:56,31.0,26.0,,1007.0,310.0,17.25,29.69,81.48,15.0,19.48,,28.0,M,28.0,,GNR,1065085,2023-11-24 01:00:00+00:00,9190.0,6.53,,
249279,2023-11-24 02:00:00+00:00,0.0,2023-11-24 01:56,32.0,27.0,,1007.4,310.0,13.8,29.7,81.55,12.0,22.0,,18.0,M,,,GNR,1065089,2023-11-24 02:00:00+00:00,4300.0,4.49,,
249280,2023-11-24 03:00:00+00:00,0.0,2023-11-24 02:56,32.0,28.0,,1007.8,320.0,5.75,29.71,84.98,5.0,26.4,,,M,,,GNR,1065093,2023-11-24 03:00:00+00:00,1750.0,3.11,,
249281,2023-11-24 04:00:00+00:00,0.0,2023-11-24 03:56,32.0,29.0,,1008.2,,5.75,29.73,88.53,5.0,26.4,,,M,,,GNR,1065097,2023-11-24 04:00:00+00:00,1090.0,2.6,,
249282,2023-11-24 05:00:00+00:00,0.25,2023-11-24 04:56,32.0,30.0,,1008.5,,3.45,29.73,92.22,3.0,28.69,,,M,,,GNR,1065101,2023-11-24 05:00:00+00:00,908.0,2.44,,
249283,2023-11-24 06:00:00+00:00,0.0,2023-11-24 05:56,33.0,30.0,,1008.7,,3.45,29.74,88.58,3.0,29.83,,,M,,,GNR,1065105,2023-11-24 06:00:00+00:00,887.0,2.42,,
249284,2023-11-24 07:00:00+00:00,0.0,2023-11-24 06:56,34.0,28.0,,1009.5,,6.9,29.77,78.43,6.0,27.94,,,M,,,GNR,1065109,2023-11-24 07:00:00+00:00,887.0,2.42,,
249285,2023-11-24 08:00:00+00:00,0.0,2023-11-24 07:56,33.0,27.0,,1009.9,310.0,8.05,29.78,78.34,7.0,26.0,,,M,,,GNR,1065113,2023-11-24 08:00:00+00:00,876.0,2.41,,
249286,2023-11-24 09:00:00+00:00,0.0,2023-11-24 08:56,32.0,27.0,,1010.5,,3.45,29.79,81.55,3.0,28.69,,,M,,,GNR,1065117,2023-11-24 09:00:00+00:00,876.0,2.41,,
249287,2023-11-24 10:00:00+00:00,0.0,2023-11-24 09:56,32.0,26.0,,1010.7,300.0,8.05,29.8,78.25,7.0,24.78,,,M,,,GNR,1065121,2023-11-24 10:00:00+00:00,876.0,2.41,,
249288,2023-11-24 11:00:00+00:00,0.0,2023-11-24 10:56,32.0,22.0,,1011.2,290.0,10.35,29.81,66.2,9.0,23.51,,19.0,M,,,GNR,1065125,2023-11-24 11:00:00+00:00,876.0,2.41,,
249289,2023-11-24 12:00:00+00:00,0.0,2023-11-24 11:56,31.0,21.0,,1012.0,,5.75,29.83,66.07,5.0,25.21,,15.0,M,,,GNR,1065129,2023-11-24 12:00:00+00:00,876.0,2.41,,
249290,2023-11-24 13:00:00+00:00,0.0,2023-11-24 12:56,31.0,22.0,,1012.7,,,29.85,68.92,,,,,M,,,GNR,1065133,2023-11-24 13:00:00+00:00,865.0,2.4,,
249291,2023-11-24 14:00:00+00:00,0.25,2023-11-24 13:56,30.0,19.0,,1013.4,290.0,9.2,29.87,63.18,8.0,21.65,,24.0,M,29.0,,GNR,1065137,2023-11-24 14:00:00+00:00,865.0,2.4,,
249292,2023-11-24 15:00:00+00:00,0.0,2023-11-24 14:56,27.0,18.0,,1014.1,310.0,17.25,29.89,68.45,15.0,14.3,,29.0,M,29.0,,GNR,1065141,2023-11-24 15:00:00+00:00,865.0,2.4,,
249293,2023-11-24 16:00:00+00:00,0.0,2023-11-24 15:56,27.0,14.0,,1014.1,310.0,17.25,29.89,57.53,15.0,14.3,,26.0,M,28.0,,GNR,1065145,2023-11-24 16:00:00+00:00,865.0,2.4,,
249294,2023-11-24 17:00:00+00:00,0.0,2023-11-24 16:56,25.0,9.0,,1014.0,300.0,18.4,29.89,50.07,16.0,11.29,,28.0,M,31.0,,GNR,1065149,2023-11-24 17:00:00+00:00,865.0,2.4,,
249295,2023-11-24 18:00:00+00:00,0.0,2023-11-24 17:56,23.0,7.0,,1014.4,300.0,13.8,29.89,49.74,12.0,10.55,,34.0,M,34.0,,GNR,1065153,2023-11-24 18:00:00+00:00,865.0,2.4,,
249296,2023-11-24 19:00:00+00:00,0.0,2023-11-24 18:56,22.0,7.0,,1014.2,310.0,17.25,29.89,51.88,15.0,7.82,,28.0,M,29.0,,GNR,1065157,2023-11-24 19:00:00+00:00,865.0,2.4,,
249297,2023-11-24 20:00:00+00:00,0.0,2023-11-24 19:56,20.0,8.0,,1014.9,290.0,10.35,29.91,59.08,9.0,8.59,,24.0,M,31.0,,GNR,1065161,2023-11-24 20:00:00+00:00,855.0,2.39,,
249298,2023-11-24 21:00:00+00:00,0.0,2023-11-24 20:56,18.0,7.0,,1015.6,290.0,11.5,29.92,61.52,10.0,5.41,,22.0,M,,,GNR,1065165,2023-11-24 21:00:00+00:00,855.0,2.39,,
249299,2023-11-24 22:00:00+00:00,0.0,2023-11-24 21:56,18.0,8.0,,1016.8,290.0,10.35,29.96,64.37,9.0,6.11,,26.0,M,26.0,,GNR,1065169,2023-11-24 22:00:00+00:00,855.0,2.39,,
249300,2023-11-24 23:00:00+00:00,0.0,2023-11-24 22:56,16.0,9.0,,1017.7,310.0,16.1,29.98,73.41,14.0,0.54,,28.0,M,30.0,,GNR,1065173,2023-11-24 23:00:00+00:00,844.0,2.38,,
249301,2023-11-25 00:00:00+00:00,0.0,2023-11-24 23:56,14.0,3.0,,1018.6,310.0,13.8,30.01,60.94,12.0,-0.91,,29.0,M,32.0,,GNR,1065177,2023-11-25 00:00:00+00:00,2980.0,3.84,,
249302,2023-11-25 01:00:00+00:00,0.0,2023-11-25 00:56,13.0,4.0,,1019.6,300.0,12.65,30.04,66.69,11.0,-1.54,,24.0,M,,,GNR,1065181,2023-11-25 01:00:00+00:00,9160.0,6.52,,
249303,2023-11-25 02:00:00+00:00,0.0,2023-11-25 01:56,13.0,4.0,,1019.0,300.0,14.95,30.02,66.69,13.0,-2.77,,24.0,M,,,GNR,1065185,2023-11-25 02:00:00+00:00,9190.0,6.53,,
249304,2023-11-25 03:00:00+00:00,0.0,2023-11-25 02:56,14.0,5.0,,1019.2,300.0,13.8,30.02,66.82,12.0,-0.91,,22.0,M,,,GNR,1065189,2023-11-25 03:00:00+00:00,4170.0,4.43,,
249305,2023-11-25 04:00:00+00:00,0.0,2023-11-25 03:56,13.0,5.0,,1019.4,300.0,11.5,30.03,69.82,10.0,-0.86,,17.0,M,,,GNR,1065193,2023-11-25 04:00:00+00:00,1710.0,3.08,,
249306,2023-11-25 05:00:00+00:00,0.0,2023-11-25 04:56,14.0,5.0,,1019.9,300.0,9.2,30.04,66.82,8.0,1.94,,19.0,M,,,GNR,1065197,2023-11-25 05:00:00+00:00,1050.0,2.57,,
249307,2023-11-25 06:00:00+00:00,0.0,2023-11-25 05:56,14.0,5.0,,1020.3,300.0,11.5,30.05,66.82,10.0,0.4,,21.0,M,,,GNR,1065201,2023-11-25 06:00:00+00:00,887.0,2.42,,
249308,2023-11-25 07:00:00+00:00,0.0,2023-11-25 06:56,13.0,2.0,,1021.4,310.0,12.65,30.08,60.8,11.0,-1.54,,29.0,M,29.0,,GNR,1065205,2023-11-25 07:00:00+00:00,876.0,2.41,,
249309,2023-11-25 08:00:00+00:00,0.0,2023-11-25 07:56,11.0,3.0,,1022.3,310.0,12.65,30.1,69.58,11.0,-4.07,,29.0,M,29.0,,GNR,1065209,2023-11-25 08:00:00+00:00,865.0,2.4,,
249310,2023-11-25 09:00:00+00:00,0.0,2023-11-25 08:56,10.0,2.0,,1023.1,310.0,11.5,30.12,69.45,10.0,-4.62,,21.0,M,,,GNR,1065213,2023-11-25 09:00:00+00:00,855.0,2.39,,
249311,2023-11-25 10:00:00+00:00,0.0,2023-11-25 09:56,10.0,2.0,,1023.6,310.0,11.5,30.14,69.45,10.0,-4.62,,24.0,M,,,GNR,1065217,2023-11-25 10:00:00+00:00,844.0,2.38,,
249312,2023-11-25 11:00:00+00:00,0.0,2023-11-25 10:56,10.0,2.0,,1024.6,300.0,10.35,30.16,69.45,9.0,-3.84,,19.0,M,,,GNR,1065221,2023-11-25 11:00:00+00:00,844.0,2.38,,
249313,2023-11-25 12:00:00+00:00,0.0,2023-11-25 11:56,10.0,3.0,,1025.3,310.0,6.9,30.18,72.75,6.0,-0.97,,,M,,,GNR,1065225,2023-11-25 12:00:00+00:00,844.0,2.38,,
249314,2023-11-25 13:00:00+00:00,0.0,2023-11-25 12:56,12.0,5.0,,1025.5,0.0,0.0,30.19,72.97,0.0,12.0,,,M,,,GNR,1065229,2023-11-25 13:00:00+00:00,844.0,2.38,,
249315,2023-11-25 14:00:00+00:00,0.0,2023-11-25 13:56,14.0,2.0,,1025.7,310.0,11.5,30.2,58.18,10.0,0.4,,16.0,M,,,GNR,1065233,2023-11-25 14:00:00+00:00,844.0,2.38,,
249316,2023-11-25 15:00:00+00:00,0.0,2023-11-25 14:56,17.0,3.0,,1026.4,310.0,5.75,30.22,53.48,5.0,8.58,,,M,,,GNR,1065237,2023-11-25 15:00:00+00:00,834.0,2.37,,
249317,2023-11-25 16:00:00+00:00,0.0,2023-11-25 15:56,19.0,4.0,,1025.4,,3.45,30.19,51.39,3.0,13.83,,,M,,,GNR,1065241,2023-11-25 16:00:00+00:00,844.0,2.38,2023-11-25 16:00:00+00:00,gs://gcp-public-data-sentinel-2/tiles/19/T/DL/S2A_MSIL1C_20231125T153551_N0509_R111_T19TDL_20231125T190814.SAFE
249318,2023-11-25 17:00:00+00:00,0.0,2023-11-25 16:56,21.0,5.0,,1024.5,310.0,12.65,30.17,49.41,11.0,8.57,,19.0,M,,,GNR,1065245,2023-11-25 17:00:00+00:00,844.0,2.38,,
249319,2023-11-25 18:00:00+00:00,0.0,2023-11-25 17:56,24.0,7.0,,1023.9,320.0,10.35,30.16,47.7,9.0,13.57,,17.0,M,,,GNR,1065249,2023-11-25 18:00:00+00:00,855.0,2.39,,
249320,2023-11-25 19:00:00+00:00,0.0,2023-11-25 18:56,26.0,7.0,,1023.5,,6.9,30.15,43.89,6.0,18.3,,,M,,,GNR,1065253,2023-11-25 19:00:00+00:00,855.0,2.39,,
249321,2023-11-25 20:00:00+00:00,0.0,2023-11-25 19:56,27.0,8.0,,1023.9,,4.6,30.16,44.06,4.0,21.58,,,M,,,GNR,1065257,2023-11-25 20:00:00+00:00,844.0,2.38,,
249322,2023-11-25 21:00:00+00:00,0.0,2023-11-25 20:56,24.0,9.0,,1024.2,280.0,3.45,30.16,52.2,3.0,19.54,,,M,,,GNR,1065261,2023-11-25 21:00:00+00:00,844.0,2.38,,
249323,2023-11-25 22:00:00+00:00,0.0,2023-11-25 21:56,23.0,9.0,,1024.5,0.0,0.0,30.17,54.44,0.0,23.0,,,M,,,GNR,1065265,2023-11-25 22:00:00+00:00,844.0,2.38,,
249324,2023-11-25 23:00:00+00:00,0.0,2023-11-25 22:56,21.0,11.0,,1024.5,0.0,0.0,30.17,64.77,0.0,21.0,,,M,,,GNR,1065269,2023-11-25 23:00:00+00:00,855.0,2.39,,
249325,2023-11-26 00:00:00+00:00,0.0,2023-11-25 23:56,18.0,9.0,,1024.4,0.0,0.0,30.16,67.33,0.0,18.0,,,M,,,GNR,1065273,2023-11-26 00:00:00+00:00,855.0,2.39,,
249326,2023-11-26 01:00:00+00:00,0.0,2023-11-26 00:56,18.0,9.0,,1024.3,0.0,0.0,30.16,67.33,0.0,18.0,,,M,,,GNR,1065277,2023-11-26 01:00:00+00:00,9140.0,6.51,,
249327,2023-11-26 02:00:00+00:00,0.0,2023-11-26 01:56,21.0,10.0,,1024.1,0.0,0.0,30.16,61.95,0.0,21.0,,,M,,,GNR,1065281,2023-11-26 02:00:00+00:00,9140.0,6.51,,
249328,2023-11-26 03:00:00+00:00,0.0,2023-11-26 02:56,20.0,10.0,,1024.0,0.0,0.0,30.16,64.64,0.0,20.0,,,M,,,GNR,1065285,2023-11-26 03:00:00+00:00,4190.0,4.44,,
249329,2023-11-26 04:00:00+00:00,0.0,2023-11-26 03:56,19.0,9.0,,1023.9,0.0,0.0,30.16,64.5,0.0,19.0,,,M,,,GNR,1065289,2023-11-26 04:00:00+00:00,1690.0,3.07,,
249330,2023-11-26 05:00:00+00:00,0.0,2023-11-26 04:56,22.0,11.0,,1023.6,0.0,0.0,30.15,62.09,0.0,22.0,,,M,,,GNR,1065293,2023-11-26 05:00:00+00:00,1040.0,2.56,,
249331,2023-11-26 06:00:00+00:00,0.0,2023-11-26 05:56,19.0,11.0,,1023.7,0.0,0.0,30.16,70.53,0.0,19.0,,,M,,,GNR,1065297,2023-11-26 06:00:00+00:00,876.0,2.41,,
249332,2023-11-26 07:00:00+00:00,0.0,2023-11-26 06:56,19.0,12.0,,1024.0,0.0,0.0,30.17,73.73,0.0,19.0,,,M,,,GNR,1065301,2023-11-26 07:00:00+00:00,855.0,2.39,,
249333,2023-11-26 08:00:00+00:00,0.0,2023-11-26 07:56,23.0,13.0,,1023.8,0.0,0.0,30.17,65.03,0.0,23.0,,,M,,,GNR,1065305,2023-11-26 08:00:00+00:00,844.0,2.38,,
249334,2023-11-26 09:00:00+00:00,0.0,2023-11-26 08:56,24.0,14.0,,1023.9,0.0,0.0,30.16,65.17,0.0,24.0,,,M,,,GNR,1065309,2023-11-26 09:00:00+00:00,834.0,2.37,,
249335,2023-11-26 10:00:00+00:00,0.0,2023-11-26 09:56,22.0,14.0,,1023.7,0.0,0.0,30.16,70.88,0.0,22.0,,,M,,,GNR,1065313,2023-11-26 10:00:00+00:00,834.0,2.37,,
249336,2023-11-26 11:00:00+00:00,0.0,2023-11-26 10:56,24.0,16.0,,1024.1,0.0,0.0,30.17,71.11,0.0,24.0,,,M,,,GNR,1065317,2023-11-26 11:00:00+00:00,834.0,2.37,,
249337,2023-11-26 12:00:00+00:00,0.0,2023-11-26 11:56,24.0,17.0,,1024.1,330.0,6.9,30.16,74.26,6.0,15.9,,,M,,,GNR,1065321,2023-11-26 12:00:00+00:00,834.0,2.37,,
249338,2023-11-26 13:00:00+00:00,0.0,2023-11-26 12:56,24.0,18.0,,1024.5,0.0,0.0,30.18,77.53,0.0,24.0,,,M,,,GNR,1065325,2023-11-26 13:00:00+00:00,823.0,2.36,,
249339,2023-11-26 14:00:00+00:00,0.0,2023-11-26 13:56,28.0,18.0,,1024.7,0.0,0.0,30.19,65.69,0.0,28.0,,,M,,,GNR,1065329,2023-11-26 14:00:00+00:00,823.0,2.36,,
249340,2023-11-26 15:00:00+00:00,0.0,2023-11-26 14:56,31.0,20.0,,1024.0,0.0,0.0,30.17,63.32,0.0,31.0,,,M,,,GNR,1065333,2023-11-26 15:00:00+00:00,823.0,2.36,,
249341,2023-11-26 16:00:00+00:00,0.0,2023-11-26 15:56,33.0,20.0,,1023.4,180.0,3.45,30.16,58.41,3.0,29.83,,,M,,,GNR,1065337,2023-11-26 16:00:00+00:00,834.0,2.37,,
249342,2023-11-26 17:00:00+00:00,0.0,2023-11-26 16:56,32.0,18.0,,1022.5,130.0,6.9,30.13,55.82,6.0,25.53,,,M,,,GNR,1065341,2023-11-26 17:00:00+00:00,834.0,2.37,,
249343,2023-11-26 18:00:00+00:00,0.0,2023-11-26 17:56,32.0,17.0,,1021.9,150.0,4.6,30.11,53.46,4.0,27.42,,,M,,,GNR,1065345,2023-11-26 18:00:00+00:00,834.0,2.37,,
249344,2023-11-26 19:00:00+00:00,0.0,2023-11-26 18:56,33.0,18.0,,1021.5,150.0,9.2,30.1,53.62,8.0,25.34,,,M,,,GNR,1065349,2023-11-26 19:00:00+00:00,834.0,2.37,,
249345,2023-11-26 20:00:00+00:00,0.0,2023-11-26 19:56,31.0,19.0,,1021.5,160.0,6.9,30.1,60.67,6.0,24.33,,,M,,,GNR,1065353,2023-11-26 20:00:00+00:00,834.0,2.37,,
249346,2023-11-26 21:00:00+00:00,0.0,2023-11-26 20:56,31.0,19.0,,1021.2,150.0,5.75,30.1,60.67,5.0,25.21,,,M,,,GNR,1065357,2023-11-26 21:00:00+00:00,834.0,2.37,,
249347,2023-11-26 22:00:00+00:00,0.0,2023-11-26 21:56,30.0,19.0,,1021.2,150.0,6.9,30.09,63.18,6.0,23.12,,,M,,,GNR,1065361,2023-11-26 22:00:00+00:00,844.0,2.38,,
249348,2023-11-26 23:00:00+00:00,0.0,2023-11-26 22:56,30.0,19.0,,1020.2,140.0,9.2,30.06,63.18,8.0,21.65,,,M,,,GNR,1065365,2023-11-26 23:00:00+00:00,844.0,2.38,,
249349,2023-11-27 00:00:00+00:00,0.0,2023-11-26 23:56,30.0,19.0,,1019.6,150.0,8.05,30.05,63.18,7.0,22.34,,,M,,,GNR,1065369,2023-11-27 00:00:00+00:00,2140.0,3.36,,
249350,2023-11-27 01:00:00+00:00,0.0,2023-11-27 00:56,30.0,20.0,,1019.0,140.0,12.65,30.03,65.94,11.0,19.94,,,M,,,GNR,1065373,2023-11-27 01:00:00+00:00,9010.0,6.46,,
249351,2023-11-27 02:00:00+00:00,0.0,2023-11-27 01:56,31.0,23.0,,1017.5,160.0,11.5,29.99,71.89,10.0,21.71,,18.0,M,,,GNR,1065377,2023-11-27 02:00:00+00:00,7540.0,5.88,,
249352,2023-11-27 03:00:00+00:00,0.0,2023-11-27 02:56,31.0,25.0,,1016.3,140.0,10.35,29.96,78.16,9.0,22.27,,20.0,M,,,GNR,1065381,2023-11-27 03:00:00+00:00,4080.0,4.39,,
249353,2023-11-27 04:00:00+00:00,0.0,2023-11-27 03:56,32.0,28.0,,1015.9,150.0,11.5,29.95,84.98,10.0,22.97,,17.0,M,,,GNR,1065385,2023-11-27 04:00:00+00:00,1690.0,3.07,,
249354,2023-11-27 05:00:00+00:00,0.0,2023-11-27 04:56,32.0,29.0,,1014.8,140.0,11.5,29.92,88.53,10.0,22.97,,16.0,M,,,GNR,1065389,2023-11-27 05:00:00+00:00,1030.0,2.55,,
249355,2023-11-27 06:00:00+00:00,0.0,2023-11-27 05:56,34.0,31.0,,1012.6,130.0,10.35,29.85,88.63,9.0,26.0,,15.0,M,,,GNR,1065393,2023-11-27 06:00:00+00:00,876.0,2.41,,
249356,2023-11-27 07:00:00+00:00,0.0,2023-11-27 06:56,34.0,31.0,,1012.4,130.0,11.5,29.85,88.63,10.0,25.48,,16.0,M,,,GNR,1065397,2023-11-27 07:00:00+00:00,855.0,2.39,,
249357,2023-11-27 08:00:00+00:00,0.51,2023-11-27 07:56,33.0,32.0,,1009.9,120.0,12.65,29.77,96.06,11.0,23.73,,19.0,M,,,GNR,1065401,2023-11-27 08:00:00+00:00,855.0,2.39,,
249358,2023-11-27 09:00:00+00:00,2.79,2023-11-27 08:56,33.0,32.0,,1008.3,120.0,18.4,29.73,96.06,16.0,21.72,,27.0,M,27.0,,GNR,1065405,2023-11-27 09:00:00+00:00,855.0,2.39,,
249359,2023-11-27 10:00:00+00:00,3.3,2023-11-27 09:56,34.0,32.0,,1004.3,110.0,21.85,29.61,92.29,19.0,22.08,,34.0,M,34.0,,GNR,1065409,2023-11-27 10:00:00+00:00,865.0,2.4,,
249360,2023-11-27 11:00:00+00:00,1.78,2023-11-27 10:56,35.0,,,1000.9,120.0,21.85,29.51,,19.0,,,35.0,M,40.0,,GNR,1065413,2023-11-27 11:00:00+00:00,876.0,2.41,,
249361,2023-11-27 12:00:00+00:00,5.33,2023-11-27 11:56,37.0,36.0,,998.6,120.0,25.3,29.45,96.13,22.0,25.27,,32.0,M,44.0,,GNR,1065417,2023-11-27 12:00:00+00:00,876.0,2.41,,
249362,2023-11-27 13:00:00+00:00,6.1,2023-11-27 12:56,38.0,38.0,,997.5,120.0,12.65,29.41,100.0,11.0,30.05,,26.0,M,34.0,,GNR,1065421,2023-11-27 13:00:00+00:00,887.0,2.42,,
249363,2023-11-27 14:00:00+00:00,4.32,2023-11-27 13:56,40.0,40.0,,995.9,120.0,13.8,29.37,100.0,12.0,32.18,,,M,26.0,,GNR,1065425,2023-11-27 14:00:00+00:00,887.0,2.42,,
249364,2023-11-27 15:00:00+00:00,1.52,2023-11-27 14:56,41.0,41.0,,995.6,140.0,6.9,29.36,100.0,6.0,36.37,,17.0,M,,,GNR,1065429,2023-11-27 15:00:00+00:00,887.0,2.42,,
249365,2023-11-27 16:00:00+00:00,0.25,2023-11-27 15:56,40.0,38.0,,996.7,,3.45,29.39,92.49,3.0,37.83,,,M,,,GNR,1065433,2023-11-27 16:00:00+00:00,887.0,2.42,,
249366,2023-11-27 17:00:00+00:00,0.25,2023-11-27 16:56,42.0,35.0,,996.9,,6.9,29.4,76.03,6.0,37.57,,20.0,M,,,GNR,1065437,2023-11-27 17:00:00+00:00,897.0,2.43,,
249367,2023-11-27 18:00:00+00:00,0.0,2023-11-27 17:56,40.0,33.0,,997.7,280.0,10.35,29.43,75.84,9.0,33.46,,18.0,M,,,GNR,1065441,2023-11-27 18:00:00+00:00,908.0,2.44,,
249368,2023-11-27 19:00:00+00:00,0.0,2023-11-27 18:56,39.0,33.0,,998.5,300.0,5.75,29.45,78.86,5.0,34.71,,,M,,,GNR,1065445,2023-11-27 19:00:00+00:00,908.0,2.44,,
249369,2023-11-27 20:00:00+00:00,0.0,2023-11-27 19:56,37.0,32.0,,999.5,,5.75,29.47,81.93,5.0,32.33,,,M,,,GNR,1065449,2023-11-27 20:00:00+00:00,930.0,2.46,,
249370,2023-11-27 21:00:00+00:00,0.0,2023-11-27 20:56,36.0,30.0,,1000.0,,,29.49,78.6,,,,,M,,,GNR,1065453,2023-11-27 21:00:00+00:00,942.0,2.47,,
249371,2023-11-27 22:00:00+00:00,0.0,2023-11-27 21:56,34.0,30.0,,1000.7,,5.75,29.51,85.11,5.0,28.77,,19.0,M,,,GNR,1065457,2023-11-27 22:00:00+00:00,953.0,2.48,,
249372,2023-11-27 23:00:00+00:00,0.0,2023-11-27 22:56,35.0,28.0,,1001.1,,,29.52,75.36,,,,,M,,,GNR,1065461,2023-11-27 23:00:00+00:00,953.0,2.48,,
249373,2023-11-28 00:00:00+00:00,0.0,2023-11-27 23:56,34.0,26.0,,1001.1,290.0,8.05,29.52,72.22,7.0,27.22,,16.0,M,,,GNR,1065465,2023-11-28 00:00:00+00:00,6710.0,5.54,,
249374,2023-11-28 01:00:00+00:00,0.0,2023-11-28 00:56,34.0,26.0,,1000.8,290.0,9.2,29.51,72.22,8.0,26.58,,18.0,M,,,GNR,1065469,2023-11-28 01:00:00+00:00,9210.0,6.54,,
249375,2023-11-28 02:00:00+00:00,0.0,2023-11-28 01:56,34.0,26.0,,1000.9,310.0,9.2,29.52,72.22,8.0,26.58,,,M,,,GNR,1065473,2023-11-28 02:00:00+00:00,9240.0,6.55,,
249376,2023-11-28 03:00:00+00:00,0.0,2023-11-28 02:56,33.0,23.0,,1000.7,300.0,11.5,29.51,66.32,10.0,24.22,,19.0,M,,,GNR,1065477,2023-11-28 03:00:00+00:00,4320.0,4.5,,
249377,2023-11-28 04:00:00+00:00,0.0,2023-11-28 03:56,31.0,23.0,,1000.3,,4.6,29.5,71.89,4.0,26.25,,,M,,,GNR,1065481,2023-11-28 04:00:00+00:00,1810.0,3.15,,
249378,2023-11-28 05:00:00+00:00,0.0,2023-11-28 04:56,32.0,24.0,,1000.1,,4.6,29.49,72.0,4.0,27.42,,,M,,,GNR,1065485,2023-11-28 05:00:00+00:00,1170.0,2.67,,
249379,2023-11-28 06:00:00+00:00,0.0,2023-11-28 05:56,31.0,23.0,,1000.0,,6.9,29.49,71.89,6.0,24.33,,,M,,,GNR,1065489,2023-11-28 06:00:00+00:00,1040.0,2.56,,
249380,2023-11-28 07:00:00+00:00,0.0,2023-11-28 06:56,30.0,23.0,,1000.1,,4.6,29.49,74.87,4.0,25.08,,,M,,,GNR,1065493,2023-11-28 07:00:00+00:00,1020.0,2.54,,
249381,2023-11-28 08:00:00+00:00,0.0,2023-11-28 07:56,30.0,23.0,,999.6,,3.45,29.48,74.87,3.0,26.4,,,M,,,GNR,1065497,2023-11-28 08:00:00+00:00,1020.0,2.54,,
249382,2023-11-28 09:00:00+00:00,0.0,2023-11-28 08:56,28.0,23.0,,999.3,0.0,0.0,29.46,81.25,0.0,28.0,,,M,,,GNR,1065501,2023-11-28 09:00:00+00:00,1020.0,2.54,,
249383,2023-11-28 10:00:00+00:00,0.0,2023-11-28 09:56,27.0,20.0,,999.4,,3.45,29.46,74.57,3.0,22.97,,,M,,,GNR,1065505,2023-11-28 10:00:00+00:00,1020.0,2.54,,
249384,2023-11-28 11:00:00+00:00,0.0,2023-11-28 10:56,26.0,19.0,,999.4,,3.45,29.46,74.46,3.0,21.83,,,M,,,GNR,1065509,2023-11-28 11:00:00+00:00,1020.0,2.54,,
249385,2023-11-28 12:00:00+00:00,0.0,2023-11-28 11:56,25.0,17.0,,999.5,,6.9,29.46,71.22,6.0,17.1,,,M,,,GNR,1065513,2023-11-28 12:00:00+00:00,1020.0,2.54,,
249386,2023-11-28 13:00:00+00:00,0.0,2023-11-28 12:56,28.0,18.0,,999.6,,3.45,29.47,65.69,3.0,24.12,,,M,,,GNR,1065517,2023-11-28 13:00:00+00:00,1010.0,2.53,,
249387,2023-11-28 14:00:00+00:00,0.0,2023-11-28 13:56,28.0,18.0,,999.5,290.0,5.75,29.47,65.69,5.0,21.64,,,M,,,GNR,1065521,2023-11-28 14:00:00+00:00,1020.0,2.54,,
249388,2023-11-28 15:00:00+00:00,0.0,2023-11-28 14:56,28.0,21.0,,999.5,310.0,6.9,29.47,74.67,6.0,20.71,,,M,,,GNR,1065525,2023-11-28 15:00:00+00:00,1020.0,2.54,,
249389,2023-11-28 16:00:00+00:00,0.0,2023-11-28 15:56,30.0,16.0,,998.9,280.0,8.05,29.45,55.52,7.0,22.34,,,M,,,GNR,1065529,2023-11-28 16:00:00+00:00,1020.0,2.54,2023-11-28 16:00:00+00:00,gs://gcp-public-data-sentinel-2/tiles/19/T/DL/S2A_MSIL1C_20231128T154601_N0509_R011_T19TDL_20231128T192100.SAFE
249390,2023-11-28 17:00:00+00:00,0.0,2023-11-28 16:56,27.0,11.0,,999.0,,,29.45,50.39,,,,,M,,,GNR,1065533,2023-11-28 17:00:00+00:00,1020.0,2.54,,
249391,2023-11-28 18:00:00+00:00,0.0,2023-11-28 17:56,28.0,11.0,,998.6,,4.6,29.44,48.36,4.0,22.75,,,M,,,GNR,1065537,2023-11-28 18:00:00+00:00,1020.0,2.54,,
249392,2023-11-28 19:00:00+00:00,0.0,2023-11-28 18:56,26.0,13.0,,998.9,,,29.44,57.38,,,,,M,,,GNR,1065541,2023-11-28 19:00:00+00:00,1020.0,2.54,,
249393,2023-11-28 20:00:00+00:00,0.0,2023-11-28 19:56,25.0,10.0,,999.1,,,29.45,52.36,,,,,M,,,GNR,1065545,2023-11-28 20:00:00+00:00,1020.0,2.54,,
249394,2023-11-28 21:00:00+00:00,0.0,2023-11-28 20:56,25.0,13.0,,999.6,0.0,0.0,29.46,59.82,0.0,25.0,,,M,,,GNR,1065549,2023-11-28 21:00:00+00:00,1020.0,2.54,,
249395,2023-11-28 22:00:00+00:00,0.0,2023-11-28 21:56,24.0,14.0,,999.8,,,29.47,65.17,,,,,M,,,GNR,1065553,2023-11-28 22:00:00+00:00,1010.0,2.53,,
249396,2023-11-28 23:00:00+00:00,0.0,2023-11-28 22:56,23.0,12.0,,1000.2,,,29.48,62.23,,,,,M,,,GNR,1065557,2023-11-28 23:00:00+00:00,1010.0,2.53,,
249397,2023-11-29 00:00:00+00:00,0.0,2023-11-28 23:56,23.0,12.0,,1000.6,,5.75,29.49,62.23,5.0,15.71,,,M,,,GNR,1065561,2023-11-29 00:00:00+00:00,1010.0,2.53,,
249398,2023-11-29 01:00:00+00:00,0.0,2023-11-29 00:56,21.0,12.0,,1000.5,290.0,8.05,29.48,67.71,7.0,11.37,,19.0,M,,,GNR,1065565,2023-11-29 01:00:00+00:00,9240.0,6.55,,
249399,2023-11-29 02:00:00+00:00,0.0,2023-11-29 01:56,20.0,11.0,,1001.1,300.0,10.35,29.5,67.58,9.0,8.59,,23.0,M,,,GNR,1065569,2023-11-29 02:00:00+00:00,9310.0,6.58,,
249400,2023-11-29 03:00:00+00:00,0.0,2023-11-29 02:56,19.0,10.0,,1002.1,300.0,9.2,29.53,67.46,8.0,8.1,,24.0,M,28.0,,GNR,1065573,2023-11-29 03:00:00+00:00,4400.0,4.54,,
249401,2023-11-29 04:00:00+00:00,0.0,2023-11-29 03:56,19.0,9.0,,1002.6,290.0,9.2,29.55,64.5,8.0,8.1,,,M,,,GNR,1065577,2023-11-29 04:00:00+00:00,1840.0,3.17,,
249402,2023-11-29 05:00:00+00:00,0.0,2023-11-29 04:56,17.0,8.0,,1003.4,300.0,14.95,29.56,67.2,13.0,2.35,,27.0,M,27.0,,GNR,1065581,2023-11-29 05:00:00+00:00,1170.0,2.67,,
249403,2023-11-29 06:00:00+00:00,0.0,2023-11-29 05:56,17.0,8.0,,1004.1,300.0,12.65,29.59,67.2,11.0,3.51,,22.0,M,,,GNR,1065585,2023-11-29 06:00:00+00:00,1020.0,2.54,,
249404,2023-11-29 07:00:00+00:00,0.0,2023-11-29 06:56,17.0,8.0,,1004.8,300.0,8.05,29.6,67.2,7.0,6.5,,,M,,,GNR,1065589,2023-11-29 07:00:00+00:00,999.0,2.52,,
249405,2023-11-29 08:00:00+00:00,0.0,2023-11-29 07:56,17.0,8.0,,1005.3,280.0,8.05,29.62,67.2,7.0,6.5,,,M,,,GNR,1065593,2023-11-29 08:00:00+00:00,987.0,2.51,,
249406,2023-11-29 09:00:00+00:00,0.0,2023-11-29 08:56,17.0,8.0,,1006.1,300.0,12.65,29.64,67.2,11.0,3.51,,24.0,M,,,GNR,1065597,2023-11-29 09:00:00+00:00,976.0,2.5,,
249407,2023-11-29 10:00:00+00:00,0.0,2023-11-29 09:56,17.0,8.0,,1006.7,290.0,10.35,29.66,67.2,9.0,4.86,,21.0,M,31.0,,GNR,1065601,2023-11-29 10:00:00+00:00,964.0,2.49,,
249408,2023-11-29 11:00:00+00:00,0.0,2023-11-29 10:56,16.0,9.0,,1007.7,300.0,9.2,29.69,73.41,8.0,4.4,,22.0,M,,,GNR,1065605,2023-11-29 11:00:00+00:00,953.0,2.48,,
249409,2023-11-29 12:00:00+00:00,0.0,2023-11-29 11:56,17.0,8.0,,1008.7,310.0,13.8,29.72,67.2,12.0,2.91,,21.0,M,,,GNR,1065609,2023-11-29 12:00:00+00:00,953.0,2.48,,
249410,2023-11-29 13:00:00+00:00,0.0,2023-11-29 12:56,16.0,7.0,,1009.8,310.0,12.65,29.74,67.07,11.0,2.25,,22.0,M,,,GNR,1065613,2023-11-29 13:00:00+00:00,942.0,2.47,,
249411,2023-11-29 14:00:00+00:00,0.0,2023-11-29 13:56,16.0,7.0,,1010.6,300.0,10.35,29.76,67.07,9.0,3.62,,21.0,M,,,GNR,1065617,2023-11-29 14:00:00+00:00,953.0,2.48,,
249412,2023-11-29 15:00:00+00:00,0.0,2023-11-29 14:56,20.0,7.0,,1010.8,,,29.78,56.47,,,,,M,,,GNR,1065621,2023-11-29 15:00:00+00:00,2790.0,3.74,,
249413,2023-11-29 16:00:00+00:00,0.0,2023-11-29 15:56,20.0,5.0,,1010.7,300.0,11.5,29.77,51.55,10.0,7.92,,22.0,M,26.0,,GNR,1065625,2023-11-29 16:00:00+00:00,1930.0,3.23,,
249414,2023-11-29 17:00:00+00:00,0.0,2023-11-29 16:56,20.0,5.0,,1011.1,300.0,11.5,29.78,51.55,10.0,7.92,,21.0,M,,,GNR,1065629,2023-11-29 17:00:00+00:00,1200.0,2.7,,
249415,2023-11-29 18:00:00+00:00,0.0,2023-11-29 17:56,20.0,6.0,,1011.4,,5.75,29.79,53.96,5.0,12.14,,19.0,M,,,GNR,1065633,2023-11-29 18:00:00+00:00,1020.0,2.54,,
249416,2023-11-29 19:00:00+00:00,0.0,2023-11-29 18:56,21.0,6.0,,1011.5,310.0,5.75,29.8,51.72,5.0,13.33,,,M,,,GNR,1065637,2023-11-29 19:00:00+00:00,987.0,2.51,,
249417,2023-11-29 20:00:00+00:00,0.0,2023-11-29 19:56,20.0,6.0,,1011.8,,3.45,29.8,53.96,3.0,14.97,,,M,,,GNR,1065641,2023-11-29 20:00:00+00:00,976.0,2.5,,
249418,2023-11-29 21:00:00+00:00,0.0,2023-11-29 20:56,18.0,5.0,,1012.2,0.0,0.0,29.81,56.16,0.0,18.0,,,M,,,GNR,1065645,2023-11-29 21:00:00+00:00,976.0,2.5,,
249419,2023-11-29 22:00:00+00:00,0.0,2023-11-29 21:56,17.0,5.0,,1012.9,0.0,0.0,29.83,58.64,0.0,17.0,,,M,,,GNR,1065649,2023-11-29 22:00:00+00:00,964.0,2.49,,
249420,2023-11-29 23:00:00+00:00,0.0,2023-11-29 22:56,16.0,5.0,,1013.1,0.0,0.0,29.84,61.23,0.0,16.0,,,M,,,GNR,1065653,2023-11-29 23:00:00+00:00,964.0,2.49,,
249421,2023-11-30 00:00:00+00:00,0.0,2023-11-29 23:56,16.0,6.0,,1013.0,0.0,0.0,29.83,64.09,0.0,16.0,,,M,,,GNR,1065657,2023-11-30 00:00:00+00:00,7080.0,5.69,,
249422,2023-11-30 01:00:00+00:00,0.0,2023-11-30 00:56,13.0,6.0,,1013.7,0.0,0.0,29.85,73.08,0.0,13.0,,,M,,,GNR,1065661,2023-11-30 01:00:00+00:00,9190.0,6.53,,
249423,2023-11-30 02:00:00+00:00,0.0,2023-11-30 01:56,16.0,7.0,,1013.5,0.0,0.0,29.85,67.07,0.0,16.0,,,M,,,GNR,1065665,2023-11-30 02:00:00+00:00,9210.0,6.54,,
249424,2023-11-30 03:00:00+00:00,0.0,2023-11-30 02:56,18.0,9.0,,1013.3,0.0,0.0,29.85,67.33,0.0,18.0,,,M,,,GNR,1065669,2023-11-30 03:00:00+00:00,4960.0,4.8,,
249425,2023-11-30 04:00:00+00:00,0.0,2023-11-30 03:56,18.0,10.0,,1013.8,,3.45,29.86,70.41,3.0,12.68,,,M,,,GNR,1065673,2023-11-30 04:00:00+00:00,2070.0,3.32,,
249426,2023-11-30 05:00:00+00:00,0.0,2023-11-30 04:56,19.0,10.0,,1013.4,150.0,3.45,29.85,67.46,3.0,13.83,,,M,,,GNR,1065677,2023-11-30 05:00:00+00:00,1220.0,2.71,,
249427,2023-11-30 06:00:00+00:00,0.0,2023-11-30 05:56,21.0,11.0,,1013.3,0.0,0.0,29.85,64.77,0.0,21.0,,,M,,,GNR,1065681,2023-11-30 06:00:00+00:00,987.0,2.51,,
249428,2023-11-30 07:00:00+00:00,0.0,2023-11-30 06:56,20.0,12.0,,1013.0,0.0,0.0,29.84,70.65,0.0,20.0,,,M,,,GNR,1065685,2023-11-30 07:00:00+00:00,964.0,2.49,,
249429,2023-11-30 08:00:00+00:00,0.0,2023-11-30 07:56,20.0,12.0,,1012.8,160.0,5.75,29.83,70.65,5.0,12.14,,,M,,,GNR,1065689,2023-11-30 08:00:00+00:00,953.0,2.48,,
249430,2023-11-30 09:00:00+00:00,0.0,2023-11-30 08:56,20.0,12.0,,1012.8,140.0,4.6,29.83,70.65,4.0,13.41,,,M,,,GNR,1065693,2023-11-30 09:00:00+00:00,953.0,2.48,,
249431,2023-11-30 10:00:00+00:00,0.0,2023-11-30 09:56,20.0,12.0,,1012.9,140.0,6.9,29.84,70.65,6.0,11.08,,,M,,,GNR,1065697,2023-11-30 10:00:00+00:00,942.0,2.47,,
249432,2023-11-30 11:00:00+00:00,0.0,2023-11-30 10:56,20.0,13.0,,1013.9,160.0,3.45,29.86,73.84,3.0,14.97,,,M,,,GNR,1065701,2023-11-30 11:00:00+00:00,942.0,2.47,,
249433,2023-11-30 12:00:00+00:00,0.0,2023-11-30 11:56,20.0,13.0,,1014.2,150.0,4.6,29.87,73.84,4.0,13.41,,,M,,,GNR,1065705,2023-11-30 12:00:00+00:00,942.0,2.47,,
249434,2023-11-30 13:00:00+00:00,0.0,2023-11-30 12:56,22.0,14.0,,1014.6,170.0,4.6,29.88,70.88,4.0,15.74,,,M,,,GNR,1065709,2023-11-30 13:00:00+00:00,930.0,2.46,,
249435,2023-11-30 14:00:00+00:00,0.0,2023-11-30 13:56,24.0,15.0,,1014.6,,3.45,29.89,68.08,3.0,19.54,,,M,,,GNR,1065713,2023-11-30 14:00:00+00:00,8500.0,6.26,,
249436,2023-11-30 15:00:00+00:00,0.0,2023-11-30 14:56,26.0,17.0,,1014.7,,3.45,29.89,68.32,3.0,21.83,,,M,,,GNR,1065717,2023-11-30 15:00:00+00:00,9290.0,6.57,,
249437,2023-11-30 16:00:00+00:00,0.0,2023-11-30 15:56,29.0,19.0,,1014.4,200.0,5.75,29.89,65.81,5.0,22.83,,,M,,,GNR,1065721,2023-11-30 16:00:00+00:00,9310.0,6.58,2023-11-30 16:00:00+00:00,gs://gcp-public-data-sentinel-2/tiles/19/T/DL/S2B_MSIL1C_20231130T153609_N0509_R111_T19TDL_20231130T190900.SAFE
249438,2023-11-30 17:00:00+00:00,0.0,2023-11-30 16:56,32.0,21.0,,1013.5,180.0,8.05,29.87,63.45,7.0,24.78,,,M,,,GNR,1065725,2023-11-30 17:00:00+00:00,4530.0,4.6,,
249439,2023-11-30 18:00:00+00:00,0.0,2023-11-30 17:56,34.0,22.0,,1013.3,200.0,4.6,29.86,61.09,4.0,29.76,,,M,,,GNR,1065729,2023-11-30 18:00:00+00:00,1860.0,3.18,,
249440,2023-11-30 19:00:00+00:00,0.0,2023-11-30 18:56,33.0,22.0,,1013.3,180.0,5.75,29.86,63.59,5.0,27.58,,,M,,,GNR,1065733,2023-11-30 19:00:00+00:00,1150.0,2.65,,
249441,2023-11-30 20:00:00+00:00,0.0,2023-11-30 19:56,34.0,21.0,,1013.7,,,29.87,58.56,,,,,M,,,GNR,1065737,2023-11-30 20:00:00+00:00,976.0,2.5,,
249442,2023-11-30 21:00:00+00:00,0.0,2023-11-30 20:56,31.0,21.0,,1013.9,170.0,5.75,29.88,66.07,5.0,25.21,,,M,,,GNR,1065741,2023-11-30 21:00:00+00:00,964.0,2.49,,
249443,2023-11-30 22:00:00+00:00,0.0,2023-11-30 21:56,30.0,21.0,,1014.0,160.0,5.75,29.88,68.81,5.0,24.02,,,M,,,GNR,1065745,2023-11-30 22:00:00+00:00,953.0,2.48,,
249444,2023-11-30 23:00:00+00:00,0.0,2023-11-30 22:56,28.0,20.0,,1014.3,160.0,4.6,29.88,71.56,4.0,22.75,,,M,,,GNR,1065749,2023-11-30 23:00:00+00:00,953.0,2.48,,
249445,2023-12-01 00:00:00+00:00,0.0,2023-11-30 23:56,28.0,20.0,,1014.0,150.0,9.2,29.88,71.56,8.0,19.19,,,M,,,GNR,1065753,2023-12-01 00:00:00+00:00,942.0,2.47,,
249446,2023-12-01 01:00:00+00:00,0.0,2023-12-01 00:56,28.0,20.0,,1013.9,170.0,4.6,29.88,71.56,4.0,22.75,,,M,,,GNR,1065757,2023-12-01 01:00:00+00:00,942.0,2.47,,
249447,2023-12-01 02:00:00+00:00,0.0,2023-12-01 01:56,28.0,20.0,,1013.5,170.0,4.6,29.87,71.56,4.0,22.75,,,M,,,GNR,1065761,2023-12-01 02:00:00+00:00,942.0,2.47,,
249448,2023-12-01 03:00:00+00:00,0.0,2023-12-01 02:56,28.0,21.0,,1012.9,160.0,5.75,29.85,74.67,5.0,21.64,,,M,,,GNR,1065765,2023-12-01 03:00:00+00:00,930.0,2.46,,
249449,2023-12-01 04:00:00+00:00,0.0,2023-12-01 03:56,27.0,21.0,,1013.0,140.0,8.05,29.86,77.8,7.0,18.68,,,M,,,GNR,1065769,2023-12-01 04:00:00+00:00,930.0,2.46,,
249450,2023-12-01 05:00:00+00:00,0.0,2023-12-01 04:56,29.0,22.0,,1013.2,,4.6,29.87,74.77,4.0,23.92,,,M,,,GNR,1065773,2023-12-01 05:00:00+00:00,930.0,2.46,,
249451,2023-12-01 06:00:00+00:00,0.0,2023-12-01 05:56,29.0,22.0,,1012.8,160.0,3.45,29.86,74.77,3.0,25.26,,,M,,,GNR,1065777,2023-12-01 06:00:00+00:00,919.0,2.45,,
249452,2023-12-01 07:00:00+00:00,0.0,2023-12-01 06:56,30.0,22.0,,1013.4,140.0,3.45,29.88,71.78,3.0,26.4,,,M,,,GNR,1065781,2023-12-01 07:00:00+00:00,919.0,2.45,,
249453,2023-12-01 08:00:00+00:00,0.0,2023-12-01 07:56,29.0,22.0,,1013.8,130.0,6.9,29.89,74.77,6.0,21.92,,,M,,,GNR,1065785,2023-12-01 08:00:00+00:00,919.0,2.45,,
249454,2023-12-01 09:00:00+00:00,0.0,2023-12-01 08:56,30.0,23.0,,1014.3,110.0,3.45,29.9,74.87,3.0,26.4,,,M,,,GNR,1065789,2023-12-01 09:00:00+00:00,919.0,2.45,,
249455,2023-12-01 10:00:00+00:00,0.0,2023-12-01 09:56,30.0,23.0,,1014.7,90.0,3.45,29.91,74.87,3.0,26.4,,,M,,,GNR,1065793,2023-12-01 10:00:00+00:00,908.0,2.44,,
249456,2023-12-01 11:00:00+00:00,0.0,2023-12-01 10:56,32.0,23.0,,1014.7,120.0,3.45,29.91,69.04,3.0,28.69,,,M,,,GNR,1065797,2023-12-01 11:00:00+00:00,908.0,2.44,,
249457,2023-12-01 12:00:00+00:00,0.0,2023-12-01 11:56,34.0,25.0,,1015.4,,3.45,29.93,69.28,3.0,30.97,,,M,,,GNR,1065801,2023-12-01 12:00:00+00:00,908.0,2.44,,
249458,2023-12-01 13:00:00+00:00,0.0,2023-12-01 12:56,36.0,26.0,,1015.8,,4.6,29.95,66.69,4.0,32.09,,,M,,,GNR,1065805,2023-12-01 13:00:00+00:00,908.0,2.44,,
249459,2023-12-01 14:00:00+00:00,0.0,2023-12-01 13:56,38.0,28.0,,1016.1,0.0,0.0,29.96,66.94,0.0,38.0,,,M,,,GNR,1065809,2023-12-01 14:00:00+00:00,908.0,2.44,,
249460,2023-12-01 15:00:00+00:00,0.0,2023-12-01 14:56,40.0,29.0,,1016.2,190.0,3.45,29.96,64.5,3.0,37.83,,,M,,,GNR,1065813,2023-12-01 15:00:00+00:00,908.0,2.44,,
249461,2023-12-01 16:00:00+00:00,0.0,2023-12-01 15:56,42.0,29.0,,1016.2,0.0,0.0,29.96,59.69,0.0,42.0,,,M,,,GNR,1065817,2023-12-01 16:00:00+00:00,908.0,2.44,,
249462,2023-12-01 17:00:00+00:00,0.0,2023-12-01 16:56,42.0,30.0,,1016.1,0.0,0.0,29.96,62.18,0.0,42.0,,,M,,,GNR,1065821,2023-12-01 17:00:00+00:00,908.0,2.44,,
249463,2023-12-01 18:00:00+00:00,0.0,2023-12-01 17:56,44.0,30.0,,1016.2,,3.45,29.96,57.59,3.0,42.41,,,M,,,GNR,1065825,2023-12-01 18:00:00+00:00,908.0,2.44,,
249464,2023-12-01 19:00:00+00:00,0.0,2023-12-01 18:56,44.0,31.0,,1016.2,0.0,0.0,29.97,59.97,0.0,44.0,,,M,,,GNR,1065829,2023-12-01 19:00:00+00:00,908.0,2.44,,
249465,2023-12-01 20:00:00+00:00,0.0,2023-12-01 19:56,42.0,31.0,,1016.8,0.0,0.0,29.98,64.75,0.0,42.0,,,M,,,GNR,1065833,2023-12-01 20:00:00+00:00,908.0,2.44,,
249466,2023-12-01 21:00:00+00:00,0.0,2023-12-01 20:56,42.0,31.0,,1017.2,200.0,4.6,29.99,64.75,4.0,39.1,,,M,,,GNR,1065837,2023-12-01 21:00:00+00:00,908.0,2.44,,
249467,2023-12-01 22:00:00+00:00,0.0,2023-12-01 21:56,41.0,31.0,,1017.4,190.0,3.45,30.0,67.3,3.0,38.98,,,M,,,GNR,1065841,2023-12-01 22:00:00+00:00,908.0,2.44,,
249468,2023-12-01 23:00:00+00:00,0.0,2023-12-01 22:56,37.0,31.0,,1017.7,0.0,0.0,30.0,78.69,0.0,37.0,,,M,,,GNR,1065845,2023-12-01 23:00:00+00:00,908.0,2.44,,
249469,2023-12-02 00:00:00+00:00,0.0,2023-12-01 23:56,38.0,31.0,,1017.4,0.0,0.0,30.0,75.65,0.0,38.0,,,M,,,GNR,1065849,2023-12-02 00:00:00+00:00,2830.0,3.76,,
249470,2023-12-02 01:00:00+00:00,0.0,2023-12-02 00:56,37.0,31.0,,1017.2,0.0,0.0,30.0,78.69,0.0,37.0,,,M,,,GNR,1065853,2023-12-02 01:00:00+00:00,9010.0,6.46,,
249471,2023-12-02 02:00:00+00:00,0.51,2023-12-02 01:56,37.0,33.0,,1017.2,0.0,0.0,30.0,85.29,0.0,37.0,,,M,,,GNR,1065857,2023-12-02 02:00:00+00:00,4260.0,4.47,,
249472,2023-12-02 03:00:00+00:00,1.52,2023-12-02 02:56,36.0,34.0,,1016.5,,3.45,29.97,92.35,3.0,33.26,,,M,,,GNR,1065861,2023-12-02 03:00:00+00:00,1780.0,3.13,,
249473,2023-12-02 04:00:00+00:00,1.27,2023-12-02 03:56,36.0,35.0,,1016.0,110.0,4.6,29.96,96.11,4.0,32.09,,,M,,,GNR,1065865,2023-12-02 04:00:00+00:00,1110.0,2.62,,
249474,2023-12-02 05:00:00+00:00,0.51,2023-12-02 04:56,36.0,35.0,,1015.4,130.0,4.6,29.94,96.11,4.0,32.09,,,M,,,GNR,1065869,2023-12-02 05:00:00+00:00,953.0,2.48,,
249475,2023-12-02 06:00:00+00:00,0.25,2023-12-02 05:56,36.0,36.0,,1014.9,150.0,3.45,29.93,100.0,3.0,33.26,,,M,,,GNR,1065873,2023-12-02 06:00:00+00:00,930.0,2.46,,
249476,2023-12-02 07:00:00+00:00,0.25,2023-12-02 06:56,36.0,35.0,,1014.9,130.0,5.75,29.93,96.11,5.0,31.15,,,M,,,GNR,1065877,2023-12-02 07:00:00+00:00,930.0,2.46,,
249477,2023-12-02 08:00:00+00:00,0.25,2023-12-02 07:56,34.0,33.0,,1015.0,0.0,0.0,29.93,96.08,0.0,34.0,,,M,,,GNR,1065881,2023-12-02 08:00:00+00:00,930.0,2.46,,
249478,2023-12-02 09:00:00+00:00,0.25,2023-12-02 08:56,34.0,34.0,,1014.5,0.0,0.0,29.92,100.0,0.0,34.0,,,M,,,GNR,1065885,2023-12-02 09:00:00+00:00,930.0,2.46,,
249479,2023-12-02 10:00:00+00:00,0.0,2023-12-02 09:56,34.0,34.0,,1014.6,140.0,3.45,29.92,100.0,3.0,30.97,,,M,,,GNR,1065889,2023-12-02 10:00:00+00:00,930.0,2.46,,
249480,2023-12-02 11:00:00+00:00,0.25,2023-12-02 10:56,34.0,34.0,,1014.7,0.0,0.0,29.92,100.0,0.0,34.0,,,M,,,GNR,1065893,2023-12-02 11:00:00+00:00,930.0,2.46,,
249481,2023-12-02 12:00:00+00:00,0.0,2023-12-02 11:56,34.0,34.0,,1014.5,0.0,0.0,29.91,100.0,0.0,34.0,,,M,,,GNR,1065897,2023-12-02 12:00:00+00:00,930.0,2.46,,
249482,2023-12-02 13:00:00+00:00,0.0,2023-12-02 12:56,35.0,34.0,,1014.6,0.0,0.0,29.92,96.09,0.0,35.0,,,M,,,GNR,1065901,2023-12-02 13:00:00+00:00,930.0,2.46,,
249483,2023-12-02 14:00:00+00:00,0.0,2023-12-02 13:56,35.0,33.0,,1014.3,40.0,4.6,29.91,92.32,4.0,30.92,,,M,,,GNR,1065905,2023-12-02 14:00:00+00:00,930.0,2.46,,
249484,2023-12-02 15:00:00+00:00,0.0,2023-12-02 14:56,35.0,35.0,,1014.5,0.0,0.0,29.91,100.0,0.0,35.0,,,M,,,GNR,1065909,2023-12-02 15:00:00+00:00,930.0,2.46,,
249485,2023-12-02 16:00:00+00:00,0.0,2023-12-02 15:56,35.0,34.0,,1013.9,30.0,3.45,29.9,96.09,3.0,32.12,,,M,,,GNR,1065913,2023-12-02 16:00:00+00:00,930.0,2.46,,
249486,2023-12-02 17:00:00+00:00,0.25,2023-12-02 16:56,35.0,34.0,,1013.7,320.0,8.05,29.89,96.09,7.0,28.44,,,M,,,GNR,1065917,2023-12-02 17:00:00+00:00,942.0,2.47,,
249487,2023-12-02 18:00:00+00:00,0.0,2023-12-02 17:56,36.0,34.0,,1013.8,330.0,6.9,29.89,92.35,6.0,30.35,,,M,,,GNR,1065921,2023-12-02 18:00:00+00:00,942.0,2.47,,
249488,2023-12-02 19:00:00+00:00,0.25,2023-12-02 18:56,35.0,34.0,,1014.1,320.0,9.2,29.9,96.09,8.0,27.81,,,M,,,GNR,1065925,2023-12-02 19:00:00+00:00,942.0,2.47,,
249489,2023-12-02 20:00:00+00:00,0.0,2023-12-02 19:56,34.0,33.0,,1015.0,320.0,8.05,29.93,96.08,7.0,27.22,,,M,,,GNR,1065929,2023-12-02 20:00:00+00:00,942.0,2.47,,
249490,2023-12-02 21:00:00+00:00,0.0,2023-12-02 20:56,34.0,32.0,,1015.4,340.0,8.05,29.94,92.29,7.0,27.22,,,M,,,GNR,1065933,2023-12-02 21:00:00+00:00,942.0,2.47,,
249491,2023-12-02 22:00:00+00:00,0.0,2023-12-02 21:56,33.0,32.0,,1016.1,320.0,8.05,29.96,96.06,7.0,26.0,,,M,,,GNR,1065937,2023-12-02 22:00:00+00:00,942.0,2.47,,
249492,2023-12-02 23:00:00+00:00,0.0,2023-12-02 22:56,33.0,32.0,,1016.6,,6.9,29.97,96.06,6.0,26.73,,,M,,,GNR,1065941,2023-12-02 23:00:00+00:00,942.0,2.47,,
249493,2023-12-03 00:00:00+00:00,0.0,2023-12-02 23:56,33.0,32.0,,1017.5,340.0,4.6,30.0,96.06,4.0,28.59,,,M,,,GNR,1065945,2023-12-03 00:00:00+00:00,3170.0,3.94,,
249494,2023-12-03 01:00:00+00:00,0.0,2023-12-03 00:56,33.0,32.0,,1018.1,0.0,0.0,30.02,96.06,0.0,33.0,,,M,,,GNR,1065949,2023-12-03 01:00:00+00:00,9140.0,6.51,,
249495,2023-12-03 02:00:00+00:00,0.0,2023-12-03 01:56,33.0,32.0,,1018.0,0.0,0.0,30.01,96.06,0.0,33.0,,,M,,,GNR,1065953,2023-12-03 02:00:00+00:00,4150.0,4.42,,
249496,2023-12-03 03:00:00+00:00,0.0,2023-12-03 02:56,32.0,31.0,,1017.9,0.0,0.0,30.01,96.04,0.0,32.0,,,M,,,GNR,1065957,2023-12-03 03:00:00+00:00,1770.0,3.12,,
249497,2023-12-03 04:00:00+00:00,0.0,2023-12-03 03:56,32.0,31.0,,1018.5,0.0,0.0,30.03,96.04,0.0,32.0,,,M,,,GNR,1065961,2023-12-03 04:00:00+00:00,1130.0,2.64,,
249498,2023-12-03 05:00:00+00:00,0.0,2023-12-03 04:56,32.0,31.0,,1018.7,140.0,3.45,30.03,96.04,3.0,28.69,,,M,,,GNR,1065965,2023-12-03 05:00:00+00:00,987.0,2.51,,
249499,2023-12-03 06:00:00+00:00,0.0,2023-12-03 05:56,32.0,30.0,,1018.7,110.0,4.6,30.03,92.22,4.0,27.42,,,M,,,GNR,1065969,2023-12-03 06:00:00+00:00,976.0,2.5,,
249500,2023-12-03 07:00:00+00:00,0.0,2023-12-03 06:56,32.0,30.0,,1019.3,130.0,4.6,30.05,92.22,4.0,27.42,,,M,,,GNR,1065973,2023-12-03 07:00:00+00:00,976.0,2.5,,
249501,2023-12-03 08:00:00+00:00,0.0,2023-12-03 07:56,32.0,30.0,,1019.2,90.0,6.9,30.05,92.22,6.0,25.53,,,M,,,GNR,1065977,2023-12-03 08:00:00+00:00,964.0,2.49,,
249502,2023-12-03 09:00:00+00:00,0.0,2023-12-03 08:56,31.0,29.0,,1019.3,110.0,6.9,30.05,92.19,6.0,24.33,,,M,,,GNR,1065981,2023-12-03 09:00:00+00:00,964.0,2.49,,
249503,2023-12-03 10:00:00+00:00,0.0,2023-12-03 09:56,31.0,29.0,,1019.4,120.0,5.75,30.05,92.19,5.0,25.21,,,M,,,GNR,1065985,2023-12-03 10:00:00+00:00,964.0,2.49,,
249504,2023-12-03 11:00:00+00:00,0.0,2023-12-03 10:56,31.0,29.0,,1019.0,120.0,8.05,30.04,92.19,7.0,23.56,,,M,,,GNR,1065989,2023-12-03 11:00:00+00:00,964.0,2.49,,
249505,2023-12-03 12:00:00+00:00,0.0,2023-12-03 11:56,31.0,30.0,,1019.5,140.0,4.6,30.05,96.02,4.0,26.25,,,M,,,GNR,1065993,2023-12-03 12:00:00+00:00,964.0,2.49,,
249506,2023-12-03 13:00:00+00:00,0.0,2023-12-03 12:56,31.0,29.0,,1019.4,130.0,8.05,30.05,92.19,7.0,23.56,,,M,,,GNR,1065997,2023-12-03 13:00:00+00:00,964.0,2.49,,
249507,2023-12-03 14:00:00+00:00,0.0,2023-12-03 13:56,31.0,28.0,,1018.7,120.0,6.9,30.03,88.48,6.0,24.33,,,M,,,GNR,1066001,2023-12-03 14:00:00+00:00,964.0,2.49,,
249508,2023-12-03 15:00:00+00:00,0.0,2023-12-03 14:56,31.0,25.0,,1017.9,110.0,12.65,30.01,78.16,11.0,21.2,,,M,,,GNR,1066005,2023-12-03 15:00:00+00:00,953.0,2.48,,
249509,2023-12-03 16:00:00+00:00,0.0,2023-12-03 15:56,31.0,25.0,,1018.1,90.0,6.9,30.01,78.16,6.0,24.33,,,M,,,GNR,1066009,2023-12-03 16:00:00+00:00,953.0,2.48,2023-12-03 16:00:00+00:00,gs://gcp-public-data-sentinel-2/tiles/19/T/DL/S2B_MSIL1C_20231203T154629_N0509_R011_T19TDL_20231203T192101.SAFE
249510,2023-12-03 17:00:00+00:00,0.0,2023-12-03 16:56,31.0,25.0,,1016.9,100.0,11.5,29.98,78.16,10.0,21.71,,,M,,,GNR,1066013,2023-12-03 17:00:00+00:00,953.0,2.48,,
249511,2023-12-03 18:00:00+00:00,0.0,2023-12-03 17:56,30.0,25.0,,1016.6,110.0,10.35,29.97,81.4,9.0,21.03,,,M,,,GNR,1066017,2023-12-03 18:00:00+00:00,953.0,2.48,,
249512,2023-12-03 19:00:00+00:00,0.0,2023-12-03 18:56,29.0,27.0,,1015.3,100.0,11.5,29.93,92.12,10.0,19.21,,,M,,,GNR,1066021,2023-12-03 19:00:00+00:00,953.0,2.48,,
249513,2023-12-03 20:00:00+00:00,0.76,2023-12-03 19:56,29.0,26.0,,1014.7,90.0,11.5,29.91,88.38,10.0,19.21,,,M,,,GNR,1066025,2023-12-03 20:00:00+00:00,953.0,2.48,,
249514,2023-12-03 21:00:00+00:00,0.76,2023-12-03 20:56,29.0,26.0,,1014.3,100.0,11.5,29.9,88.38,10.0,19.21,,,M,,,GNR,1066029,2023-12-03 21:00:00+00:00,953.0,2.48,,
249515,2023-12-03 22:00:00+00:00,0.25,2023-12-03 21:56,29.0,26.0,,1013.8,100.0,11.5,29.88,88.38,10.0,19.21,,,M,,,GNR,1066033,2023-12-03 22:00:00+00:00,953.0,2.48,,
249516,2023-12-03 23:00:00+00:00,0.0,2023-12-03 22:56,29.0,26.0,,1013.0,100.0,14.95,29.86,88.38,13.0,17.73,,19.0,M,,,GNR,1066037,2023-12-03 23:00:00+00:00,953.0,2.48,,
249517,2023-12-04 00:00:00+00:00,0.25,2023-12-03 23:56,28.0,25.0,,1012.2,100.0,13.8,29.83,88.33,12.0,16.91,,22.0,M,,,GNR,1066041,2023-12-04 00:00:00+00:00,6890.0,5.61,,
249518,2023-12-04 01:00:00+00:00,0.0,2023-12-04 00:56,28.0,25.0,,1011.5,110.0,14.95,29.81,88.33,13.0,16.44,,,M,,,GNR,1066045,2023-12-04 01:00:00+00:00,9110.0,6.5,,
249519,2023-12-04 02:00:00+00:00,0.25,2023-12-04 01:56,27.0,25.0,,1010.8,100.0,10.35,29.79,92.05,9.0,17.3,,18.0,M,,,GNR,1066049,2023-12-04 02:00:00+00:00,4080.0,4.39,,
249520,2023-12-04 03:00:00+00:00,1.02,2023-12-04 02:56,28.0,25.0,,1010.0,110.0,9.2,29.77,88.33,8.0,19.19,,,M,,,GNR,1066053,2023-12-04 03:00:00+00:00,1740.0,3.1,,
249521,2023-12-04 04:00:00+00:00,0.25,2023-12-04 03:56,27.0,24.0,,1009.4,90.0,10.35,29.75,88.28,9.0,17.3,,,M,,,GNR,1066057,2023-12-04 04:00:00+00:00,1120.0,2.63,,
249522,2023-12-04 05:00:00+00:00,0.0,2023-12-04 04:56,27.0,24.0,,1008.4,100.0,13.8,29.72,88.28,12.0,15.64,,21.0,M,,,GNR,1066061,2023-12-04 05:00:00+00:00,987.0,2.51,,
249523,2023-12-04 06:00:00+00:00,0.51,2023-12-04 05:56,27.0,24.0,,1007.6,90.0,10.35,29.7,88.28,9.0,17.3,,,M,,,GNR,1066065,2023-12-04 06:00:00+00:00,976.0,2.5,,
249524,2023-12-04 07:00:00+00:00,1.02,2023-12-04 06:56,27.0,24.0,,1007.8,90.0,3.45,29.7,88.28,3.0,22.97,,,M,,,GNR,1066069,2023-12-04 07:00:00+00:00,976.0,2.5,,
249525,2023-12-04 08:00:00+00:00,1.27,2023-12-04 07:56,26.0,24.0,,1006.7,70.0,8.05,29.67,92.01,7.0,17.47,,,M,,,GNR,1066073,2023-12-04 08:00:00+00:00,964.0,2.49,,
249526,2023-12-04 09:00:00+00:00,1.78,2023-12-04 08:56,26.0,23.0,,1006.1,0.0,0.0,29.65,88.23,0.0,26.0,,,M,,,GNR,1066077,2023-12-04 09:00:00+00:00,976.0,2.5,,
249527,2023-12-04 10:00:00+00:00,1.52,2023-12-04 09:56,26.0,23.0,,1005.8,100.0,3.45,29.65,88.23,3.0,21.83,,,M,,,GNR,1066081,2023-12-04 10:00:00+00:00,964.0,2.49,,
249528,2023-12-04 11:00:00+00:00,1.27,2023-12-04 10:56,25.0,23.0,,1006.1,70.0,5.75,29.65,91.97,5.0,18.08,,,M,,,GNR,1066085,2023-12-04 11:00:00+00:00,964.0,2.49,,
249529,2023-12-04 12:00:00+00:00,1.52,2023-12-04 11:56,25.0,22.0,,1005.9,60.0,6.9,29.64,88.18,6.0,17.1,,,M,,,GNR,1066089,2023-12-04 12:00:00+00:00,964.0,2.49,,
249530,2023-12-04 13:00:00+00:00,0.51,2023-12-04 12:56,26.0,22.0,,1006.5,90.0,4.6,29.66,84.59,4.0,20.41,,,M,,,GNR,1066093,2023-12-04 13:00:00+00:00,964.0,2.49,,
249531,2023-12-04 14:00:00+00:00,0.25,2023-12-04 13:56,26.0,23.0,,1006.8,80.0,8.05,29.67,88.23,7.0,17.47,,,M,,,GNR,1066097,2023-12-04 14:00:00+00:00,964.0,2.49,,
249532,2023-12-04 15:00:00+00:00,0.25,2023-12-04 14:56,26.0,22.0,,1006.8,60.0,6.9,29.67,84.59,6.0,18.3,,,M,,,GNR,1066101,2023-12-04 15:00:00+00:00,964.0,2.49,,
249533,2023-12-04 16:00:00+00:00,0.25,2023-12-04 15:56,27.0,23.0,,1006.3,90.0,9.2,29.66,84.66,8.0,17.95,,,M,,,GNR,1066105,2023-12-04 16:00:00+00:00,964.0,2.49,,
249534,2023-12-04 17:00:00+00:00,0.25,2023-12-04 16:56,27.0,23.0,,1006.1,100.0,8.05,29.65,84.66,7.0,18.68,,,M,,,GNR,1066109,2023-12-04 17:00:00+00:00,953.0,2.48,,
249535,2023-12-04 18:00:00+00:00,0.25,2023-12-04 17:56,26.0,22.0,,1006.1,110.0,8.05,29.65,84.59,7.0,17.47,,,M,,,GNR,1066113,2023-12-04 18:00:00+00:00,964.0,2.49,,
249536,2023-12-04 19:00:00+00:00,0.51,2023-12-04 18:56,26.0,23.0,,1006.3,100.0,8.05,29.66,88.23,7.0,17.47,,,M,,,GNR,1066117,2023-12-04 19:00:00+00:00,964.0,2.49,,
249537,2023-12-04 20:00:00+00:00,0.25,2023-12-04 19:56,25.0,23.0,,1006.5,110.0,3.45,29.66,91.97,3.0,20.69,,,M,,,GNR,1066121,2023-12-04 20:00:00+00:00,964.0,2.49,,
249538,2023-12-04 21:00:00+00:00,0.25,2023-12-04 20:56,24.0,21.0,,1007.1,100.0,4.6,29.68,88.13,4.0,18.08,,,M,,,GNR,1066125,2023-12-04 21:00:00+00:00,964.0,2.49,,
249539,2023-12-04 22:00:00+00:00,0.0,2023-12-04 21:56,24.0,23.0,,1008.0,150.0,3.45,29.7,95.89,3.0,19.54,,,M,,,GNR,1066129,2023-12-04 22:00:00+00:00,964.0,2.49,,
249540,2023-12-04 23:00:00+00:00,0.0,2023-12-04 22:56,24.0,21.0,,1008.6,120.0,6.9,29.72,88.13,6.0,15.9,,,M,,,GNR,1066133,2023-12-04 23:00:00+00:00,964.0,2.49,,
249541,2023-12-05 00:00:00+00:00,0.51,2023-12-04 23:56,24.0,21.0,,1008.8,100.0,4.6,29.73,88.13,4.0,18.08,,,M,,,GNR,1066137,2023-12-05 00:00:00+00:00,6510.0,5.46,,
249542,2023-12-05 01:00:00+00:00,0.51,2023-12-05 00:56,24.0,21.0,,1009.0,0.0,0.0,29.73,88.13,0.0,24.0,,,M,,,GNR,1066141,2023-12-05 01:00:00+00:00,9040.0,6.47,,
249543,2023-12-05 02:00:00+00:00,0.25,2023-12-05 01:56,23.0,20.0,,1009.2,80.0,4.6,29.74,88.08,4.0,16.91,,,M,,,GNR,1066145,2023-12-05 02:00:00+00:00,4400.0,4.54,,
249544,2023-12-05 03:00:00+00:00,0.0,2023-12-05 02:56,23.0,20.0,,1009.6,100.0,4.6,29.75,88.08,4.0,16.91,,,M,,,GNR,1066149,2023-12-05 03:00:00+00:00,1830.0,3.16,,
249545,2023-12-05 04:00:00+00:00,0.76,2023-12-05 03:56,23.0,21.0,,1009.8,0.0,0.0,29.76,91.9,0.0,23.0,,,M,,,GNR,1066153,2023-12-05 04:00:00+00:00,1150.0,2.65,,
249546,2023-12-05 05:00:00+00:00,0.25,2023-12-05 04:56,23.0,21.0,,1009.8,0.0,0.0,29.76,91.9,0.0,23.0,,,M,,,GNR,1066157,2023-12-05 05:00:00+00:00,999.0,2.52,,
249547,2023-12-05 06:00:00+00:00,0.25,2023-12-05 05:56,23.0,21.0,,1010.0,0.0,0.0,29.76,91.9,0.0,23.0,,,M,,,GNR,1066161,2023-12-05 06:00:00+00:00,976.0,2.5,,
249548,2023-12-05 07:00:00+00:00,0.25,2023-12-05 06:56,21.0,18.0,,1010.8,340.0,5.75,29.78,87.97,5.0,13.33,,,M,,,GNR,1066165,2023-12-05 07:00:00+00:00,964.0,2.49,,
249549,2023-12-05 08:00:00+00:00,0.0,2023-12-05 07:56,20.0,16.0,,1011.1,350.0,8.05,29.79,84.19,7.0,10.15,,,M,,,GNR,1066169,2023-12-05 08:00:00+00:00,964.0,2.49,,
249550,2023-12-05 09:00:00+00:00,0.0,2023-12-05 08:56,19.0,15.0,,1011.5,350.0,6.9,29.8,84.12,6.0,9.87,,,M,,,GNR,1066173,2023-12-05 09:00:00+00:00,953.0,2.48,,
249551,2023-12-05 10:00:00+00:00,0.0,2023-12-05 09:56,18.0,14.0,,1011.8,360.0,11.5,29.81,84.05,10.0,5.41,,,M,,,GNR,1066177,2023-12-05 10:00:00+00:00,953.0,2.48,,
249552,2023-12-05 11:00:00+00:00,0.0,2023-12-05 10:56,18.0,14.0,,1012.8,20.0,9.2,29.83,84.05,8.0,6.87,,,M,,,GNR,1066181,2023-12-05 11:00:00+00:00,953.0,2.48,,
249553,2023-12-05 12:00:00+00:00,0.0,2023-12-05 11:56,18.0,14.0,,1013.8,10.0,6.9,29.86,84.05,6.0,8.67,,,M,,,GNR,1066185,2023-12-05 12:00:00+00:00,953.0,2.48,,
249554,2023-12-05 13:00:00+00:00,0.0,2023-12-05 12:56,17.0,13.0,,1014.5,10.0,6.9,29.89,83.98,6.0,7.46,,,M,,,GNR,1066189,2023-12-05 13:00:00+00:00,942.0,2.47,,
249555,2023-12-05 14:00:00+00:00,0.0,2023-12-05 13:56,16.0,12.0,,1015.5,20.0,11.5,29.91,83.91,10.0,2.9,,,M,,,GNR,1066193,2023-12-05 14:00:00+00:00,942.0,2.47,,
249556,2023-12-05 15:00:00+00:00,0.0,2023-12-05 14:56,17.0,12.0,,1015.7,360.0,10.35,29.92,80.36,9.0,4.86,,,M,,,GNR,1066197,2023-12-05 15:00:00+00:00,942.0,2.47,,
249557,2023-12-05 16:00:00+00:00,0.0,2023-12-05 15:56,17.0,12.0,,1015.3,330.0,11.5,29.91,80.36,10.0,4.16,,17.0,M,,,GNR,1066201,2023-12-05 16:00:00+00:00,942.0,2.47,2023-12-05 16:00:00+00:00,gs://gcp-public-data-sentinel-2/tiles/19/T/DL/S2A_MSIL1C_20231205T153621_N0509_R111_T19TDL_20231205T180336.SAFE
249558,2023-12-05 17:00:00+00:00,0.0,2023-12-05 16:56,17.0,12.0,,1015.0,350.0,11.5,29.9,80.36,10.0,4.16,,18.0,M,,,GNR,1066205,2023-12-05 17:00:00+00:00,942.0,2.47,,
249559,2023-12-05 18:00:00+00:00,0.0,2023-12-05 17:56,19.0,13.0,,1015.3,340.0,11.5,29.91,77.06,10.0,6.67,,,M,,,GNR,1066209,2023-12-05 18:00:00+00:00,942.0,2.47,,
249560,2023-12-05 19:00:00+00:00,0.0,2023-12-05 18:56,19.0,11.0,,1015.5,340.0,13.8,29.91,70.53,12.0,5.46,,19.0,M,,,GNR,1066213,2023-12-05 19:00:00+00:00,930.0,2.46,,
249561,2023-12-05 20:00:00+00:00,0.0,2023-12-05 19:56,18.0,11.0,,1015.6,360.0,9.2,29.91,73.62,8.0,6.87,,14.0,M,,,GNR,1066217,2023-12-05 20:00:00+00:00,930.0,2.46,,
249562,2023-12-05 21:00:00+00:00,0.0,2023-12-05 20:56,17.0,11.0,,1016.3,350.0,9.2,29.93,76.87,8.0,5.64,,,M,,,GNR,1066221,2023-12-05 21:00:00+00:00,930.0,2.46,,
249563,2023-12-05 22:00:00+00:00,0.0,2023-12-05 21:56,17.0,11.0,,1017.0,350.0,13.8,29.95,76.87,12.0,2.91,,21.0,M,,,GNR,1066225,2023-12-05 22:00:00+00:00,930.0,2.46,,
249564,2023-12-05 23:00:00+00:00,0.0,2023-12-05 22:56,16.0,11.0,,1017.8,10.0,8.05,29.97,80.27,7.0,5.28,,,M,,,GNR,1066229,2023-12-05 23:00:00+00:00,930.0,2.46,,
249565,2023-12-06 00:00:00+00:00,0.0,2023-12-05 23:56,16.0,11.0,,1017.8,350.0,12.65,29.97,80.27,11.0,2.25,,20.0,M,,,GNR,1066233,2023-12-06 00:00:00+00:00,1350.0,2.82,,
249566,2023-12-06 01:00:00+00:00,0.0,2023-12-06 00:56,14.0,10.0,,1017.7,360.0,10.35,29.97,83.77,9.0,1.13,,18.0,M,,,GNR,1066237,2023-12-06 01:00:00+00:00,8940.0,6.43,,
249567,2023-12-06 02:00:00+00:00,0.0,2023-12-06 01:56,14.0,9.0,,1017.6,350.0,14.95,29.96,80.1,13.0,-1.49,,19.0,M,,,GNR,1066241,2023-12-06 02:00:00+00:00,4450.0,4.56,,
249568,2023-12-06 03:00:00+00:00,0.0,2023-12-06 02:56,12.0,8.0,,1017.7,340.0,8.05,29.97,83.63,7.0,0.4,,,M,,,GNR,1066245,2023-12-06 03:00:00+00:00,1830.0,3.16,,
249569,2023-12-06 04:00:00+00:00,0.0,2023-12-06 03:56,12.0,8.0,,1017.5,360.0,9.2,29.96,83.63,8.0,-0.52,,,M,,,GNR,1066249,2023-12-06 04:00:00+00:00,1120.0,2.63,,
249570,2023-12-06 05:00:00+00:00,0.0,2023-12-06 04:56,11.0,8.0,,1017.2,350.0,4.6,29.95,87.42,4.0,2.9,,,M,,,GNR,1066253,2023-12-06 05:00:00+00:00,953.0,2.48,,
249571,2023-12-06 06:00:00+00:00,0.0,2023-12-06 05:56,12.0,8.0,,1017.1,360.0,5.75,29.95,83.63,5.0,2.64,,,M,,,GNR,1066257,2023-12-06 06:00:00+00:00,930.0,2.46,,
249572,2023-12-06 07:00:00+00:00,0.0,2023-12-06 06:56,12.0,8.0,,1017.0,360.0,5.75,29.95,83.63,5.0,2.64,,,M,,,GNR,1066261,2023-12-06 07:00:00+00:00,930.0,2.46,,
249573,2023-12-06 08:00:00+00:00,0.0,2023-12-06 07:56,12.0,8.0,,1016.9,350.0,8.05,29.94,83.63,7.0,0.4,,,M,,,GNR,1066265,2023-12-06 08:00:00+00:00,919.0,2.45,,
249574,2023-12-06 09:00:00+00:00,0.0,2023-12-06 08:56,11.0,7.0,,1016.4,350.0,4.6,29.92,83.56,4.0,2.9,,,M,,,GNR,1066269,2023-12-06 09:00:00+00:00,930.0,2.46,,
249575,2023-12-06 10:00:00+00:00,0.0,2023-12-06 09:56,11.0,6.0,,1015.9,360.0,5.75,29.91,79.85,5.0,1.46,,,M,,,GNR,1066273,2023-12-06 10:00:00+00:00,953.0,2.48,,
249576,2023-12-06 11:00:00+00:00,0.0,2023-12-06 10:56,9.0,5.0,,1015.9,360.0,4.6,29.91,83.41,4.0,0.56,,,M,,,GNR,1066277,2023-12-06 11:00:00+00:00,953.0,2.48,,
249577,2023-12-06 12:00:00+00:00,0.0,2023-12-06 11:56,9.0,5.0,,1016.0,330.0,4.6,29.92,83.41,4.0,0.56,,,M,,,GNR,1066281,2023-12-06 12:00:00+00:00,865.0,2.4,,
249578,2023-12-06 13:00:00+00:00,0.0,2023-12-06 12:56,11.0,9.0,,1016.2,350.0,6.9,29.92,91.45,6.0,0.24,,,M,,,GNR,1066285,2023-12-06 13:00:00+00:00,887.0,2.42,,
249579,2023-12-06 14:00:00+00:00,0.0,2023-12-06 13:56,13.0,11.0,,1016.4,340.0,8.05,29.93,91.53,7.0,1.62,,,M,,,GNR,1066289,2023-12-06 14:00:00+00:00,887.0,2.42,,
249580,2023-12-06 15:00:00+00:00,0.0,2023-12-06 14:56,15.0,11.0,,1016.3,320.0,9.2,29.92,83.84,8.0,3.17,,,M,,,GNR,1066293,2023-12-06 15:00:00+00:00,876.0,2.41,,
249581,2023-12-06 16:00:00+00:00,0.0,2023-12-06 15:56,17.0,12.0,,1015.2,320.0,10.35,29.89,80.36,9.0,4.86,,,M,,,GNR,1066297,2023-12-06 16:00:00+00:00,897.0,2.43,,
249582,2023-12-06 17:00:00+00:00,0.0,2023-12-06 16:56,19.0,12.0,,1014.3,320.0,6.9,29.87,73.73,6.0,9.87,,,M,,,GNR,1066301,2023-12-06 17:00:00+00:00,897.0,2.43,,
249583,2023-12-06 18:00:00+00:00,0.0,2023-12-06 17:56,20.0,12.0,,1013.7,320.0,9.2,29.85,70.65,8.0,9.33,,,M,,,GNR,1066305,2023-12-06 18:00:00+00:00,865.0,2.4,,
249584,2023-12-06 19:00:00+00:00,0.0,2023-12-06 18:56,20.0,12.0,,1013.4,320.0,10.35,29.84,70.65,9.0,8.59,,,M,,,GNR,1066309,2023-12-06 19:00:00+00:00,844.0,2.38,,
249585,2023-12-06 20:00:00+00:00,0.0,2023-12-06 19:56,20.0,13.0,,1013.5,320.0,10.35,29.85,73.84,9.0,8.59,,,M,,,GNR,1066313,2023-12-06 20:00:00+00:00,834.0,2.37,,
249586,2023-12-06 21:00:00+00:00,0.0,2023-12-06 20:56,19.0,12.0,,1013.3,330.0,11.5,29.84,73.73,10.0,6.67,,,M,,,GNR,1066317,2023-12-06 21:00:00+00:00,834.0,2.37,,
249587,2023-12-06 22:00:00+00:00,0.0,2023-12-06 21:56,19.0,10.0,,1013.4,330.0,14.95,29.84,67.46,13.0,4.91,,,M,,,GNR,1066321,2023-12-06 22:00:00+00:00,844.0,2.38,,
249588,2023-12-06 23:00:00+00:00,0.0,2023-12-06 22:56,17.0,10.0,,1013.7,330.0,13.8,29.85,73.52,12.0,2.91,,20.0,M,,,GNR,1066325,2023-12-06 23:00:00+00:00,964.0,2.49,,
249589,2023-12-07 00:00:00+00:00,0.0,2023-12-06 23:56,16.0,12.0,,1014.0,350.0,11.5,29.85,83.91,10.0,2.9,,20.0,M,,,GNR,1066329,2023-12-07 00:00:00+00:00,887.0,2.42,,
249590,2023-12-07 01:00:00+00:00,0.0,2023-12-07 00:56,15.0,11.0,,1013.6,320.0,16.1,29.84,83.84,14.0,-0.75,,24.0,M,,,GNR,1066333,2023-12-07 01:00:00+00:00,8960.0,6.44,,
249591,2023-12-07 02:00:00+00:00,0.0,2023-12-07 01:56,14.0,10.0,,1013.5,320.0,12.65,29.84,83.77,11.0,-0.28,,18.0,M,,,GNR,1066337,2023-12-07 02:00:00+00:00,4680.0,4.67,,
249592,2023-12-07 03:00:00+00:00,0.0,2023-12-07 02:56,13.0,9.0,,1013.7,330.0,10.35,29.85,83.7,9.0,-0.11,,,M,,,GNR,1066341,2023-12-07 03:00:00+00:00,1870.0,3.19,,
249593,2023-12-07 04:00:00+00:00,0.0,2023-12-07 03:56,12.0,8.0,,1013.6,320.0,8.05,29.85,83.63,7.0,0.4,,14.0,M,,,GNR,1066345,2023-12-07 04:00:00+00:00,1120.0,2.63,,
249594,2023-12-07 05:00:00+00:00,0.0,2023-12-07 04:56,11.0,7.0,,1013.6,330.0,12.65,29.85,83.56,11.0,-4.07,,,M,,,GNR,1066349,2023-12-07 05:00:00+00:00,930.0,2.46,,
249595,2023-12-07 06:00:00+00:00,0.0,2023-12-07 05:56,11.0,7.0,,1013.3,340.0,10.35,29.84,83.56,9.0,-2.6,,19.0,M,,,GNR,1066353,2023-12-07 06:00:00+00:00,908.0,2.44,,
249596,2023-12-07 07:00:00+00:00,0.0,2023-12-07 06:56,11.0,7.0,,1013.4,350.0,12.65,29.85,83.56,11.0,-4.07,,,M,,,GNR,1066357,2023-12-07 07:00:00+00:00,897.0,2.43,,
249597,2023-12-07 08:00:00+00:00,0.0,2023-12-07 07:56,11.0,7.0,,1013.2,350.0,14.95,29.84,83.56,13.0,-5.34,,,M,,,GNR,1066361,2023-12-07 08:00:00+00:00,897.0,2.43,,
249598,2023-12-07 09:00:00+00:00,0.0,2023-12-07 08:56,10.0,7.0,,1013.2,330.0,16.1,29.84,87.37,14.0,-7.2,,,M,,,GNR,1066365,2023-12-07 09:00:00+00:00,919.0,2.45,,
249599,2023-12-07 10:00:00+00:00,0.0,2023-12-07 09:56,10.0,5.0,,1013.4,350.0,17.25,29.84,79.76,15.0,-7.74,,,M,27.0,,GNR,1066369,2023-12-07 10:00:00+00:00,930.0,2.46,,
249600,2023-12-07 11:00:00+00:00,0.0,2023-12-07 10:56,10.0,6.0,,1013.3,330.0,16.1,29.84,83.49,14.0,-7.2,,20.0,M,,,GNR,1066373,2023-12-07 11:00:00+00:00,942.0,2.47,,
249601,2023-12-07 12:00:00+00:00,0.0,2023-12-07 11:56,10.0,6.0,,1013.2,330.0,12.65,29.83,83.49,11.0,-5.34,,20.0,M,,,GNR,1066377,2023-12-07 12:00:00+00:00,953.0,2.48,,
249602,2023-12-07 13:00:00+00:00,0.0,2023-12-07 12:56,10.0,6.0,,1013.4,330.0,14.95,29.84,83.49,13.0,-6.62,,25.0,M,,,GNR,1066381,2023-12-07 13:00:00+00:00,964.0,2.49,,
249603,2023-12-07 14:00:00+00:00,0.0,2023-12-07 13:56,11.0,6.0,,1013.4,330.0,13.8,29.84,79.85,12.0,-4.73,,22.0,M,,,GNR,1066385,2023-12-07 14:00:00+00:00,976.0,2.5,,
249604,2023-12-07 15:00:00+00:00,0.0,2023-12-07 14:56,12.0,7.0,,1013.2,330.0,11.5,29.83,79.93,10.0,-2.11,,20.0,M,,,GNR,1066389,2023-12-07 15:00:00+00:00,987.0,2.51,,
249605,2023-12-07 16:00:00+00:00,0.0,2023-12-07 15:56,13.0,7.0,,1012.3,330.0,10.35,29.81,76.48,9.0,-0.11,,,M,,,GNR,1066393,2023-12-07 16:00:00+00:00,999.0,2.52,,
249606,2023-12-07 17:00:00+00:00,0.0,2023-12-07 16:56,14.0,8.0,,1011.6,330.0,9.2,29.79,76.58,8.0,1.94,,,M,,,GNR,1066397,2023-12-07 17:00:00+00:00,953.0,2.48,,
249607,2023-12-07 18:00:00+00:00,0.0,2023-12-07 17:56,15.0,8.0,,1011.2,350.0,11.5,29.77,73.3,10.0,1.65,,,M,,,GNR,1066401,2023-12-07 18:00:00+00:00,897.0,2.43,,
249608,2023-12-07 19:00:00+00:00,0.0,2023-12-07 18:56,15.0,9.0,,1011.0,330.0,9.2,29.77,76.68,8.0,3.17,,,M,,,GNR,1066405,2023-12-07 19:00:00+00:00,887.0,2.42,,
249609,2023-12-07 20:00:00+00:00,0.0,2023-12-07 19:56,16.0,10.0,,1011.3,310.0,10.35,29.78,76.77,9.0,3.62,,,M,,,GNR,1066409,2023-12-07 20:00:00+00:00,887.0,2.42,,
249610,2023-12-07 21:00:00+00:00,0.0,2023-12-07 20:56,15.0,10.0,,1011.7,320.0,12.65,29.79,80.19,11.0,0.98,,20.0,M,,,GNR,1066413,2023-12-07 21:00:00+00:00,876.0,2.41,,
249611,2023-12-07 22:00:00+00:00,0.0,2023-12-07 21:56,14.0,8.0,,1011.9,340.0,11.5,29.79,76.58,10.0,0.4,,,M,,,GNR,1066417,2023-12-07 22:00:00+00:00,876.0,2.41,,
249612,2023-12-07 23:00:00+00:00,0.0,2023-12-07 22:56,13.0,9.0,,1012.3,350.0,10.35,29.8,83.7,9.0,-0.11,,,M,,,GNR,1066421,2023-12-07 23:00:00+00:00,3400.0,4.06,,
249613,2023-12-08 00:00:00+00:00,0.0,2023-12-07 23:56,13.0,9.0,,1013.0,340.0,12.65,29.82,83.7,11.0,-1.54,,,M,,,GNR,1066425,2023-12-08 00:00:00+00:00,8830.0,6.39,,
249614,2023-12-08 01:00:00+00:00,0.0,2023-12-08 00:56,12.0,8.0,,1013.8,330.0,11.5,29.84,83.63,10.0,-2.11,,18.0,M,,,GNR,1066429,2023-12-08 01:00:00+00:00,8860.0,6.4,,
249615,2023-12-08 02:00:00+00:00,0.0,2023-12-08 01:56,11.0,7.0,,1014.1,350.0,10.35,29.85,83.56,9.0,-2.6,,,M,,,GNR,1066433,2023-12-08 02:00:00+00:00,8860.0,6.4,,
249616,2023-12-08 03:00:00+00:00,0.0,2023-12-08 02:56,12.0,8.0,,1014.1,340.0,12.65,29.86,83.63,11.0,-2.81,,,M,,,GNR,1066437,2023-12-08 03:00:00+00:00,4380.0,4.53,,
249617,2023-12-08 04:00:00+00:00,0.0,2023-12-08 03:56,11.0,8.0,,1014.5,320.0,12.65,29.87,87.42,11.0,-4.07,,,M,,,GNR,1066441,2023-12-08 04:00:00+00:00,1750.0,3.11,,
249618,2023-12-08 05:00:00+00:00,0.0,2023-12-08 04:56,10.0,7.0,,1014.9,320.0,16.1,29.88,87.37,14.0,-7.2,,,M,,,GNR,1066445,2023-12-08 05:00:00+00:00,1060.0,2.58,,
249619,2023-12-08 06:00:00+00:00,0.0,2023-12-08 05:56,9.0,6.0,,1015.4,330.0,13.8,29.89,87.31,12.0,-7.27,,,M,,,GNR,1066449,2023-12-08 06:00:00+00:00,897.0,2.43,,
249620,2023-12-08 07:00:00+00:00,0.0,2023-12-08 06:56,10.0,6.0,,1016.3,350.0,10.35,29.92,83.49,9.0,-3.84,,18.0,M,,,GNR,1066453,2023-12-08 07:00:00+00:00,887.0,2.42,,
249621,2023-12-08 08:00:00+00:00,0.0,2023-12-08 07:56,11.0,6.0,,1016.8,360.0,10.35,29.94,79.85,9.0,-2.6,,,M,,,GNR,1066457,2023-12-08 08:00:00+00:00,887.0,2.42,,
249622,2023-12-08 09:00:00+00:00,0.0,2023-12-08 08:56,10.0,5.0,,1017.7,340.0,9.2,29.96,79.76,8.0,-2.99,,,M,,,GNR,1066461,2023-12-08 09:00:00+00:00,897.0,2.43,,
249623,2023-12-08 10:00:00+00:00,0.0,2023-12-08 09:56,9.0,5.0,,1018.4,360.0,5.75,29.98,83.41,5.0,-0.92,,,M,,,GNR,1066465,2023-12-08 10:00:00+00:00,908.0,2.44,,
249624,2023-12-08 11:00:00+00:00,0.0,2023-12-08 10:56,10.0,6.0,,1018.9,30.0,8.05,30.0,83.49,7.0,-2.04,,,M,,,GNR,1066469,2023-12-08 11:00:00+00:00,908.0,2.44,,
249625,2023-12-08 12:00:00+00:00,0.0,2023-12-08 11:56,11.0,6.0,,1019.1,340.0,9.2,30.0,79.85,8.0,-1.76,,,M,,,GNR,1066473,2023-12-08 12:00:00+00:00,919.0,2.45,,
249626,2023-12-08 13:00:00+00:00,0.0,2023-12-08 12:56,14.0,5.0,,1019.7,350.0,8.05,30.02,66.82,7.0,2.84,,,M,,,GNR,1066477,2023-12-08 13:00:00+00:00,930.0,2.46,,
249627,2023-12-08 14:00:00+00:00,0.0,2023-12-08 13:56,16.0,6.0,,1020.6,340.0,10.35,30.05,64.09,9.0,3.62,,,M,,,GNR,1066481,2023-12-08 14:00:00+00:00,1590.0,3.0,,
249628,2023-12-08 15:00:00+00:00,0.0,2023-12-08 14:56,18.0,8.0,,1021.2,340.0,12.65,30.07,64.37,11.0,4.77,,,M,,,GNR,1066485,2023-12-08 15:00:00+00:00,3540.0,4.13,,
249629,2023-12-08 16:00:00+00:00,0.0,2023-12-08 15:56,20.0,11.0,,1020.8,350.0,10.35,30.06,67.58,9.0,8.59,,,M,,,GNR,1066489,2023-12-08 16:00:00+00:00,1630.0,3.03,2023-12-08 16:00:00+00:00,gs://gcp-public-data-sentinel-2/tiles/19/T/DL/S2A_MSIL1C_20231208T154631_N0509_R011_T19TDL_20231208T173737.SAFE
249630,2023-12-08 17:00:00+00:00,0.0,2023-12-08 16:56,23.0,14.0,,1020.7,330.0,8.05,30.06,67.96,7.0,13.81,,,M,,,GNR,1066493,2023-12-08 17:00:00+00:00,1020.0,2.54,,
249631,2023-12-08 18:00:00+00:00,0.0,2023-12-08 17:56,24.0,15.0,,1020.5,310.0,10.35,30.05,68.08,9.0,13.57,,,M,,,GNR,1066497,2023-12-08 18:00:00+00:00,876.0,2.41,,
249632,2023-12-08 19:00:00+00:00,0.0,2023-12-08 18:56,25.0,16.0,,1020.9,320.0,10.35,30.07,68.2,9.0,14.81,,,M,,,GNR,1066501,2023-12-08 19:00:00+00:00,865.0,2.4,,
249633,2023-12-08 20:00:00+00:00,0.0,2023-12-08 19:56,24.0,16.0,,1021.6,320.0,9.2,30.09,71.11,8.0,14.26,,,M,,,GNR,1066505,2023-12-08 20:00:00+00:00,865.0,2.4,,
249634,2023-12-08 21:00:00+00:00,0.0,2023-12-08 20:56,22.0,16.0,,1022.5,290.0,5.75,30.11,77.34,5.0,14.52,,,M,,,GNR,1066509,2023-12-08 21:00:00+00:00,855.0,2.39,,
249635,2023-12-08 22:00:00+00:00,0.0,2023-12-08 21:56,22.0,16.0,,1023.2,330.0,9.2,30.13,77.34,8.0,11.79,,,M,,,GNR,1066513,2023-12-08 22:00:00+00:00,865.0,2.4,,
249636,2023-12-08 23:00:00+00:00,0.0,2023-12-08 22:56,22.0,16.0,,1023.4,360.0,5.75,30.14,77.34,5.0,14.52,,,M,,,GNR,1066517,2023-12-08 23:00:00+00:00,855.0,2.39,,
249637,2023-12-09 00:00:00+00:00,0.0,2023-12-08 23:56,21.0,15.0,,1023.5,350.0,9.2,30.14,77.25,8.0,10.56,,,M,,,GNR,1066521,2023-12-09 00:00:00+00:00,964.0,2.49,,
249638,2023-12-09 01:00:00+00:00,0.0,2023-12-09 00:56,19.0,15.0,,1024.1,,3.45,30.16,84.12,3.0,13.83,,,M,,,GNR,1066525,2023-12-09 01:00:00+00:00,9010.0,6.46,,
249639,2023-12-09 02:00:00+00:00,0.0,2023-12-09 01:56,19.0,15.0,,1023.9,350.0,8.05,30.15,84.12,7.0,8.93,,,M,,,GNR,1066529,2023-12-09 02:00:00+00:00,4360.0,4.52,,
249640,2023-12-09 03:00:00+00:00,0.0,2023-12-09 02:56,17.0,13.0,,1024.5,0.0,0.0,30.17,83.98,0.0,17.0,,,M,,,GNR,1066533,2023-12-09 03:00:00+00:00,1740.0,3.1,,
249641,2023-12-09 04:00:00+00:00,0.0,2023-12-09 03:56,16.0,13.0,,1024.6,30.0,6.9,30.17,87.7,6.0,6.26,,,M,,,GNR,1066537,2023-12-09 04:00:00+00:00,1040.0,2.56,,
249642,2023-12-09 05:00:00+00:00,0.0,2023-12-09 04:56,15.0,13.0,,1024.4,0.0,0.0,30.17,91.61,0.0,15.0,,,M,,,GNR,1066541,2023-12-09 05:00:00+00:00,876.0,2.41,,
249643,2023-12-09 06:00:00+00:00,0.0,2023-12-09 05:56,14.0,10.0,,1024.2,40.0,6.9,30.17,83.77,6.0,3.85,,,M,,,GNR,1066545,2023-12-09 06:00:00+00:00,855.0,2.39,,
249644,2023-12-09 07:00:00+00:00,0.0,2023-12-09 06:56,14.0,11.0,,1024.3,50.0,5.75,30.17,87.59,5.0,5.02,,,M,,,GNR,1066549,2023-12-09 07:00:00+00:00,844.0,2.38,,
249645,2023-12-09 08:00:00+00:00,0.0,2023-12-09 07:56,15.0,11.0,,1024.4,40.0,3.45,30.17,83.84,3.0,9.25,,,M,,,GNR,1066553,2023-12-09 08:00:00+00:00,844.0,2.38,,
249646,2023-12-09 09:00:00+00:00,0.0,2023-12-09 08:56,20.0,13.0,,1024.4,140.0,3.45,30.18,73.84,3.0,14.97,,,M,,,GNR,1066557,2023-12-09 09:00:00+00:00,844.0,2.38,,
249647,2023-12-09 10:00:00+00:00,0.0,2023-12-09 09:56,21.0,12.0,,1024.5,130.0,6.9,30.18,67.71,6.0,12.28,,,M,,,GNR,1066561,2023-12-09 10:00:00+00:00,855.0,2.39,,
249648,2023-12-09 11:00:00+00:00,0.0,2023-12-09 10:56,23.0,16.0,,1024.7,120.0,6.9,30.19,74.15,6.0,14.69,,,M,,,GNR,1066565,2023-12-09 11:00:00+00:00,865.0,2.4,,
249649,2023-12-09 12:00:00+00:00,0.0,2023-12-09 11:56,24.0,18.0,,1024.9,130.0,6.9,30.19,77.53,6.0,15.9,,,M,,,GNR,1066569,2023-12-09 12:00:00+00:00,876.0,2.41,,
249650,2023-12-09 13:00:00+00:00,0.0,2023-12-09 12:56,23.0,17.0,,1025.3,130.0,8.05,30.2,77.44,7.0,13.81,,,M,,,GNR,1066573,2023-12-09 13:00:00+00:00,897.0,2.43,,
249651,2023-12-09 14:00:00+00:00,0.0,2023-12-09 13:56,23.0,19.0,,1025.8,140.0,9.2,30.21,84.39,8.0,13.03,,,M,,,GNR,1066577,2023-12-09 14:00:00+00:00,908.0,2.44,,
249652,2023-12-09 15:00:00+00:00,0.0,2023-12-09 14:56,23.0,21.0,,1025.8,120.0,6.9,30.22,91.9,6.0,14.69,,,M,,,GNR,1066581,2023-12-09 15:00:00+00:00,897.0,2.43,,
249653,2023-12-09 16:00:00+00:00,0.0,2023-12-09 15:56,24.0,23.0,,1025.1,140.0,9.2,30.19,95.89,8.0,14.26,,,M,,,GNR,1066585,2023-12-09 16:00:00+00:00,865.0,2.4,,
249654,2023-12-09 17:00:00+00:00,0.0,2023-12-09 16:56,26.0,25.0,,1024.5,140.0,8.05,30.18,95.93,7.0,17.47,,,M,,,GNR,1066589,2023-12-09 17:00:00+00:00,823.0,2.36,,
249655,2023-12-09 18:00:00+00:00,0.0,2023-12-09 17:56,28.0,27.0,,1024.0,140.0,6.9,30.16,95.97,6.0,20.71,,,M,,,GNR,1066593,2023-12-09 18:00:00+00:00,823.0,2.36,,
249656,2023-12-09 19:00:00+00:00,0.0,2023-12-09 18:56,28.0,28.0,,1023.7,140.0,10.35,30.15,100.0,9.0,18.54,,,M,,,GNR,1066597,2023-12-09 19:00:00+00:00,834.0,2.37,,
249657,2023-12-09 20:00:00+00:00,0.0,2023-12-09 19:56,29.0,28.0,,1023.5,130.0,9.2,30.15,95.99,8.0,20.42,,,M,,,GNR,1066601,2023-12-09 20:00:00+00:00,834.0,2.37,,
249658,2023-12-09 21:00:00+00:00,0.0,2023-12-09 20:56,29.0,28.0,,1023.3,140.0,9.2,30.15,95.99,8.0,20.42,,,M,,,GNR,1066605,2023-12-09 21:00:00+00:00,823.0,2.36,,
249659,2023-12-09 22:00:00+00:00,0.0,2023-12-09 21:56,29.0,28.0,,1023.4,140.0,8.05,30.15,95.99,7.0,21.12,,,M,,,GNR,1066609,2023-12-09 22:00:00+00:00,823.0,2.36,,
249660,2023-12-09 23:00:00+00:00,0.0,2023-12-09 22:56,30.0,28.0,,1022.9,130.0,9.2,30.14,92.15,8.0,21.65,,,M,,,GNR,1066613,2023-12-09 23:00:00+00:00,813.0,2.35,,
249661,2023-12-10 00:00:00+00:00,0.0,2023-12-09 23:56,30.0,29.0,,1023.2,140.0,8.05,30.15,96.0,7.0,22.34,,,M,,,GNR,1066617,2023-12-10 00:00:00+00:00,823.0,2.36,,
249662,2023-12-10 01:00:00+00:00,0.0,2023-12-10 00:56,32.0,31.0,,1022.3,140.0,8.05,30.13,96.04,7.0,24.78,,,M,,,GNR,1066621,2023-12-10 01:00:00+00:00,9040.0,6.47,,
249663,2023-12-10 02:00:00+00:00,0.0,2023-12-10 01:56,32.0,32.0,,1021.9,140.0,10.35,30.11,100.0,9.0,23.51,,,M,,,GNR,1066625,2023-12-10 02:00:00+00:00,4470.0,4.57,,
249664,2023-12-10 03:00:00+00:00,0.0,2023-12-10 02:56,32.0,32.0,,1022.0,130.0,9.2,30.12,100.0,8.0,24.11,,,M,,,GNR,1066629,2023-12-10 03:00:00+00:00,1750.0,3.11,,
249665,2023-12-10 04:00:00+00:00,0.0,2023-12-10 03:56,32.0,32.0,,1021.1,130.0,8.05,30.09,100.0,7.0,24.78,,,M,,,GNR,1066633,2023-12-10 04:00:00+00:00,1050.0,2.57,,
249666,2023-12-10 05:00:00+00:00,0.0,2023-12-10 04:56,33.0,33.0,,1020.4,130.0,9.2,30.07,100.0,8.0,25.34,,,M,,,GNR,1066637,2023-12-10 05:00:00+00:00,865.0,2.4,,
249667,2023-12-10 06:00:00+00:00,0.0,2023-12-10 05:56,34.0,33.0,,1019.1,130.0,10.35,30.04,96.08,9.0,26.0,,,M,,,GNR,1066641,2023-12-10 06:00:00+00:00,844.0,2.38,,
249668,2023-12-10 07:00:00+00:00,0.0,2023-12-10 06:56,34.0,34.0,,1018.8,140.0,9.2,30.03,100.0,8.0,26.58,,,M,,,GNR,1066645,2023-12-10 07:00:00+00:00,844.0,2.38,,
249669,2023-12-10 08:00:00+00:00,0.0,2023-12-10 07:56,34.0,34.0,,1018.9,140.0,8.05,30.04,100.0,7.0,27.22,,,M,,,GNR,1066649,2023-12-10 08:00:00+00:00,844.0,2.38,,
249670,2023-12-10 09:00:00+00:00,0.0,2023-12-10 08:56,34.0,34.0,,1017.7,130.0,8.05,30.0,100.0,7.0,27.22,,,M,,,GNR,1066653,2023-12-10 09:00:00+00:00,834.0,2.37,,
249671,2023-12-10 10:00:00+00:00,0.25,2023-12-10 09:56,35.0,35.0,,1016.0,150.0,8.05,29.95,100.0,7.0,28.44,,16.0,M,,,GNR,1066657,2023-12-10 10:00:00+00:00,834.0,2.37,,
249672,2023-12-10 11:00:00+00:00,0.0,2023-12-10 10:56,35.0,35.0,,1015.8,150.0,11.5,29.95,100.0,10.0,26.73,,18.0,M,,,GNR,1066661,2023-12-10 11:00:00+00:00,834.0,2.37,,
249673,2023-12-10 12:00:00+00:00,0.0,2023-12-10 11:56,34.0,34.0,,1015.9,150.0,8.05,29.95,100.0,7.0,27.22,,17.0,M,,,GNR,1066665,2023-12-10 12:00:00+00:00,834.0,2.37,,
249674,2023-12-10 13:00:00+00:00,0.0,2023-12-10 12:56,35.0,35.0,,1015.1,140.0,11.5,29.93,100.0,10.0,26.73,,20.0,M,,,GNR,1066669,2023-12-10 13:00:00+00:00,834.0,2.37,,
249675,2023-12-10 14:00:00+00:00,0.0,2023-12-10 13:56,36.0,36.0,,1014.7,150.0,9.2,29.92,100.0,8.0,29.04,,19.0,M,,,GNR,1066673,2023-12-10 14:00:00+00:00,834.0,2.37,,
249676,2023-12-10 15:00:00+00:00,0.25,2023-12-10 14:56,36.0,36.0,,1014.4,140.0,12.65,29.91,100.0,11.0,27.52,,,M,,,GNR,1066677,2023-12-10 15:00:00+00:00,834.0,2.37,,
249677,2023-12-10 16:00:00+00:00,0.0,2023-12-10 15:56,36.0,36.0,,1013.8,150.0,6.9,29.89,100.0,6.0,30.35,,,M,,,GNR,1066681,2023-12-10 16:00:00+00:00,834.0,2.37,2023-12-10 16:00:00+00:00,gs://gcp-public-data-sentinel-2/tiles/19/T/DL/S2B_MSIL1C_20231210T153629_N0509_R111_T19TDL_20231210T190922.SAFE
249678,2023-12-10 17:00:00+00:00,0.0,2023-12-10 16:56,36.0,36.0,,1013.6,150.0,5.75,29.88,100.0,5.0,31.15,,,M,,,GNR,1066685,2023-12-10 17:00:00+00:00,834.0,2.37,,
249679,2023-12-10 18:00:00+00:00,0.0,2023-12-10 17:56,37.0,36.0,,1012.2,120.0,8.05,29.85,96.13,7.0,30.87,,,M,,,GNR,1066689,2023-12-10 18:00:00+00:00,844.0,2.38,,
249680,2023-12-10 19:00:00+00:00,0.0,2023-12-10 18:56,37.0,37.0,,1011.1,140.0,11.5,29.81,100.0,10.0,29.24,,,M,,,GNR,1066693,2023-12-10 19:00:00+00:00,844.0,2.38,,
249681,2023-12-10 20:00:00+00:00,0.0,2023-12-10 19:56,37.0,37.0,,1010.9,140.0,8.05,29.81,100.0,7.0,30.87,,,M,,,GNR,1066697,2023-12-10 20:00:00+00:00,844.0,2.38,,
249682,2023-12-10 21:00:00+00:00,0.25,2023-12-10 20:56,37.0,37.0,,1010.4,130.0,8.05,29.79,100.0,7.0,30.87,,,M,,,GNR,1066701,2023-12-10 21:00:00+00:00,844.0,2.38,,
249683,2023-12-10 22:00:00+00:00,1.52,2023-12-10 21:56,38.0,38.0,,1010.4,150.0,6.9,29.8,100.0,6.0,32.76,,,M,,,GNR,1066705,2023-12-10 22:00:00+00:00,855.0,2.39,,
249684,2023-12-10 23:00:00+00:00,2.54,2023-12-10 22:56,37.0,37.0,,1009.3,120.0,3.45,29.76,100.0,3.0,34.4,,,M,,,GNR,1066709,2023-12-10 23:00:00+00:00,855.0,2.39,,
249685,2023-12-11 00:00:00+00:00,2.54,2023-12-10 23:56,39.0,39.0,,1008.7,0.0,0.0,29.75,100.0,0.0,39.0,,,M,,,GNR,1066713,2023-12-11 00:00:00+00:00,6240.0,5.35,,
249686,2023-12-11 01:00:00+00:00,2.29,2023-12-11 00:56,40.0,40.0,,1008.2,350.0,8.05,29.73,100.0,7.0,34.53,,,M,,,GNR,1066717,2023-12-11 01:00:00+00:00,6310.0,5.38,,
249687,2023-12-11 02:00:00+00:00,2.54,2023-12-11 01:56,40.0,39.0,,1007.9,350.0,12.65,29.72,96.18,11.0,32.58,,,M,,,GNR,1066721,2023-12-11 02:00:00+00:00,6310.0,5.38,,
249688,2023-12-11 03:00:00+00:00,1.27,2023-12-11 02:56,40.0,39.0,,1007.9,350.0,11.5,29.72,96.18,10.0,33.0,,16.0,M,,,GNR,1066725,2023-12-11 03:00:00+00:00,4150.0,4.42,,
249689,2023-12-11 04:00:00+00:00,1.02,2023-12-11 03:56,39.0,37.0,,1007.3,360.0,9.2,29.7,92.45,8.0,32.74,,18.0,M,,,GNR,1066729,2023-12-11 04:00:00+00:00,1800.0,3.14,,
249690,2023-12-11 05:00:00+00:00,0.76,2023-12-11 04:56,39.0,37.0,,1005.9,20.0,8.05,29.66,92.45,7.0,33.31,,,M,,,GNR,1066733,2023-12-11 05:00:00+00:00,1130.0,2.64,,
249691,2023-12-11 06:00:00+00:00,2.29,2023-12-11 05:56,38.0,37.0,,1005.6,330.0,5.75,29.66,96.14,5.0,33.52,,,M,,,GNR,1066737,2023-12-11 06:00:00+00:00,999.0,2.52,,
249692,2023-12-11 07:00:00+00:00,3.81,2023-12-11 06:56,37.0,35.0,,1005.0,340.0,10.35,29.64,92.39,9.0,29.73,,,M,,,GNR,1066741,2023-12-11 07:00:00+00:00,1030.0,2.55,,
249693,2023-12-11 08:00:00+00:00,3.05,2023-12-11 07:56,37.0,35.0,,1003.2,340.0,10.35,29.59,92.39,9.0,29.73,,18.0,M,,,GNR,1066745,2023-12-11 08:00:00+00:00,1150.0,2.65,,
249694,2023-12-11 09:00:00+00:00,2.54,2023-12-11 08:56,36.0,35.0,,1002.3,310.0,5.75,29.56,96.11,5.0,31.15,,,M,,,GNR,1066749,2023-12-11 09:00:00+00:00,1150.0,2.65,,
249695,2023-12-11 10:00:00+00:00,1.78,2023-12-11 09:56,35.0,34.0,,1000.9,330.0,9.2,29.52,96.09,8.0,27.81,,,M,,,GNR,1066753,2023-12-11 10:00:00+00:00,1160.0,2.66,,
249696,2023-12-11 11:00:00+00:00,2.54,2023-12-11 10:56,34.0,33.0,,1000.5,340.0,10.35,29.5,96.08,9.0,26.0,,,M,,,GNR,1066757,2023-12-11 11:00:00+00:00,1240.0,2.73,,
249697,2023-12-11 12:00:00+00:00,2.03,2023-12-11 11:56,34.0,33.0,,998.9,330.0,9.2,29.46,96.08,8.0,26.58,,,M,,,GNR,1066761,2023-12-11 12:00:00+00:00,1350.0,2.82,,
249698,2023-12-11 13:00:00+00:00,1.02,2023-12-11 12:56,34.0,33.0,,997.9,320.0,10.35,29.43,96.08,9.0,26.0,,,M,,,GNR,1066765,2023-12-11 13:00:00+00:00,1420.0,2.87,,
249699,2023-12-11 14:00:00+00:00,2.03,2023-12-11 13:56,34.0,32.0,,996.7,330.0,13.8,29.4,92.29,12.0,24.55,,,M,,,GNR,1066769,2023-12-11 14:00:00+00:00,1490.0,2.92,,
249700,2023-12-11 15:00:00+00:00,3.05,2023-12-11 14:56,34.0,32.0,,996.2,340.0,11.5,29.38,92.29,10.0,25.48,,18.0,M,,,GNR,1066773,2023-12-11 15:00:00+00:00,1650.0,3.04,,
249701,2023-12-11 16:00:00+00:00,3.56,2023-12-11 15:56,32.0,31.0,,994.7,320.0,13.8,29.34,96.04,12.0,22.0,,22.0,M,,,GNR,1066777,2023-12-11 16:00:00+00:00,1650.0,3.04,,
249702,2023-12-11 17:00:00+00:00,1.52,2023-12-11 16:56,33.0,32.0,,995.5,320.0,18.4,29.36,96.06,16.0,21.72,,28.0,M,28.0,,GNR,1066781,2023-12-11 17:00:00+00:00,1710.0,3.08,,
249703,2023-12-11 18:00:00+00:00,1.02,2023-12-11 17:56,33.0,32.0,,996.0,310.0,14.95,29.37,96.06,13.0,22.85,,27.0,M,28.0,,GNR,1066785,2023-12-11 18:00:00+00:00,1770.0,3.12,,
249704,2023-12-11 19:00:00+00:00,0.0,2023-12-11 18:56,34.0,32.0,,996.8,320.0,18.4,29.4,92.29,16.0,23.03,,27.0,M,30.0,,GNR,1066789,2023-12-11 19:00:00+00:00,1810.0,3.15,,
249705,2023-12-11 20:00:00+00:00,0.0,2023-12-11 19:56,33.0,31.0,,998.5,320.0,18.4,29.44,92.25,16.0,21.72,,26.0,M,30.0,,GNR,1066793,2023-12-11 20:00:00+00:00,1840.0,3.17,,
249706,2023-12-11 21:00:00+00:00,0.0,2023-12-11 20:56,33.0,31.0,,1000.0,310.0,13.8,29.49,92.25,12.0,23.27,,22.0,M,28.0,,GNR,1066797,2023-12-11 21:00:00+00:00,1870.0,3.19,,
249707,2023-12-11 22:00:00+00:00,0.0,2023-12-11 21:56,33.0,31.0,,1001.3,300.0,10.35,29.53,92.25,9.0,24.76,,21.0,M,,,GNR,1066801,2023-12-11 22:00:00+00:00,1890.0,3.2,,
249708,2023-12-11 23:00:00+00:00,0.0,2023-12-11 22:56,32.0,28.0,,1003.0,320.0,14.95,29.57,84.98,13.0,21.57,,20.0,M,,,GNR,1066805,2023-12-11 23:00:00+00:00,2190.0,3.39,,
249709,2023-12-12 00:00:00+00:00,0.0,2023-12-11 23:56,30.0,25.0,,1004.7,320.0,18.4,29.62,81.4,16.0,17.81,,29.0,M,29.0,,GNR,1066809,2023-12-12 00:00:00+00:00,7330.0,5.79,,
249710,2023-12-12 01:00:00+00:00,0.0,2023-12-12 00:56,29.0,23.0,,1006.0,310.0,11.5,29.66,77.98,10.0,19.21,,25.0,M,,,GNR,1066813,2023-12-12 01:00:00+00:00,7330.0,5.79,,
249711,2023-12-12 02:00:00+00:00,0.0,2023-12-12 01:56,27.0,21.0,,1007.7,300.0,14.95,29.71,77.8,13.0,15.16,,24.0,M,30.0,,GNR,1066817,2023-12-12 02:00:00+00:00,7350.0,5.8,,
249712,2023-12-12 03:00:00+00:00,0.0,2023-12-12 02:56,26.0,21.0,,1009.0,320.0,20.7,29.74,81.09,18.0,11.85,,27.0,M,27.0,,GNR,1066821,2023-12-12 03:00:00+00:00,7330.0,5.79,,
249713,2023-12-12 04:00:00+00:00,0.0,2023-12-12 03:56,25.0,20.0,,1009.9,310.0,11.5,29.77,81.01,10.0,14.19,,23.0,M,30.0,,GNR,1066825,2023-12-12 04:00:00+00:00,7350.0,5.8,,
249714,2023-12-12 05:00:00+00:00,0.0,2023-12-12 04:56,26.0,19.0,,1010.9,,,29.8,74.46,,,,,M,31.0,,GNR,1066829,2023-12-12 05:00:00+00:00,4660.0,4.66,,
249715,2023-12-12 06:00:00+00:00,0.0,2023-12-12 05:56,25.0,18.0,,1012.2,300.0,14.95,29.83,74.36,13.0,12.6,,28.0,M,30.0,,GNR,1066833,2023-12-12 06:00:00+00:00,2420.0,3.53,,
249716,2023-12-12 07:00:00+00:00,0.0,2023-12-12 06:56,25.0,19.0,,1013.1,310.0,12.65,29.86,77.62,11.0,13.62,,23.0,M,28.0,,GNR,1066837,2023-12-12 07:00:00+00:00,1920.0,3.22,,
249717,2023-12-12 08:00:00+00:00,0.0,2023-12-12 07:56,25.0,17.0,,1014.1,300.0,13.8,29.89,71.22,12.0,13.09,,21.0,M,27.0,,GNR,1066841,2023-12-12 08:00:00+00:00,1860.0,3.18,,
249718,2023-12-12 09:00:00+00:00,0.0,2023-12-12 08:56,24.0,14.0,,1015.6,300.0,14.95,29.93,65.17,13.0,11.32,,28.0,M,28.0,,GNR,1066845,2023-12-12 09:00:00+00:00,1840.0,3.17,,
249719,2023-12-12 10:00:00+00:00,0.0,2023-12-12 09:56,22.0,12.0,,1017.1,300.0,12.65,29.97,64.9,11.0,9.83,,22.0,M,34.0,,GNR,1066849,2023-12-12 10:00:00+00:00,1830.0,3.16,,
249720,2023-12-12 11:00:00+00:00,0.0,2023-12-12 10:56,20.0,10.0,,1018.7,,6.9,30.02,64.64,6.0,11.08,,,M,,,GNR,1066853,2023-12-12 11:00:00+00:00,1830.0,3.16,,
249721,2023-12-12 12:00:00+00:00,0.0,2023-12-12 11:56,19.0,10.0,,1019.2,,,30.03,67.46,,,,,M,,,GNR,1066857,2023-12-12 12:00:00+00:00,1810.0,3.15,,
249722,2023-12-12 13:00:00+00:00,0.0,2023-12-12 12:56,20.0,12.0,,1020.3,310.0,4.6,30.06,70.65,4.0,13.41,,,M,,,GNR,1066861,2023-12-12 13:00:00+00:00,1800.0,3.14,,
249723,2023-12-12 14:00:00+00:00,0.0,2023-12-12 13:56,21.0,12.0,,1021.4,300.0,9.2,30.09,67.71,8.0,10.56,,16.0,M,,,GNR,1066865,2023-12-12 14:00:00+00:00,1780.0,3.13,,
249724,2023-12-12 15:00:00+00:00,0.0,2023-12-12 14:56,24.0,12.0,,1021.7,,5.75,30.1,59.67,5.0,16.89,,,M,,,GNR,1066869,2023-12-12 15:00:00+00:00,1770.0,3.12,,
249725,2023-12-12 16:00:00+00:00,0.0,2023-12-12 15:56,25.0,13.0,,1021.5,,5.75,30.1,59.82,5.0,18.08,,,M,,,GNR,1066873,2023-12-12 16:00:00+00:00,1770.0,3.12,,
249726,2023-12-12 17:00:00+00:00,0.0,2023-12-12 16:56,28.0,15.0,,1020.9,0.0,0.0,30.08,57.68,0.0,28.0,,,M,,,GNR,1066877,2023-12-12 17:00:00+00:00,1780.0,3.13,,
249727,2023-12-12 18:00:00+00:00,0.0,2023-12-12 17:56,29.0,16.0,,1020.8,,4.6,30.08,57.83,4.0,23.92,,,M,,,GNR,1066881,2023-12-12 18:00:00+00:00,1780.0,3.13,,
249728,2023-12-12 19:00:00+00:00,0.0,2023-12-12 18:56,30.0,17.0,,1021.0,200.0,6.9,30.09,57.98,6.0,23.12,,,M,,,GNR,1066885,2023-12-12 19:00:00+00:00,1780.0,3.13,,
249729,2023-12-12 20:00:00+00:00,0.0,2023-12-12 19:56,31.0,17.0,,1020.5,190.0,9.2,30.08,55.67,8.0,22.88,,,M,,,GNR,1066889,2023-12-12 20:00:00+00:00,1800.0,3.14,,
249730,2023-12-12 21:00:00+00:00,0.0,2023-12-12 20:56,29.0,17.0,,1020.8,,5.75,30.08,60.39,5.0,22.83,,,M,,,GNR,1066893,2023-12-12 21:00:00+00:00,1800.0,3.14,,
249731,2023-12-12 22:00:00+00:00,0.0,2023-12-12 21:56,28.0,17.0,,1021.0,140.0,6.9,30.08,62.91,6.0,20.71,,,M,,,GNR,1066897,2023-12-12 22:00:00+00:00,1800.0,3.14,,
249732,2023-12-12 23:00:00+00:00,0.0,2023-12-12 22:56,27.0,18.0,,1021.5,120.0,6.9,30.1,68.45,6.0,19.51,,,M,,,GNR,1066901,2023-12-12 23:00:00+00:00,1930.0,3.23,,
249733,2023-12-13 00:00:00+00:00,0.0,2023-12-12 23:56,27.0,18.0,,1021.7,140.0,6.9,30.1,68.45,6.0,19.51,,,M,,,GNR,1066905,2023-12-13 00:00:00+00:00,7130.0,5.71,,
249734,2023-12-13 01:00:00+00:00,0.0,2023-12-13 00:56,27.0,19.0,,1021.7,160.0,8.05,30.1,71.45,7.0,18.68,,,M,,,GNR,1066909,2023-12-13 01:00:00+00:00,7180.0,5.73,,
249735,2023-12-13 02:00:00+00:00,0.0,2023-12-13 01:56,27.0,19.0,,1021.6,150.0,5.75,30.1,71.45,5.0,20.46,,,M,,,GNR,1066913,2023-12-13 02:00:00+00:00,7200.0,5.74,,
249736,2023-12-13 03:00:00+00:00,0.0,2023-12-13 02:56,28.0,20.0,,1021.3,,3.45,30.09,71.56,3.0,24.12,,,M,,,GNR,1066917,2023-12-13 03:00:00+00:00,7200.0,5.74,,
249737,2023-12-13 04:00:00+00:00,0.0,2023-12-13 03:56,28.0,21.0,,1021.0,170.0,5.75,30.08,74.67,5.0,21.64,,,M,,,GNR,1066921,2023-12-13 04:00:00+00:00,4490.0,4.58,,
249738,2023-12-13 05:00:00+00:00,0.0,2023-12-13 04:56,29.0,21.0,,1020.6,,5.75,30.08,71.67,5.0,22.83,,,M,,,GNR,1066925,2023-12-13 05:00:00+00:00,2300.0,3.46,,
249739,2023-12-13 06:00:00+00:00,0.0,2023-12-13 05:56,30.0,22.0,,1020.9,0.0,0.0,30.09,71.78,0.0,30.0,,,M,,,GNR,1066929,2023-12-13 06:00:00+00:00,1810.0,3.15,,
249740,2023-12-13 07:00:00+00:00,0.0,2023-12-13 06:56,31.0,23.0,,1021.1,0.0,0.0,30.1,71.89,0.0,31.0,,,M,,,GNR,1066933,2023-12-13 07:00:00+00:00,1750.0,3.11,,
249741,2023-12-13 08:00:00+00:00,0.0,2023-12-13 07:56,30.0,23.0,,1021.2,210.0,5.75,30.1,74.87,5.0,24.02,,,M,,,GNR,1066937,2023-12-13 08:00:00+00:00,1830.0,3.16,,
249742,2023-12-13 09:00:00+00:00,0.0,2023-12-13 08:56,29.0,23.0,,1021.4,0.0,0.0,30.1,77.98,0.0,29.0,,,M,,,GNR,1066941,2023-12-13 09:00:00+00:00,2010.0,3.28,,
249743,2023-12-13 10:00:00+00:00,0.0,2023-12-13 09:56,29.0,22.0,,1021.3,200.0,3.45,30.1,74.77,3.0,25.26,,,M,,,GNR,1066945,2023-12-13 10:00:00+00:00,2010.0,3.28,,
249744,2023-12-13 11:00:00+00:00,0.25,2023-12-13 10:56,29.0,22.0,,1021.9,,3.45,30.12,74.77,3.0,25.26,,,M,,,GNR,1066949,2023-12-13 11:00:00+00:00,2010.0,3.28,,
249745,2023-12-13 12:00:00+00:00,0.0,2023-12-13 11:56,29.0,19.0,,1022.3,,4.6,30.13,65.81,4.0,23.92,,,M,,,GNR,1066953,2023-12-13 12:00:00+00:00,1990.0,3.27,,
249746,2023-12-13 13:00:00+00:00,0.0,2023-12-13 12:56,28.0,20.0,,1022.5,,,30.13,71.56,,,,,M,,,GNR,1066957,2023-12-13 13:00:00+00:00,1990.0,3.27,,
249747,2023-12-13 14:00:00+00:00,0.0,2023-12-13 13:56,29.0,15.0,,1022.7,300.0,11.5,30.14,55.36,10.0,19.21,,23.0,M,,,GNR,1066961,2023-12-13 14:00:00+00:00,1980.0,3.26,,
249748,2023-12-13 15:00:00+00:00,0.0,2023-12-13 14:56,30.0,16.0,,1022.6,300.0,11.5,30.14,55.52,10.0,20.46,,20.0,M,,,GNR,1066965,2023-12-13 15:00:00+00:00,1980.0,3.26,,
249749,2023-12-13 16:00:00+00:00,0.0,2023-12-13 15:56,27.0,16.0,,1022.3,300.0,9.2,30.13,62.78,8.0,17.95,,24.0,M,27.0,,GNR,1066969,2023-12-13 16:00:00+00:00,1980.0,3.26,2023-12-13 16:00:00+00:00,gs://gcp-public-data-sentinel-2/tiles/19/T/DL/S2B_MSIL1C_20231213T154639_N0510_R011_T19TDL_20231213T192316.SAFE
249750,2023-12-13 17:00:00+00:00,0.0,2023-12-13 16:56,29.0,12.0,,1021.6,310.0,11.5,30.11,48.53,10.0,19.21,,28.0,M,28.0,,GNR,1066973,2023-12-13 17:00:00+00:00,1960.0,3.25,,
249751,2023-12-13 18:00:00+00:00,0.0,2023-12-13 17:56,25.0,14.0,,1021.7,290.0,11.5,30.11,62.5,10.0,14.19,,22.0,M,31.0,,GNR,1066977,2023-12-13 18:00:00+00:00,1950.0,3.24,,
249752,2023-12-13 19:00:00+00:00,0.0,2023-12-13 18:56,25.0,15.0,,1021.8,310.0,12.65,30.11,65.3,11.0,13.62,,21.0,M,,,GNR,1066981,2023-12-13 19:00:00+00:00,1950.0,3.24,,
249753,2023-12-13 20:00:00+00:00,0.0,2023-12-13 19:56,23.0,15.0,,1022.8,310.0,9.2,30.14,70.99,8.0,13.03,,21.0,M,27.0,,GNR,1066985,2023-12-13 20:00:00+00:00,1930.0,3.23,,
249754,2023-12-13 21:00:00+00:00,0.0,2023-12-13 20:56,22.0,12.0,,1023.2,310.0,6.9,30.15,64.9,6.0,13.49,,20.0,M,,,GNR,1066989,2023-12-13 21:00:00+00:00,1930.0,3.23,,
249755,2023-12-13 22:00:00+00:00,0.0,2023-12-13 21:56,21.0,14.0,,1023.8,,,30.16,73.94,,,,,M,,,GNR,1066993,2023-12-13 22:00:00+00:00,1920.0,3.22,,
249756,2023-12-13 23:00:00+00:00,0.0,2023-12-13 22:56,21.0,13.0,,1024.3,,6.9,30.18,70.76,6.0,12.28,,,M,,,GNR,1066997,2023-12-13 23:00:00+00:00,2700.0,3.69,,
249757,2023-12-14 00:00:00+00:00,0.0,2023-12-13 23:56,21.0,12.0,,1024.6,310.0,8.05,30.19,67.71,7.0,11.37,,19.0,M,,,GNR,1067001,2023-12-14 00:00:00+00:00,7010.0,5.66,,
249758,2023-12-14 01:00:00+00:00,0.0,2023-12-14 00:56,20.0,15.0,,1025.1,320.0,14.95,30.2,80.6,13.0,6.19,,25.0,M,,,GNR,1067005,2023-12-14 01:00:00+00:00,7040.0,5.67,,
249759,2023-12-14 02:00:00+00:00,0.0,2023-12-14 01:56,17.0,8.0,,1025.9,320.0,14.95,30.22,67.2,13.0,2.35,,32.0,M,32.0,,GNR,1067009,2023-12-14 02:00:00+00:00,7060.0,5.68,,
249760,2023-12-14 03:00:00+00:00,0.0,2023-12-14 02:56,15.0,5.0,,1026.3,310.0,18.4,30.23,63.96,16.0,-1.74,,26.0,M,26.0,,GNR,1067013,2023-12-14 03:00:00+00:00,4470.0,4.57,,
249761,2023-12-14 04:00:00+00:00,0.0,2023-12-14 03:56,14.0,6.0,,1026.8,310.0,17.25,30.24,69.94,15.0,-2.56,,27.0,M,30.0,,GNR,1067017,2023-12-14 04:00:00+00:00,2300.0,3.46,,
249762,2023-12-14 05:00:00+00:00,0.0,2023-12-14 04:56,13.0,6.0,,1026.9,300.0,13.8,30.25,73.08,12.0,-2.18,,25.0,M,29.0,,GNR,1067021,2023-12-14 05:00:00+00:00,1900.0,3.21,,
249763,2023-12-14 06:00:00+00:00,0.0,2023-12-14 05:56,13.0,5.0,,1027.3,310.0,16.1,30.26,69.82,14.0,-3.33,,28.0,M,31.0,,GNR,1067025,2023-12-14 06:00:00+00:00,1870.0,3.19,,
249764,2023-12-14 07:00:00+00:00,0.0,2023-12-14 06:56,13.0,5.0,,1028.3,300.0,14.95,30.29,69.82,13.0,-2.77,,26.0,M,26.0,,GNR,1067029,2023-12-14 07:00:00+00:00,1860.0,3.18,,
249765,2023-12-14 08:00:00+00:00,0.0,2023-12-14 07:56,12.0,5.0,,1029.0,310.0,16.1,30.3,72.97,14.0,-4.62,,24.0,M,26.0,,GNR,1067033,2023-12-14 08:00:00+00:00,1840.0,3.17,,
249766,2023-12-14 09:00:00+00:00,0.0,2023-12-14 08:56,12.0,5.0,,1029.3,300.0,9.2,30.31,72.97,8.0,-0.52,,19.0,M,,,GNR,1067037,2023-12-14 09:00:00+00:00,1830.0,3.16,,
249767,2023-12-14 10:00:00+00:00,0.0,2023-12-14 09:56,11.0,5.0,,1029.5,310.0,11.5,30.31,76.28,10.0,-3.37,,22.0,M,,,GNR,1067041,2023-12-14 10:00:00+00:00,1830.0,3.16,,
249768,2023-12-14 11:00:00+00:00,0.0,2023-12-14 10:56,12.0,5.0,,1030.1,300.0,11.5,30.33,72.97,10.0,-2.11,,26.0,M,26.0,,GNR,1067045,2023-12-14 11:00:00+00:00,1810.0,3.15,,
249769,2023-12-14 12:00:00+00:00,0.0,2023-12-14 11:56,11.0,5.0,,1030.4,300.0,11.5,30.34,76.28,10.0,-3.37,,25.0,M,,,GNR,1067049,2023-12-14 12:00:00+00:00,1810.0,3.15,,
249770,2023-12-14 13:00:00+00:00,0.0,2023-12-14 12:56,11.0,5.0,,1030.9,310.0,14.95,30.36,76.28,13.0,-5.34,,23.0,M,,,GNR,1067053,2023-12-14 13:00:00+00:00,1830.0,3.16,,
249771,2023-12-14 14:00:00+00:00,0.0,2023-12-14 13:56,13.0,6.0,,1031.6,320.0,10.35,30.37,73.08,9.0,-0.11,,18.0,M,,,GNR,1067057,2023-12-14 14:00:00+00:00,1840.0,3.17,,
249772,2023-12-14 15:00:00+00:00,0.0,2023-12-14 14:56,16.0,7.0,,1032.0,310.0,8.05,30.39,67.07,7.0,5.28,,,M,,,GNR,1067061,2023-12-14 15:00:00+00:00,1830.0,3.16,,
249773,2023-12-14 16:00:00+00:00,0.0,2023-12-14 15:56,19.0,8.0,,1030.8,,5.75,30.35,61.66,5.0,10.96,,,M,,,GNR,1067065,2023-12-14 16:00:00+00:00,1800.0,3.14,,
249774,2023-12-14 17:00:00+00:00,0.0,2023-12-14 16:56,21.0,9.0,,1030.1,310.0,6.9,30.33,59.23,6.0,12.28,,,M,,,GNR,1067069,2023-12-14 17:00:00+00:00,1800.0,3.14,,
249775,2023-12-14 18:00:00+00:00,0.0,2023-12-14 17:56,23.0,10.0,,1029.1,310.0,11.5,30.3,56.93,10.0,11.68,,21.0,M,,,GNR,1067073,2023-12-14 18:00:00+00:00,1780.0,3.13,,
249776,2023-12-14 19:00:00+00:00,0.0,2023-12-14 18:56,24.0,9.0,,1028.3,300.0,9.2,30.28,52.2,8.0,14.26,,,M,,,GNR,1067077,2023-12-14 19:00:00+00:00,1780.0,3.13,,
249777,2023-12-14 20:00:00+00:00,0.0,2023-12-14 19:56,23.0,8.0,,1028.3,290.0,6.9,30.28,52.04,6.0,14.69,,,M,,,GNR,1067081,2023-12-14 20:00:00+00:00,1770.0,3.12,,
249778,2023-12-14 21:00:00+00:00,0.0,2023-12-14 20:56,21.0,9.0,,1028.3,280.0,3.45,30.28,59.23,3.0,16.11,,,M,,,GNR,1067085,2023-12-14 21:00:00+00:00,1770.0,3.12,,
249779,2023-12-14 22:00:00+00:00,0.0,2023-12-14 21:56,20.0,8.0,,1028.1,,3.45,30.27,59.08,3.0,14.97,,,M,,,GNR,1067089,2023-12-14 22:00:00+00:00,1770.0,3.12,,
249780,2023-12-14 23:00:00+00:00,0.0,2023-12-14 22:56,18.0,8.0,,1027.4,0.0,0.0,30.25,64.37,0.0,18.0,,,M,,,GNR,1067093,2023-12-14 23:00:00+00:00,4900.0,4.77,,
249781,2023-12-15 00:00:00+00:00,0.0,2023-12-14 23:56,19.0,9.0,,1026.8,,4.6,30.23,64.5,4.0,12.24,,,M,,,GNR,1067097,2023-12-15 00:00:00+00:00,9490.0,6.65,,
249782,2023-12-15 01:00:00+00:00,0.0,2023-12-15 00:56,20.0,10.0,,1026.2,,3.45,30.22,64.64,3.0,14.97,,,M,,,GNR,1067101,2023-12-15 01:00:00+00:00,9490.0,6.65,,
249783,2023-12-15 02:00:00+00:00,0.0,2023-12-15 01:56,20.0,10.0,,1025.4,150.0,3.45,30.19,64.64,3.0,14.97,,,M,,,GNR,1067105,2023-12-15 02:00:00+00:00,9540.0,6.67,,
249784,2023-12-15 03:00:00+00:00,0.0,2023-12-15 02:56,21.0,12.0,,1024.1,200.0,6.9,30.16,67.71,6.0,12.28,,,M,,,GNR,1067109,2023-12-15 03:00:00+00:00,9560.0,6.68,,
249785,2023-12-15 04:00:00+00:00,0.0,2023-12-15 03:56,21.0,12.0,,1023.3,190.0,5.75,30.14,67.71,5.0,13.33,,,M,,,GNR,1067113,2023-12-15 04:00:00+00:00,4680.0,4.67,,
249786,2023-12-15 05:00:00+00:00,0.0,2023-12-15 04:56,21.0,12.0,,1022.1,0.0,0.0,30.11,67.71,0.0,21.0,,,M,,,GNR,1067117,2023-12-15 05:00:00+00:00,2220.0,3.41,,
249787,2023-12-15 06:00:00+00:00,0.0,2023-12-15 05:56,22.0,12.0,,1020.8,210.0,4.6,30.07,64.9,4.0,15.74,,,M,,,GNR,1067121,2023-12-15 06:00:00+00:00,1780.0,3.13,,
249788,2023-12-15 07:00:00+00:00,0.0,2023-12-15 06:56,20.0,12.0,,1020.2,140.0,3.45,30.05,70.65,3.0,14.97,,,M,,,GNR,1067125,2023-12-15 07:00:00+00:00,1740.0,3.1,,
249789,2023-12-15 08:00:00+00:00,0.0,2023-12-15 07:56,20.0,13.0,,1019.6,120.0,3.45,30.04,73.84,3.0,14.97,,,M,,,GNR,1067129,2023-12-15 08:00:00+00:00,1720.0,3.09,,
249790,2023-12-15 09:00:00+00:00,0.0,2023-12-15 08:56,19.0,12.0,,1018.8,0.0,0.0,30.01,73.73,0.0,19.0,,,M,,,GNR,1067133,2023-12-15 09:00:00+00:00,1710.0,3.08,,
249791,2023-12-15 10:00:00+00:00,0.0,2023-12-15 09:56,20.0,13.0,,1018.3,0.0,0.0,29.99,73.84,0.0,20.0,,,M,,,GNR,1067137,2023-12-15 10:00:00+00:00,1710.0,3.08,,
249792,2023-12-15 11:00:00+00:00,0.0,2023-12-15 10:56,21.0,15.0,,1017.6,0.0,0.0,29.98,77.25,0.0,21.0,,,M,,,GNR,1067141,2023-12-15 11:00:00+00:00,1710.0,3.08,,
249793,2023-12-15 12:00:00+00:00,0.0,2023-12-15 11:56,23.0,18.0,,1017.5,0.0,0.0,29.97,80.85,0.0,23.0,,,M,,,GNR,1067145,2023-12-15 12:00:00+00:00,1980.0,3.26,,
249794,2023-12-15 13:00:00+00:00,0.0,2023-12-15 12:56,30.0,23.0,,1016.9,300.0,8.05,29.96,74.87,7.0,22.34,,,M,,,GNR,1067149,2023-12-15 13:00:00+00:00,6940.0,5.63,,
249795,2023-12-15 14:00:00+00:00,0.0,2023-12-15 13:56,36.0,29.0,,1016.4,310.0,18.4,29.95,75.46,16.0,25.63,,29.0,M,29.0,,GNR,1067153,2023-12-15 14:00:00+00:00,6960.0,5.64,,
249796,2023-12-15 15:00:00+00:00,0.0,2023-12-15 14:56,38.0,30.0,,1016.4,300.0,14.95,29.96,72.64,13.0,29.26,,23.0,M,26.0,,GNR,1067157,2023-12-15 15:00:00+00:00,6990.0,5.65,,
249797,2023-12-15 16:00:00+00:00,0.0,2023-12-15 15:56,38.0,30.0,,1015.9,300.0,18.4,29.94,72.64,16.0,28.24,,31.0,M,31.0,,GNR,1067161,2023-12-15 16:00:00+00:00,4320.0,4.5,2023-12-15 16:00:00+00:00,gs://gcp-public-data-sentinel-2/tiles/19/T/DL/S2A_MSIL1C_20231215T153641_N0510_R111_T19TDL_20231215T173015.SAFE
249798,2023-12-15 17:00:00+00:00,0.0,2023-12-15 16:56,38.0,31.0,,1015.6,310.0,19.55,29.93,75.65,17.0,27.94,,35.0,M,40.0,,GNR,1067165,2023-12-15 17:00:00+00:00,2150.0,3.37,,
249799,2023-12-15 18:00:00+00:00,0.0,2023-12-15 17:56,39.0,31.0,,1015.5,310.0,25.3,29.93,72.75,22.0,27.95,,40.0,M,43.0,,GNR,1067169,2023-12-15 18:00:00+00:00,1720.0,3.09,,
249800,2023-12-15 19:00:00+00:00,0.0,2023-12-15 18:56,38.0,31.0,,1016.9,310.0,16.1,29.97,75.65,14.0,28.9,,29.0,M,35.0,,GNR,1067173,2023-12-15 19:00:00+00:00,1690.0,3.07,,
249801,2023-12-15 20:00:00+00:00,0.0,2023-12-15 19:56,37.0,31.0,,1017.8,310.0,14.95,30.0,78.69,13.0,27.97,,27.0,M,30.0,,GNR,1067177,2023-12-15 20:00:00+00:00,1690.0,3.07,,
249802,2023-12-15 21:00:00+00:00,0.0,2023-12-15 20:56,37.0,30.0,,1018.2,300.0,11.5,30.01,75.56,10.0,29.24,,22.0,M,,,GNR,1067181,2023-12-15 21:00:00+00:00,1690.0,3.07,,
249803,2023-12-15 22:00:00+00:00,0.0,2023-12-15 21:56,37.0,30.0,,1018.7,300.0,10.35,30.02,75.56,9.0,29.73,,20.0,M,,,GNR,1067185,2023-12-15 22:00:00+00:00,1690.0,3.07,,
249804,2023-12-15 23:00:00+00:00,0.0,2023-12-15 22:56,37.0,31.0,,1019.5,300.0,8.05,30.05,78.69,7.0,30.87,,18.0,M,,,GNR,1067189,2023-12-15 23:00:00+00:00,1870.0,3.19,,
249805,2023-12-16 00:00:00+00:00,0.0,2023-12-15 23:56,37.0,31.0,,1019.6,300.0,8.05,30.05,78.69,7.0,30.87,,,M,,,GNR,1067193,2023-12-16 00:00:00+00:00,6960.0,5.64,,
249806,2023-12-16 01:00:00+00:00,0.0,2023-12-16 00:56,38.0,31.0,,1019.8,300.0,9.2,30.07,75.65,8.0,31.5,,18.0,M,,,GNR,1067197,2023-12-16 01:00:00+00:00,6960.0,5.64,,
249807,2023-12-16 02:00:00+00:00,0.0,2023-12-16 01:56,37.0,30.0,,1019.6,300.0,9.2,30.07,75.56,8.0,30.27,,18.0,M,,,GNR,1067201,2023-12-16 02:00:00+00:00,6960.0,5.64,,
249808,2023-12-16 03:00:00+00:00,0.0,2023-12-16 02:56,37.0,30.0,,1019.7,310.0,10.35,30.07,75.56,9.0,29.73,,15.0,M,,,GNR,1067205,2023-12-16 03:00:00+00:00,4100.0,4.4,,
249809,2023-12-16 04:00:00+00:00,0.0,2023-12-16 03:56,38.0,31.0,,1020.1,300.0,8.05,30.08,75.65,7.0,32.09,,,M,,,GNR,1067209,2023-12-16 04:00:00+00:00,2090.0,3.33,,
249810,2023-12-16 05:00:00+00:00,0.0,2023-12-16 04:56,38.0,31.0,,1020.2,310.0,9.2,30.08,75.65,8.0,31.5,,,M,,,GNR,1067213,2023-12-16 05:00:00+00:00,1690.0,3.07,,
249811,2023-12-16 06:00:00+00:00,0.0,2023-12-16 05:56,37.0,30.0,,1020.6,,,30.1,75.56,,,,,M,,,GNR,1067217,2023-12-16 06:00:00+00:00,1660.0,3.05,,
249812,2023-12-16 07:00:00+00:00,0.0,2023-12-16 06:56,37.0,29.0,,1021.6,310.0,11.5,30.12,72.54,10.0,29.24,,21.0,M,,,GNR,1067221,2023-12-16 07:00:00+00:00,1660.0,3.05,,
249813,2023-12-16 08:00:00+00:00,0.0,2023-12-16 07:56,36.0,28.0,,1022.4,320.0,12.65,30.15,72.43,11.0,27.52,,20.0,M,,,GNR,1067225,2023-12-16 08:00:00+00:00,1710.0,3.08,,
249814,2023-12-16 09:00:00+00:00,0.0,2023-12-16 08:56,36.0,28.0,,1023.6,310.0,11.5,30.18,72.43,10.0,27.98,,21.0,M,,,GNR,1067229,2023-12-16 09:00:00+00:00,1800.0,3.14,,
249815,2023-12-16 10:00:00+00:00,0.0,2023-12-16 09:56,35.0,26.0,,1025.0,320.0,19.55,30.22,69.39,17.0,24.01,,33.0,M,33.0,,GNR,1067233,2023-12-16 10:00:00+00:00,1800.0,3.14,,
249816,2023-12-16 11:00:00+00:00,0.0,2023-12-16 10:56,32.0,23.0,,1026.9,310.0,18.4,30.27,69.04,16.0,20.42,,27.0,M,32.0,,GNR,1067237,2023-12-16 11:00:00+00:00,1800.0,3.14,,
249817,2023-12-16 12:00:00+00:00,0.0,2023-12-16 11:56,30.0,21.0,,1028.6,320.0,17.25,30.32,68.81,15.0,18.19,,25.0,M,26.0,,GNR,1067241,2023-12-16 12:00:00+00:00,1780.0,3.13,,
249818,2023-12-16 13:00:00+00:00,0.0,2023-12-16 12:56,30.0,21.0,,1029.6,310.0,13.8,30.35,68.81,12.0,19.46,,22.0,M,,,GNR,1067245,2023-12-16 13:00:00+00:00,1780.0,3.13,,
249819,2023-12-16 14:00:00+00:00,0.0,2023-12-16 13:56,31.0,20.0,,1030.8,310.0,10.35,30.39,63.32,9.0,22.27,,24.0,M,26.0,,GNR,1067249,2023-12-16 14:00:00+00:00,1780.0,3.13,,
249820,2023-12-16 15:00:00+00:00,0.0,2023-12-16 14:56,32.0,19.0,,1031.8,310.0,10.35,30.41,58.27,9.0,23.51,,17.0,M,,,GNR,1067253,2023-12-16 15:00:00+00:00,1780.0,3.13,,
249821,2023-12-16 16:00:00+00:00,0.0,2023-12-16 15:56,32.0,19.0,,1032.1,330.0,18.4,30.42,58.27,16.0,20.42,,24.0,M,,,GNR,1067257,2023-12-16 16:00:00+00:00,1780.0,3.13,,
249822,2023-12-16 17:00:00+00:00,0.0,2023-12-16 16:56,32.0,19.0,,1032.1,320.0,16.1,30.42,58.27,14.0,21.16,,21.0,M,,,GNR,1067261,2023-12-16 17:00:00+00:00,1770.0,3.12,,
249823,2023-12-16 18:00:00+00:00,0.0,2023-12-16 17:56,33.0,19.0,,1032.2,340.0,12.65,30.43,55.97,11.0,23.73,,17.0,M,,,GNR,1067265,2023-12-16 18:00:00+00:00,1770.0,3.12,,
249824,2023-12-16 19:00:00+00:00,0.0,2023-12-16 18:56,34.0,18.0,,1032.6,340.0,8.05,30.44,51.52,7.0,27.22,,,M,,,GNR,1067269,2023-12-16 19:00:00+00:00,1770.0,3.12,,
249825,2023-12-16 20:00:00+00:00,0.0,2023-12-16 19:56,32.0,17.0,,1033.5,340.0,6.9,30.46,53.46,6.0,25.53,,,M,,,GNR,1067273,2023-12-16 20:00:00+00:00,1770.0,3.12,,
249826,2023-12-16 21:00:00+00:00,0.0,2023-12-16 20:56,30.0,17.0,,1034.6,30.0,3.45,30.49,57.98,3.0,26.4,,,M,,,GNR,1067277,2023-12-16 21:00:00+00:00,1920.0,3.22,,
249827,2023-12-16 22:00:00+00:00,0.0,2023-12-16 21:56,29.0,17.0,,1034.9,360.0,5.75,30.5,60.39,5.0,22.83,,,M,,,GNR,1067281,2023-12-16 22:00:00+00:00,6810.0,5.58,,
249828,2023-12-16 23:00:00+00:00,0.0,2023-12-16 22:56,26.0,16.0,,1035.2,70.0,3.45,30.51,65.43,3.0,21.83,,,M,,,GNR,1067285,2023-12-16 23:00:00+00:00,6860.0,5.6,,
249829,2023-12-17 00:00:00+00:00,0.0,2023-12-16 23:56,25.0,15.0,,1036.2,140.0,3.45,30.53,65.3,3.0,20.69,,,M,,,GNR,1067289,2023-12-17 00:00:00+00:00,6840.0,5.59,,
249830,2023-12-17 01:00:00+00:00,0.0,2023-12-17 00:56,26.0,15.0,,1036.6,150.0,5.75,30.54,62.64,5.0,19.27,,,M,,,GNR,1067293,2023-12-17 01:00:00+00:00,6860.0,5.6,,
249831,2023-12-17 02:00:00+00:00,0.0,2023-12-17 01:56,25.0,16.0,,1036.3,140.0,5.75,30.54,68.2,5.0,18.08,,,M,,,GNR,1067297,2023-12-17 02:00:00+00:00,6890.0,5.61,,
249832,2023-12-17 03:00:00+00:00,0.0,2023-12-17 02:56,25.0,16.0,,1036.0,140.0,8.05,30.53,68.2,7.0,16.25,,,M,,,GNR,1067301,2023-12-17 03:00:00+00:00,6890.0,5.61,,
249833,2023-12-17 04:00:00+00:00,0.0,2023-12-17 03:56,24.0,15.0,,1035.6,140.0,5.75,30.52,68.08,5.0,16.89,,,M,,,GNR,1067305,2023-12-17 04:00:00+00:00,6860.0,5.6,,
249834,2023-12-17 05:00:00+00:00,0.0,2023-12-17 04:56,24.0,13.0,,1035.7,130.0,5.75,30.52,62.36,5.0,16.89,,,M,,,GNR,1067309,2023-12-17 05:00:00+00:00,6860.0,5.6,,
249835,2023-12-17 06:00:00+00:00,0.0,2023-12-17 05:56,24.0,14.0,,1035.2,150.0,6.9,30.51,65.17,6.0,15.9,,,M,,,GNR,1067313,2023-12-17 06:00:00+00:00,4260.0,4.47,,
249836,2023-12-17 07:00:00+00:00,0.0,2023-12-17 06:56,25.0,14.0,,1035.7,140.0,9.2,30.52,62.5,8.0,15.49,,,M,,,GNR,1067317,2023-12-17 07:00:00+00:00,2110.0,3.34,,
249837,2023-12-17 08:00:00+00:00,0.0,2023-12-17 07:56,25.0,15.0,,1035.0,140.0,9.2,30.5,65.3,8.0,15.49,,,M,,,GNR,1067321,2023-12-17 08:00:00+00:00,1750.0,3.11,,
249838,2023-12-17 09:00:00+00:00,0.0,2023-12-17 08:56,25.0,15.0,,1034.1,150.0,12.65,30.47,65.3,11.0,13.62,,20.0,M,,,GNR,1067325,2023-12-17 09:00:00+00:00,1720.0,3.09,,
249839,2023-12-17 10:00:00+00:00,0.0,2023-12-17 09:56,26.0,16.0,,1033.8,150.0,10.35,30.46,65.43,9.0,16.05,,17.0,M,,,GNR,1067329,2023-12-17 10:00:00+00:00,1720.0,3.09,,
249840,2023-12-17 11:00:00+00:00,0.0,2023-12-17 10:56,25.0,17.0,,1033.5,150.0,12.65,30.45,71.22,11.0,13.62,,19.0,M,,,GNR,1067333,2023-12-17 11:00:00+00:00,1720.0,3.09,,
249841,2023-12-17 12:00:00+00:00,0.0,2023-12-17 11:56,26.0,19.0,,1033.0,150.0,13.8,30.44,74.46,12.0,14.37,,20.0,M,,,GNR,1067337,2023-12-17 12:00:00+00:00,1710.0,3.08,,
249842,2023-12-17 13:00:00+00:00,0.0,2023-12-17 12:56,26.0,20.0,,1032.7,120.0,11.5,30.43,77.71,10.0,15.44,,,M,,,GNR,1067341,2023-12-17 13:00:00+00:00,1710.0,3.08,,
249843,2023-12-17 14:00:00+00:00,0.0,2023-12-17 13:56,27.0,22.0,,1032.2,140.0,11.5,30.41,81.17,10.0,16.7,,,M,,,GNR,1067345,2023-12-17 14:00:00+00:00,1710.0,3.08,,
249844,2023-12-17 15:00:00+00:00,0.0,2023-12-17 14:56,29.0,24.0,,1031.9,140.0,9.2,30.4,81.32,8.0,20.42,,,M,,,GNR,1067349,2023-12-17 15:00:00+00:00,1710.0,3.08,,
249845,2023-12-17 16:00:00+00:00,0.0,2023-12-17 15:56,32.0,27.0,,1030.4,160.0,9.2,30.36,81.55,8.0,24.11,,17.0,M,,,GNR,1067353,2023-12-17 16:00:00+00:00,1710.0,3.08,,
249846,2023-12-17 17:00:00+00:00,0.0,2023-12-17 16:56,32.0,28.0,,1029.6,150.0,11.5,30.34,84.98,10.0,22.97,,15.0,M,,,GNR,1067357,2023-12-17 17:00:00+00:00,1690.0,3.07,,
249847,2023-12-17 18:00:00+00:00,0.0,2023-12-17 17:56,33.0,29.0,,1028.7,150.0,8.05,30.32,85.04,7.0,26.0,,,M,,,GNR,1067361,2023-12-17 18:00:00+00:00,1710.0,3.08,,
249848,2023-12-17 19:00:00+00:00,0.0,2023-12-17 18:56,33.0,30.0,,1027.8,140.0,9.2,30.29,88.58,8.0,25.34,,,M,,,GNR,1067365,2023-12-17 19:00:00+00:00,1690.0,3.07,,
249849,2023-12-17 20:00:00+00:00,0.0,2023-12-17 19:56,33.0,32.0,,1027.9,,5.75,30.29,96.06,5.0,27.58,,,M,,,GNR,1067369,2023-12-17 20:00:00+00:00,2030.0,3.29,,
249850,2023-12-17 21:00:00+00:00,0.0,2023-12-17 20:56,34.0,33.0,,1027.3,130.0,9.2,30.27,96.08,8.0,26.58,,,M,,,GNR,1067373,2023-12-17 21:00:00+00:00,6780.0,5.57,,
249851,2023-12-17 22:00:00+00:00,0.25,2023-12-17 21:56,34.0,34.0,,1026.2,130.0,10.35,30.24,100.0,9.0,26.0,,,M,,,GNR,1067377,2023-12-17 22:00:00+00:00,6780.0,5.57,,
249852,2023-12-17 23:00:00+00:00,0.0,2023-12-17 22:56,36.0,35.0,,1025.6,130.0,10.35,30.23,96.11,9.0,28.49,,16.0,M,,,GNR,1067381,2023-12-17 23:00:00+00:00,6810.0,5.58,,
249853,2023-12-18 00:00:00+00:00,0.0,2023-12-17 23:56,36.0,36.0,,1024.5,140.0,9.2,30.2,100.0,8.0,29.04,,19.0,M,,,GNR,1067385,2023-12-18 00:00:00+00:00,6780.0,5.57,,
249854,2023-12-18 01:00:00+00:00,0.25,2023-12-18 00:56,37.0,36.0,,1023.1,130.0,12.65,30.16,96.13,11.0,28.79,,16.0,M,,,GNR,1067389,2023-12-18 01:00:00+00:00,6780.0,5.57,,
249855,2023-12-18 02:00:00+00:00,1.52,2023-12-18 01:56,37.0,36.0,,1021.6,130.0,13.8,30.12,96.13,12.0,28.37,,,M,,,GNR,1067393,2023-12-18 02:00:00+00:00,6810.0,5.58,,
249856,2023-12-18 03:00:00+00:00,0.76,2023-12-18 02:56,37.0,36.0,,1020.1,130.0,11.5,30.07,96.13,10.0,29.24,,,M,,,GNR,1067397,2023-12-18 03:00:00+00:00,6810.0,5.58,,
249857,2023-12-18 04:00:00+00:00,0.25,2023-12-18 03:56,38.0,38.0,,1017.8,130.0,12.65,30.01,100.0,11.0,30.05,,20.0,M,,,GNR,1067401,2023-12-18 04:00:00+00:00,6810.0,5.58,,
249858,2023-12-18 05:00:00+00:00,1.27,2023-12-18 04:56,39.0,39.0,,1015.6,120.0,12.65,29.95,100.0,11.0,31.31,,19.0,M,,,GNR,1067405,2023-12-18 05:00:00+00:00,4130.0,4.41,,
249859,2023-12-18 06:00:00+00:00,3.81,2023-12-18 05:56,41.0,40.0,,1014.0,120.0,12.65,29.9,96.19,11.0,33.84,,,M,,,GNR,1067409,2023-12-18 06:00:00+00:00,2070.0,3.32,,
249860,2023-12-18 07:00:00+00:00,6.1,2023-12-18 06:56,40.0,40.0,,1013.4,,3.45,29.88,100.0,3.0,37.83,,,M,,,GNR,1067413,2023-12-18 07:00:00+00:00,1770.0,3.12,,
249861,2023-12-18 08:00:00+00:00,2.79,2023-12-18 07:56,44.0,44.0,,1011.0,120.0,11.5,29.82,100.0,10.0,38.02,,,M,,,GNR,1067417,2023-12-18 08:00:00+00:00,1770.0,3.12,,
249862,2023-12-18 09:00:00+00:00,1.52,2023-12-18 08:56,46.0,46.0,,1008.9,120.0,11.5,29.76,100.0,10.0,40.52,,,M,,,GNR,1067421,2023-12-18 09:00:00+00:00,1780.0,3.13,,
249863,2023-12-18 10:00:00+00:00,1.52,2023-12-18 09:56,48.0,48.0,,1007.4,140.0,16.1,29.71,100.0,14.0,41.79,,31.0,M,31.0,,GNR,1067425,2023-12-18 10:00:00+00:00,1810.0,3.15,,
249864,2023-12-18 11:00:00+00:00,3.56,2023-12-18 10:56,49.0,49.0,,1005.1,150.0,14.95,29.65,100.0,13.0,43.35,,29.0,M,30.0,,GNR,1067429,2023-12-18 11:00:00+00:00,1860.0,3.18,,
249865,2023-12-18 12:00:00+00:00,2.79,2023-12-18 11:56,49.0,49.0,,1004.1,150.0,12.65,29.62,100.0,11.0,43.95,,28.0,M,32.0,,GNR,1067433,2023-12-18 12:00:00+00:00,1900.0,3.21,,
249866,2023-12-18 13:00:00+00:00,3.81,2023-12-18 12:56,50.0,49.0,,1001.8,150.0,16.1,29.56,96.34,14.0,50.0,,27.0,M,29.0,,GNR,1067437,2023-12-18 13:00:00+00:00,1980.0,3.26,,
249867,2023-12-18 14:00:00+00:00,4.57,2023-12-18 13:56,51.0,50.0,,999.6,140.0,14.95,29.49,96.36,13.0,51.0,,30.0,M,36.0,,GNR,1067441,2023-12-18 14:00:00+00:00,2090.0,3.33,,
249868,2023-12-18 15:00:00+00:00,7.62,2023-12-18 14:56,51.0,51.0,,996.3,140.0,23.0,29.4,100.0,20.0,51.0,,36.0,M,39.0,,GNR,1067445,2023-12-18 15:00:00+00:00,2250.0,3.43,,
249869,2023-12-18 16:00:00+00:00,9.4,2023-12-18 15:56,53.0,52.0,,993.3,130.0,23.0,29.31,96.39,20.0,53.0,,41.0,M,41.0,,GNR,1067449,2023-12-18 16:00:00+00:00,2520.0,3.59,2023-12-18 16:00:00+00:00,gs://gcp-public-data-sentinel-2/tiles/19/T/DL/S2A_MSIL1C_20231218T154651_N0510_R011_T19TDL_20231218T174113.SAFE
249870,2023-12-18 17:00:00+00:00,8.89,2023-12-18 16:56,54.0,53.0,,991.3,150.0,20.7,29.26,96.4,18.0,54.0,,45.0,M,45.0,,GNR,1067453,2023-12-18 17:00:00+00:00,2980.0,3.84,,
249871,2023-12-18 18:00:00+00:00,9.91,2023-12-18 17:56,54.0,53.0,,989.6,150.0,23.0,29.21,96.4,20.0,54.0,,38.0,M,47.0,,GNR,1067457,2023-12-18 18:00:00+00:00,6460.0,5.44,,
249872,2023-12-18 19:00:00+00:00,9.4,2023-12-18 18:56,54.0,54.0,,988.3,160.0,16.1,29.17,100.0,14.0,54.0,,42.0,M,44.0,,GNR,1067461,2023-12-18 19:00:00+00:00,10100.0,6.91,,
249873,2023-12-18 20:00:00+00:00,8.38,2023-12-18 19:56,55.0,54.0,,989.2,160.0,19.55,29.2,96.42,17.0,55.0,,36.0,M,45.0,,GNR,1067465,2023-12-18 20:00:00+00:00,11700.0,7.51,,
249874,2023-12-18 21:00:00+00:00,6.1,2023-12-18 20:56,54.0,53.0,,986.7,150.0,20.7,29.13,96.4,18.0,54.0,,40.0,M,40.0,,GNR,1067469,2023-12-18 21:00:00+00:00,13800.0,8.36,,
249875,2023-12-18 22:00:00+00:00,6.86,2023-12-18 21:56,54.0,54.0,,984.0,150.0,23.0,29.05,100.0,20.0,54.0,,42.0,M,42.0,,GNR,1067473,2023-12-18 22:00:00+00:00,15300.0,8.94,,
249876,2023-12-18 23:00:00+00:00,8.64,2023-12-18 22:56,55.0,54.0,,981.8,150.0,20.7,28.99,96.42,18.0,55.0,,40.0,M,42.0,,GNR,1067477,2023-12-18 23:00:00+00:00,16500.0,9.42,,
249877,2023-12-19 00:00:00+00:00,4.83,2023-12-18 23:56,54.0,54.0,,982.0,160.0,11.5,28.99,100.0,10.0,54.0,,33.0,M,39.0,,GNR,1067481,2023-12-19 00:00:00+00:00,17200.0,9.7,,
249878,2023-12-19 01:00:00+00:00,2.03,2023-12-19 00:56,53.0,53.0,,983.8,,6.9,29.05,100.0,6.0,53.0,,24.0,M,30.0,,GNR,1067485,2023-12-19 01:00:00+00:00,17500.0,9.81,,
249879,2023-12-19 02:00:00+00:00,0.76,2023-12-19 01:56,52.0,52.0,,986.8,230.0,5.75,29.13,100.0,5.0,52.0,,18.0,M,,,GNR,1067489,2023-12-19 02:00:00+00:00,17800.0,9.92,,
249880,2023-12-19 03:00:00+00:00,0.0,2023-12-19 02:56,47.0,44.0,,989.8,,,29.21,89.24,,,,,M,,,GNR,1067493,2023-12-19 03:00:00+00:00,17700.0,9.88,,
249881,2023-12-19 04:00:00+00:00,0.0,2023-12-19 03:56,44.0,42.0,,992.0,,3.45,29.28,92.61,3.0,42.41,,,M,,,GNR,1067497,2023-12-19 04:00:00+00:00,17200.0,9.68,,
249882,2023-12-19 05:00:00+00:00,0.0,2023-12-19 04:56,44.0,41.0,,994.1,,3.45,29.34,89.11,3.0,42.41,,,M,,,GNR,1067501,2023-12-19 05:00:00+00:00,19500.0,10.55,,
249883,2023-12-19 06:00:00+00:00,0.0,2023-12-19 05:56,43.0,40.0,,996.9,,4.6,29.42,89.06,4.0,40.27,,,M,,,GNR,1067505,2023-12-19 06:00:00+00:00,19100.0,10.39,,
249884,2023-12-19 07:00:00+00:00,0.0,2023-12-19 06:56,42.0,39.0,,998.4,0.0,0.0,29.46,89.01,0.0,42.0,,,M,,,GNR,1067509,2023-12-19 07:00:00+00:00,19400.0,10.51,,
249885,2023-12-19 08:00:00+00:00,0.0,2023-12-19 07:56,42.0,39.0,,999.2,0.0,0.0,29.49,89.01,0.0,42.0,,,M,,,GNR,1067513,2023-12-19 08:00:00+00:00,20600.0,10.95,,
249886,2023-12-19 09:00:00+00:00,0.0,2023-12-19 08:56,42.0,39.0,,1000.2,0.0,0.0,29.52,89.01,0.0,42.0,,,M,,,GNR,1067517,2023-12-19 09:00:00+00:00,20400.0,10.87,,
249887,2023-12-19 10:00:00+00:00,0.0,2023-12-19 09:56,40.0,40.0,,1000.9,130.0,5.75,29.54,100.0,5.0,35.9,,,M,,,GNR,1067521,2023-12-19 10:00:00+00:00,20300.0,10.82,,
249888,2023-12-19 11:00:00+00:00,0.0,2023-12-19 10:56,40.0,40.0,,1001.1,160.0,6.9,29.54,100.0,6.0,35.17,,,M,,,GNR,1067525,2023-12-19 11:00:00+00:00,20100.0,10.76,,
249889,2023-12-19 12:00:00+00:00,0.0,2023-12-19 11:56,39.0,39.0,,1002.4,170.0,6.9,29.58,100.0,6.0,33.96,,,M,,,GNR,1067529,2023-12-19 12:00:00+00:00,19700.0,10.63,,
249890,2023-12-19 13:00:00+00:00,0.0,2023-12-19 12:56,38.0,38.0,,1004.3,170.0,9.2,29.63,100.0,8.0,31.5,,,M,,,GNR,1067533,2023-12-19 13:00:00+00:00,19600.0,10.57,,
249891,2023-12-19 14:00:00+00:00,0.0,2023-12-19 13:56,38.0,37.0,,1005.3,,6.9,29.66,96.14,6.0,32.76,,,M,,,GNR,1067537,2023-12-19 14:00:00+00:00,19300.0,10.48,,
249892,2023-12-19 15:00:00+00:00,0.0,2023-12-19 14:56,39.0,36.0,,1006.4,190.0,6.9,29.69,88.87,6.0,33.96,,,M,,,GNR,1067541,2023-12-19 15:00:00+00:00,19000.0,10.37,,
249893,2023-12-19 16:00:00+00:00,0.0,2023-12-19 15:56,40.0,36.0,,1006.4,,4.6,29.69,85.48,4.0,36.76,,,M,,,GNR,1067545,2023-12-19 16:00:00+00:00,18700.0,10.26,,
249894,2023-12-19 17:00:00+00:00,0.0,2023-12-19 16:56,42.0,35.0,,1006.5,,5.75,29.69,76.03,5.0,38.27,,,M,,,GNR,1067549,2023-12-19 17:00:00+00:00,18500.0,10.19,,
249895,2023-12-19 18:00:00+00:00,0.0,2023-12-19 17:56,43.0,33.0,,1007.3,,5.75,29.72,67.54,5.0,39.46,,,M,,,GNR,1067553,2023-12-19 18:00:00+00:00,18300.0,10.1,,
249896,2023-12-19 19:00:00+00:00,0.0,2023-12-19 18:56,41.0,29.0,,1008.5,,,29.75,62.04,,,,,M,,,GNR,1067557,2023-12-19 19:00:00+00:00,20300.0,10.83,,
249897,2023-12-19 20:00:00+00:00,0.0,2023-12-19 19:56,41.0,26.0,,1009.6,,4.6,29.78,54.84,4.0,37.93,,,M,,,GNR,1067561,2023-12-19 20:00:00+00:00,20300.0,10.82,,
249898,2023-12-19 21:00:00+00:00,0.0,2023-12-19 20:56,36.0,24.0,,1011.7,0.0,0.0,29.84,61.37,0.0,36.0,,,M,,,GNR,1067565,2023-12-19 21:00:00+00:00,20000.0,10.71,,
249899,2023-12-19 22:00:00+00:00,0.0,2023-12-19 21:56,35.0,28.0,,1013.7,300.0,11.5,29.89,75.36,10.0,26.73,,18.0,M,,,GNR,1067569,2023-12-19 22:00:00+00:00,19700.0,10.61,,
249900,2023-12-19 23:00:00+00:00,0.0,2023-12-19 22:56,34.0,29.0,,1015.7,300.0,6.9,29.95,81.71,6.0,27.94,,15.0,M,,,GNR,1067573,2023-12-19 23:00:00+00:00,19600.0,10.58,,
249901,2023-12-20 00:00:00+00:00,0.0,2023-12-19 23:56,32.0,26.0,,1017.1,330.0,10.35,29.99,78.25,9.0,23.51,,19.0,M,,,GNR,1067577,2023-12-20 00:00:00+00:00,19400.0,10.5,,
249902,2023-12-20 01:00:00+00:00,0.0,2023-12-20 00:56,30.0,25.0,,1018.4,310.0,8.05,30.02,81.4,7.0,22.34,,15.0,M,,,GNR,1067581,2023-12-20 01:00:00+00:00,19200.0,10.45,,
249903,2023-12-20 02:00:00+00:00,0.0,2023-12-20 01:56,28.0,22.0,,1019.1,310.0,14.95,30.04,77.89,13.0,16.44,,25.0,M,28.0,,GNR,1067585,2023-12-20 02:00:00+00:00,18900.0,10.34,,
249904,2023-12-20 03:00:00+00:00,0.0,2023-12-20 02:56,27.0,21.0,,1020.3,300.0,11.5,30.08,77.8,10.0,16.7,,21.0,M,27.0,,GNR,1067589,2023-12-20 03:00:00+00:00,18800.0,10.28,,
249905,2023-12-20 04:00:00+00:00,0.0,2023-12-20 03:56,26.0,21.0,,1021.1,330.0,18.4,30.1,81.09,16.0,12.6,,26.0,M,26.0,,GNR,1067593,2023-12-20 04:00:00+00:00,18700.0,10.24,,
249906,2023-12-20 05:00:00+00:00,0.0,2023-12-20 04:56,26.0,21.0,,1021.0,320.0,17.25,30.1,81.09,15.0,13.0,,23.0,M,27.0,,GNR,1067597,2023-12-20 05:00:00+00:00,18700.0,10.23,,
249907,2023-12-20 06:00:00+00:00,0.0,2023-12-20 05:56,26.0,20.0,,1021.3,330.0,16.1,30.11,77.71,14.0,13.43,,22.0,M,,,GNR,1067601,2023-12-20 06:00:00+00:00,18400.0,10.15,,
249908,2023-12-20 07:00:00+00:00,0.0,2023-12-20 06:56,25.0,20.0,,1022.2,320.0,14.95,30.13,81.01,13.0,12.6,,23.0,M,27.0,,GNR,1067605,2023-12-20 07:00:00+00:00,18300.0,10.11,,
249909,2023-12-20 08:00:00+00:00,0.0,2023-12-20 07:56,24.0,20.0,,1022.5,330.0,16.1,30.14,84.46,14.0,10.85,,24.0,M,,,GNR,1067609,2023-12-20 08:00:00+00:00,18300.0,10.09,,
249910,2023-12-20 09:00:00+00:00,0.0,2023-12-20 08:56,24.0,19.0,,1023.2,340.0,17.25,30.16,80.93,15.0,10.41,,25.0,M,,,GNR,1067613,2023-12-20 09:00:00+00:00,18100.0,10.01,,
249911,2023-12-20 10:00:00+00:00,0.0,2023-12-20 09:56,23.0,18.0,,1023.8,340.0,12.65,30.17,80.85,11.0,11.09,,20.0,M,,,GNR,1067617,2023-12-20 10:00:00+00:00,18000.0,9.99,,
249912,2023-12-20 11:00:00+00:00,0.0,2023-12-20 10:56,23.0,18.0,,1024.6,330.0,13.8,30.2,80.85,12.0,10.55,,21.0,M,,,GNR,1067621,2023-12-20 11:00:00+00:00,17800.0,9.91,,
249913,2023-12-20 12:00:00+00:00,0.0,2023-12-20 11:56,23.0,17.0,,1025.4,340.0,13.8,30.22,77.44,12.0,10.55,,18.0,M,,,GNR,1067625,2023-12-20 12:00:00+00:00,17800.0,9.9,,
249914,2023-12-20 13:00:00+00:00,0.0,2023-12-20 12:56,24.0,18.0,,1026.1,340.0,12.65,30.23,77.53,11.0,12.36,,17.0,M,,,GNR,1067629,2023-12-20 13:00:00+00:00,17700.0,9.87,,
249915,2023-12-20 14:00:00+00:00,0.0,2023-12-20 13:56,23.0,15.0,,1026.5,330.0,13.8,30.25,70.99,12.0,10.55,,21.0,M,,,GNR,1067633,2023-12-20 14:00:00+00:00,17400.0,9.78,,
249916,2023-12-20 15:00:00+00:00,0.0,2023-12-20 14:56,25.0,15.0,,1026.1,330.0,13.8,30.24,65.3,12.0,13.09,,19.0,M,,,GNR,1067637,2023-12-20 15:00:00+00:00,17400.0,9.75,,
249917,2023-12-20 16:00:00+00:00,0.0,2023-12-20 15:56,26.0,17.0,,1025.0,320.0,11.5,30.2,68.32,10.0,15.44,,17.0,M,,,GNR,1067641,2023-12-20 16:00:00+00:00,16300.0,9.35,2023-12-20 16:00:00+00:00,gs://gcp-public-data-sentinel-2/tiles/19/T/DL/S2B_MSIL1C_20231220T153649_N0510_R111_T19TDL_20231220T172557.SAFE
249918,2023-12-20 17:00:00+00:00,0.0,2023-12-20 16:56,28.0,16.0,,1023.5,330.0,14.95,30.16,60.25,13.0,16.44,,21.0,M,,,GNR,1067645,2023-12-20 17:00:00+00:00,15900.0,9.21,,
249919,2023-12-20 18:00:00+00:00,0.0,2023-12-20 17:56,30.0,16.0,,1023.8,330.0,13.8,30.17,55.52,12.0,19.46,,22.0,M,,,GNR,1067649,2023-12-20 18:00:00+00:00,15800.0,9.15,,
249920,2023-12-20 19:00:00+00:00,0.0,2023-12-20 18:56,30.0,17.0,,1023.7,330.0,13.8,30.17,57.98,12.0,19.46,,23.0,M,,,GNR,1067653,2023-12-20 19:00:00+00:00,15800.0,9.15,,
249921,2023-12-20 20:00:00+00:00,0.0,2023-12-20 19:56,29.0,17.0,,1024.5,330.0,13.8,30.19,60.39,12.0,18.18,,22.0,M,,,GNR,1067657,2023-12-20 20:00:00+00:00,15700.0,9.11,,
249922,2023-12-20 21:00:00+00:00,0.0,2023-12-20 20:56,28.0,18.0,,1025.1,320.0,14.95,30.21,65.69,13.0,16.44,,20.0,M,,,GNR,1067661,2023-12-20 21:00:00+00:00,15800.0,9.14,,
249923,2023-12-20 22:00:00+00:00,0.0,2023-12-20 21:56,27.0,19.0,,1025.2,330.0,18.4,30.21,71.45,16.0,13.9,,23.0,M,,,GNR,1067665,2023-12-20 22:00:00+00:00,15600.0,9.09,,
249924,2023-12-20 23:00:00+00:00,0.0,2023-12-20 22:56,27.0,20.0,,1025.3,330.0,17.25,30.21,74.57,15.0,14.3,,26.0,M,27.0,,GNR,1067669,2023-12-20 23:00:00+00:00,15700.0,9.1,,
249925,2023-12-21 00:00:00+00:00,0.0,2023-12-20 23:56,28.0,21.0,,1025.3,330.0,18.4,30.21,74.67,16.0,15.2,,28.0,M,29.0,,GNR,1067673,2023-12-21 00:00:00+00:00,15600.0,9.06,,
249926,2023-12-21 01:00:00+00:00,0.0,2023-12-21 00:56,27.0,20.0,,1025.4,330.0,16.1,30.21,74.57,14.0,14.72,,29.0,M,29.0,,GNR,1067677,2023-12-21 01:00:00+00:00,15600.0,9.06,,
249927,2023-12-21 02:00:00+00:00,0.0,2023-12-21 01:56,25.0,20.0,,1025.4,330.0,16.1,30.21,81.01,14.0,12.14,,26.0,M,30.0,,GNR,1067681,2023-12-21 02:00:00+00:00,15500.0,9.03,,
249928,2023-12-21 03:00:00+00:00,0.0,2023-12-21 02:56,25.0,19.0,,1025.4,340.0,19.55,30.21,77.62,17.0,10.9,,27.0,M,30.0,,GNR,1067685,2023-12-21 03:00:00+00:00,15400.0,9.0,,
249929,2023-12-21 04:00:00+00:00,0.0,2023-12-21 03:56,24.0,18.0,,1024.8,330.0,20.7,30.19,77.53,18.0,9.22,,30.0,M,30.0,,GNR,1067689,2023-12-21 04:00:00+00:00,15400.0,9.0,,
249930,2023-12-21 05:00:00+00:00,0.0,2023-12-21 04:56,24.0,17.0,,1024.6,340.0,18.4,30.19,74.26,16.0,9.99,,27.0,M,31.0,,GNR,1067693,2023-12-21 05:00:00+00:00,15400.0,8.98,,
249931,2023-12-21 06:00:00+00:00,0.0,2023-12-21 05:56,23.0,16.0,,1024.9,350.0,17.25,30.2,74.15,15.0,9.11,,28.0,M,39.0,,GNR,1067697,2023-12-21 06:00:00+00:00,15300.0,8.96,,
249932,2023-12-21 07:00:00+00:00,0.0,2023-12-21 06:56,22.0,13.0,,1025.4,350.0,21.85,30.22,67.83,19.0,6.21,,36.0,M,36.0,,GNR,1067701,2023-12-21 07:00:00+00:00,15300.0,8.96,,
249933,2023-12-21 08:00:00+00:00,0.0,2023-12-21 07:56,20.0,10.0,,1026.2,340.0,23.0,30.24,64.64,20.0,3.2,,37.0,M,40.0,,GNR,1067705,2023-12-21 08:00:00+00:00,15200.0,8.92,,
249934,2023-12-21 09:00:00+00:00,0.0,2023-12-21 08:56,18.0,10.0,,1026.4,350.0,25.3,30.24,70.41,22.0,-0.17,,35.0,M,40.0,,GNR,1067709,2023-12-21 09:00:00+00:00,15100.0,8.9,,
249935,2023-12-21 10:00:00+00:00,0.0,2023-12-21 09:56,17.0,5.0,,1027.0,350.0,20.7,30.25,58.64,18.0,0.0,,34.0,M,36.0,,GNR,1067713,2023-12-21 10:00:00+00:00,15100.0,8.9,,
249936,2023-12-21 11:00:00+00:00,0.0,2023-12-21 10:56,16.0,5.0,,1027.7,340.0,21.85,30.27,61.23,19.0,-1.72,,39.0,M,42.0,,GNR,1067717,2023-12-21 11:00:00+00:00,15100.0,8.87,,
249937,2023-12-21 12:00:00+00:00,0.0,2023-12-21 11:56,15.0,6.0,,1028.1,350.0,20.7,30.28,66.95,18.0,-2.63,,33.0,M,39.0,,GNR,1067721,2023-12-21 12:00:00+00:00,15000.0,8.85,,
249938,2023-12-21 13:00:00+00:00,0.0,2023-12-21 12:56,15.0,6.0,,1029.0,340.0,16.1,30.31,66.95,14.0,-0.75,,33.0,M,37.0,,GNR,1067725,2023-12-21 13:00:00+00:00,14900.0,8.8,,
249939,2023-12-21 14:00:00+00:00,0.0,2023-12-21 13:56,15.0,6.0,,1029.2,340.0,19.55,30.31,66.95,17.0,-2.2,,31.0,M,34.0,,GNR,1067729,2023-12-21 14:00:00+00:00,14800.0,8.77,,
249940,2023-12-21 15:00:00+00:00,0.0,2023-12-21 14:56,17.0,7.0,,1028.8,340.0,19.55,30.3,64.23,17.0,0.42,,30.0,M,34.0,,GNR,1067733,2023-12-21 15:00:00+00:00,14900.0,8.79,,
249941,2023-12-21 16:00:00+00:00,0.0,2023-12-21 15:56,19.0,7.0,,1027.9,350.0,17.25,30.28,58.94,15.0,3.93,,31.0,M,34.0,,GNR,1067737,2023-12-21 16:00:00+00:00,14900.0,8.79,,
249942,2023-12-21 17:00:00+00:00,0.0,2023-12-21 16:56,21.0,7.0,,1026.9,340.0,17.25,30.25,54.12,15.0,6.52,,26.0,M,36.0,,GNR,1067741,2023-12-21 17:00:00+00:00,14700.0,8.73,,
249943,2023-12-21 18:00:00+00:00,0.0,2023-12-21 17:56,21.0,6.0,,1026.6,340.0,16.1,30.24,51.72,14.0,6.98,,33.0,M,34.0,,GNR,1067745,2023-12-21 18:00:00+00:00,14800.0,8.76,,
249944,2023-12-21 19:00:00+00:00,0.0,2023-12-21 18:56,22.0,4.0,,1026.3,340.0,24.15,30.23,45.24,21.0,5.52,,35.0,M,35.0,,GNR,1067749,2023-12-21 19:00:00+00:00,14800.0,8.78,,
249945,2023-12-21 20:00:00+00:00,0.0,2023-12-21 19:56,21.0,3.0,,1026.8,340.0,20.7,30.24,45.06,18.0,5.27,,33.0,M,40.0,,GNR,1067753,2023-12-21 20:00:00+00:00,14900.0,8.79,,
249946,2023-12-21 21:00:00+00:00,0.0,2023-12-21 20:56,19.0,3.0,,1027.6,340.0,17.25,30.27,49.07,15.0,3.93,,29.0,M,36.0,,GNR,1067757,2023-12-21 21:00:00+00:00,15000.0,8.83,,
249947,2023-12-21 22:00:00+00:00,0.0,2023-12-21 21:56,18.0,4.0,,1028.5,340.0,14.95,30.29,53.64,13.0,3.63,,28.0,M,32.0,,GNR,1067761,2023-12-21 22:00:00+00:00,14800.0,8.78,,
249948,2023-12-21 23:00:00+00:00,0.0,2023-12-21 22:56,16.0,4.0,,1029.3,340.0,21.85,30.31,58.49,19.0,-1.72,,32.0,M,34.0,,GNR,1067765,2023-12-21 23:00:00+00:00,14100.0,8.47,,
249949,2023-12-22 00:00:00+00:00,0.0,2023-12-21 23:56,15.0,4.0,,1029.6,340.0,17.25,30.31,61.09,15.0,-1.26,,26.0,M,33.0,,GNR,1067769,2023-12-22 00:00:00+00:00,13600.0,8.28,,
249950,2023-12-22 01:00:00+00:00,0.0,2023-12-22 00:56,14.0,5.0,,1029.6,350.0,13.8,30.31,66.82,12.0,-0.91,,19.0,M,,,GNR,1067773,2023-12-22 01:00:00+00:00,13400.0,8.22,,
249951,2023-12-22 02:00:00+00:00,0.0,2023-12-22 01:56,13.0,5.0,,1029.5,330.0,16.1,30.31,69.82,14.0,-3.33,,24.0,M,28.0,,GNR,1067777,2023-12-22 02:00:00+00:00,13500.0,8.24,,
249952,2023-12-22 03:00:00+00:00,0.0,2023-12-22 02:56,13.0,5.0,,1029.2,330.0,23.0,30.3,69.82,20.0,-6.1,,30.0,M,31.0,,GNR,1067781,2023-12-22 03:00:00+00:00,13500.0,8.24,,
249953,2023-12-22 04:00:00+00:00,0.0,2023-12-22 03:56,13.0,5.0,,1029.1,330.0,18.4,30.3,69.82,16.0,-4.35,,25.0,M,31.0,,GNR,1067785,2023-12-22 04:00:00+00:00,13400.0,8.22,,
249954,2023-12-22 05:00:00+00:00,0.0,2023-12-22 04:56,13.0,5.0,,1028.8,340.0,14.95,30.29,69.82,13.0,-2.77,,27.0,M,28.0,,GNR,1067789,2023-12-22 05:00:00+00:00,13400.0,8.19,,
249955,2023-12-22 06:00:00+00:00,0.0,2023-12-22 05:56,12.0,4.0,,1028.8,330.0,20.7,30.29,69.7,18.0,-6.58,,31.0,M,34.0,,GNR,1067793,2023-12-22 06:00:00+00:00,13500.0,8.25,,
249956,2023-12-22 07:00:00+00:00,0.0,2023-12-22 06:56,12.0,4.0,,1029.0,340.0,14.95,30.3,69.7,13.0,-4.05,,22.0,M,30.0,,GNR,1067797,2023-12-22 07:00:00+00:00,14600.0,8.67,,
249957,2023-12-22 08:00:00+00:00,0.0,2023-12-22 07:56,11.0,4.0,,1028.6,350.0,16.1,30.29,72.86,14.0,-5.91,,23.0,M,26.0,,GNR,1067801,2023-12-22 08:00:00+00:00,14500.0,8.64,,
249958,2023-12-22 09:00:00+00:00,0.0,2023-12-22 08:56,11.0,4.0,,1028.9,350.0,12.65,30.29,72.86,11.0,-4.07,,21.0,M,27.0,,GNR,1067805,2023-12-22 09:00:00+00:00,14500.0,8.64,,
249959,2023-12-22 10:00:00+00:00,0.0,2023-12-22 09:56,11.0,4.0,,1029.1,350.0,17.25,30.3,72.86,15.0,-6.44,,22.0,M,,,GNR,1067809,2023-12-22 10:00:00+00:00,14500.0,8.65,,
249960,2023-12-22 11:00:00+00:00,0.0,2023-12-22 10:56,11.0,3.0,,1029.6,350.0,14.95,30.31,69.58,13.0,-5.34,,25.0,M,26.0,,GNR,1067813,2023-12-22 11:00:00+00:00,14500.0,8.64,,
249961,2023-12-22 12:00:00+00:00,0.0,2023-12-22 11:56,10.0,3.0,,1029.9,340.0,12.65,30.32,72.75,11.0,-5.34,,22.0,M,26.0,,GNR,1067817,2023-12-22 12:00:00+00:00,14400.0,8.62,,
249962,2023-12-22 13:00:00+00:00,0.0,2023-12-22 12:56,11.0,4.0,,1030.3,350.0,10.35,30.33,72.86,9.0,-2.6,,,M,,,GNR,1067821,2023-12-22 13:00:00+00:00,14500.0,8.64,,
249963,2023-12-22 14:00:00+00:00,0.0,2023-12-22 13:56,13.0,3.0,,1030.6,330.0,10.35,30.34,63.68,9.0,-0.11,,19.0,M,,,GNR,1067825,2023-12-22 14:00:00+00:00,14500.0,8.66,,
249964,2023-12-22 15:00:00+00:00,0.0,2023-12-22 14:56,15.0,3.0,,1030.2,320.0,12.65,30.33,58.34,11.0,0.98,,21.0,M,,,GNR,1067829,2023-12-22 15:00:00+00:00,14500.0,8.63,,
249965,2023-12-22 16:00:00+00:00,0.0,2023-12-22 15:56,16.0,3.0,,1029.6,320.0,12.65,30.31,55.85,11.0,2.25,,21.0,M,,,GNR,1067833,2023-12-22 16:00:00+00:00,14400.0,8.62,,
249966,2023-12-22 17:00:00+00:00,0.0,2023-12-22 16:56,19.0,4.0,,1029.1,330.0,10.35,30.3,51.39,9.0,7.35,,17.0,M,,,GNR,1067837,2023-12-22 17:00:00+00:00,14400.0,8.61,,
249967,2023-12-22 18:00:00+00:00,0.0,2023-12-22 17:56,20.0,2.0,,1029.1,330.0,12.65,30.3,44.89,11.0,7.3,,20.0,M,,,GNR,1067841,2023-12-22 18:00:00+00:00,14500.0,8.65,,
249968,2023-12-22 19:00:00+00:00,0.0,2023-12-22 18:56,22.0,2.0,,1029.2,330.0,10.35,30.31,41.24,9.0,11.08,,17.0,M,,,GNR,1067845,2023-12-22 19:00:00+00:00,14500.0,8.64,,
249969,2023-12-22 20:00:00+00:00,0.0,2023-12-22 19:56,22.0,0.0,,1029.7,360.0,9.2,30.32,37.56,8.0,11.79,,,M,,,GNR,1067849,2023-12-22 20:00:00+00:00,14500.0,8.66,,
249970,2023-12-22 21:00:00+00:00,0.0,2023-12-22 20:56,21.0,-2.0,,1030.0,340.0,5.75,30.33,35.66,5.0,13.33,,,M,,,GNR,1067853,2023-12-22 21:00:00+00:00,14500.0,8.63,,
249971,2023-12-22 22:00:00+00:00,0.0,2023-12-22 21:56,20.0,0.0,,1030.4,350.0,6.9,30.34,40.89,6.0,11.08,,,M,,,GNR,1067857,2023-12-22 22:00:00+00:00,15500.0,9.04,,
249972,2023-12-22 23:00:00+00:00,0.0,2023-12-22 22:56,17.0,4.0,,1031.2,0.0,0.0,30.36,56.01,0.0,17.0,,,M,,,GNR,1067861,2023-12-22 23:00:00+00:00,14500.0,8.64,,
249973,2023-12-23 00:00:00+00:00,0.0,2023-12-22 23:56,18.0,6.0,,1031.5,330.0,6.9,30.37,58.79,6.0,8.67,,,M,,,GNR,1067865,2023-12-23 00:00:00+00:00,13400.0,8.2,,
249974,2023-12-23 01:00:00+00:00,0.0,2023-12-23 00:56,18.0,6.0,,1031.8,350.0,6.9,30.38,58.79,6.0,8.67,,,M,,,GNR,1067869,2023-12-23 01:00:00+00:00,13200.0,8.14,,
249975,2023-12-23 02:00:00+00:00,0.0,2023-12-23 01:56,18.0,7.0,,1031.9,20.0,4.6,30.38,61.52,4.0,11.07,,,M,,,GNR,1067873,2023-12-23 02:00:00+00:00,13200.0,8.13,,
249976,2023-12-23 03:00:00+00:00,0.0,2023-12-23 02:56,19.0,7.0,,1031.9,10.0,4.6,30.38,58.94,4.0,12.24,,,M,,,GNR,1067877,2023-12-23 03:00:00+00:00,13100.0,8.08,,
249977,2023-12-23 04:00:00+00:00,0.0,2023-12-23 03:56,20.0,7.0,,1031.6,350.0,3.45,30.38,56.47,3.0,14.97,,,M,,,GNR,1067881,2023-12-23 04:00:00+00:00,13100.0,8.09,,
249978,2023-12-23 05:00:00+00:00,0.0,2023-12-23 04:56,19.0,8.0,,1031.2,0.0,0.0,30.37,61.66,0.0,19.0,,,M,,,GNR,1067885,2023-12-23 05:00:00+00:00,13100.0,8.1,,
249979,2023-12-23 06:00:00+00:00,0.0,2023-12-23 05:56,17.0,6.0,,1031.1,320.0,3.45,30.37,61.38,3.0,11.54,,,M,,,GNR,1067889,2023-12-23 06:00:00+00:00,13100.0,8.1,,
249980,2023-12-23 07:00:00+00:00,0.0,2023-12-23 06:56,17.0,9.0,,1031.3,0.0,0.0,30.38,70.3,0.0,17.0,,,M,,,GNR,1067893,2023-12-23 07:00:00+00:00,13100.0,8.08,,
249981,2023-12-23 08:00:00+00:00,0.0,2023-12-23 07:56,18.0,9.0,,1031.0,0.0,0.0,30.37,67.33,0.0,18.0,,,M,,,GNR,1067897,2023-12-23 08:00:00+00:00,13100.0,8.09,,
249982,2023-12-23 09:00:00+00:00,0.0,2023-12-23 08:56,19.0,9.0,,1031.0,0.0,0.0,30.37,64.5,0.0,19.0,,,M,,,GNR,1067901,2023-12-23 09:00:00+00:00,13000.0,8.06,,
249983,2023-12-23 10:00:00+00:00,0.0,2023-12-23 09:56,19.0,10.0,,1031.1,0.0,0.0,30.37,67.46,0.0,19.0,,,M,,,GNR,1067905,2023-12-23 10:00:00+00:00,13100.0,8.08,,
249984,2023-12-23 11:00:00+00:00,0.0,2023-12-23 10:56,18.0,7.0,,1031.5,0.0,0.0,30.37,61.52,0.0,18.0,,,M,,,GNR,1067909,2023-12-23 11:00:00+00:00,13000.0,8.05,,
249985,2023-12-23 12:00:00+00:00,0.0,2023-12-23 11:56,18.0,5.0,,1031.6,0.0,0.0,30.38,56.16,0.0,18.0,,,M,,,GNR,1067913,2023-12-23 12:00:00+00:00,13000.0,8.05,,
249986,2023-12-23 13:00:00+00:00,0.0,2023-12-23 12:56,19.0,7.0,,1031.8,130.0,3.45,30.39,58.94,3.0,13.83,,,M,,,GNR,1067917,2023-12-23 13:00:00+00:00,13000.0,8.06,,
249987,2023-12-23 14:00:00+00:00,0.0,2023-12-23 13:56,21.0,6.0,,1032.0,130.0,4.6,30.4,51.72,4.0,14.57,,,M,,,GNR,1067921,2023-12-23 14:00:00+00:00,13000.0,8.04,,
249988,2023-12-23 15:00:00+00:00,0.0,2023-12-23 14:56,24.0,5.0,,1031.8,,4.6,30.39,43.54,4.0,18.08,,,M,,,GNR,1067925,2023-12-23 15:00:00+00:00,13000.0,8.03,,
249989,2023-12-23 16:00:00+00:00,0.0,2023-12-23 15:56,27.0,7.0,,1031.2,,4.6,30.38,42.11,4.0,21.58,,,M,,,GNR,1067929,2023-12-23 16:00:00+00:00,12900.0,8.02,2023-12-23 16:00:00+00:00,gs://gcp-public-data-sentinel-2/tiles/19/T/DL/S2B_MSIL1C_20231223T154649_N0510_R011_T19TDL_20231223T191908.SAFE
249990,2023-12-23 17:00:00+00:00,0.0,2023-12-23 16:56,29.0,6.0,,1030.4,,4.6,30.35,37.06,4.0,23.92,,,M,,,GNR,1067933,2023-12-23 17:00:00+00:00,13900.0,8.42,,
249991,2023-12-23 18:00:00+00:00,0.0,2023-12-23 17:56,30.0,8.0,,1029.7,130.0,6.9,30.33,38.96,6.0,23.12,,,M,,,GNR,1067937,2023-12-23 18:00:00+00:00,13900.0,8.42,,
249992,2023-12-23 19:00:00+00:00,0.0,2023-12-23 18:56,30.0,10.0,,1029.3,150.0,8.05,30.32,42.62,7.0,22.34,,,M,,,GNR,1067941,2023-12-23 19:00:00+00:00,14000.0,8.44,,
249993,2023-12-23 20:00:00+00:00,0.0,2023-12-23 19:56,28.0,9.0,,1029.8,140.0,5.75,30.34,44.23,5.0,21.64,,,M,,,GNR,1067945,2023-12-23 20:00:00+00:00,14000.0,8.43,,
249994,2023-12-23 21:00:00+00:00,0.0,2023-12-23 20:56,26.0,8.0,,1029.8,130.0,5.75,30.34,45.92,5.0,19.27,,,M,,,GNR,1067949,2023-12-23 21:00:00+00:00,14000.0,8.44,,
249995,2023-12-23 22:00:00+00:00,0.0,2023-12-23 21:56,24.0,8.0,,1030.0,150.0,6.9,30.34,49.9,6.0,15.9,,,M,,,GNR,1067953,2023-12-23 22:00:00+00:00,14000.0,8.44,,
249996,2023-12-23 23:00:00+00:00,0.0,2023-12-23 22:56,22.0,8.0,,1030.3,110.0,4.6,30.35,54.28,4.0,15.74,,,M,,,GNR,1067957,2023-12-23 23:00:00+00:00,13900.0,8.41,,
249997,2023-12-24 00:00:00+00:00,0.0,2023-12-23 23:56,23.0,8.0,,1030.5,160.0,3.45,30.35,52.04,3.0,18.4,,,M,,,GNR,1067961,2023-12-24 00:00:00+00:00,13900.0,8.39,,
249998,2023-12-24 01:00:00+00:00,0.0,2023-12-24 00:56,22.0,8.0,,1030.8,110.0,3.45,30.36,54.28,3.0,17.26,,,M,,,GNR,1067965,2023-12-24 01:00:00+00:00,13800.0,8.38,,
249999,2023-12-24 02:00:00+00:00,0.0,2023-12-24 01:56,21.0,8.0,,1030.5,120.0,3.45,30.35,56.62,3.0,16.11,,,M,,,GNR,1067969,2023-12-24 02:00:00+00:00,13900.0,8.39,,
250000,2023-12-24 03:00:00+00:00,0.0,2023-12-24 02:56,23.0,8.0,,1030.0,170.0,3.45,30.34,52.04,3.0,18.4,,,M,,,GNR,1067973,2023-12-24 03:00:00+00:00,13800.0,8.38,,
250001,2023-12-24 04:00:00+00:00,0.0,2023-12-24 03:56,25.0,11.0,,1029.6,30.0,5.75,30.34,54.75,5.0,18.08,,,M,,,GNR,1067977,2023-12-24 04:00:00+00:00,13800.0,8.37,,
250002,2023-12-24 05:00:00+00:00,0.0,2023-12-24 04:56,25.0,12.0,,1029.1,0.0,0.0,30.32,57.23,0.0,25.0,,,M,,,GNR,1067981,2023-12-24 05:00:00+00:00,13800.0,8.36,,
250003,2023-12-24 06:00:00+00:00,0.0,2023-12-24 05:56,26.0,11.0,,1029.0,30.0,3.45,30.32,52.52,3.0,21.83,,,M,,,GNR,1067985,2023-12-24 06:00:00+00:00,13800.0,8.38,,
250004,2023-12-24 07:00:00+00:00,0.0,2023-12-24 06:56,26.0,12.0,,1028.8,0.0,0.0,30.32,54.9,0.0,26.0,,,M,,,GNR,1067989,2023-12-24 07:00:00+00:00,13800.0,8.36,,
250005,2023-12-24 08:00:00+00:00,0.0,2023-12-24 07:56,25.0,14.0,,1028.9,290.0,4.6,30.32,62.5,4.0,19.25,,,M,,,GNR,1067993,2023-12-24 08:00:00+00:00,13800.0,8.35,,
250006,2023-12-24 09:00:00+00:00,0.0,2023-12-24 08:56,26.0,14.0,,1028.8,0.0,0.0,30.31,59.96,0.0,26.0,,,M,,,GNR,1067997,2023-12-24 09:00:00+00:00,13700.0,8.34,,
250007,2023-12-24 10:00:00+00:00,0.0,2023-12-24 09:56,27.0,13.0,,1028.7,350.0,3.45,30.31,55.06,3.0,22.97,,,M,,,GNR,1068001,2023-12-24 10:00:00+00:00,13700.0,8.33,,
250008,2023-12-24 11:00:00+00:00,0.0,2023-12-24 10:56,25.0,15.0,,1029.0,0.0,0.0,30.32,65.3,0.0,25.0,,,M,,,GNR,1068005,2023-12-24 11:00:00+00:00,13800.0,8.36,,
250009,2023-12-24 12:00:00+00:00,0.0,2023-12-24 11:56,26.0,16.0,,1029.4,310.0,3.45,30.33,65.43,3.0,21.83,,,M,,,GNR,1068009,2023-12-24 12:00:00+00:00,13800.0,8.36,,
250010,2023-12-24 13:00:00+00:00,0.0,2023-12-24 12:56,27.0,18.0,,1029.9,0.0,0.0,30.34,68.45,0.0,27.0,,,M,,,GNR,1068013,2023-12-24 13:00:00+00:00,13800.0,8.36,,
250011,2023-12-24 14:00:00+00:00,0.0,2023-12-24 13:56,28.0,18.0,,1030.2,300.0,3.45,30.35,65.69,3.0,24.12,,,M,,,GNR,1068017,2023-12-24 14:00:00+00:00,13600.0,8.3,,
250012,2023-12-24 15:00:00+00:00,0.0,2023-12-24 14:56,29.0,20.0,,1030.6,270.0,3.45,30.37,68.69,3.0,25.26,,,M,,,GNR,1068021,2023-12-24 15:00:00+00:00,13600.0,8.3,,
250013,2023-12-24 16:00:00+00:00,0.0,2023-12-24 15:56,33.0,20.0,,1029.8,0.0,0.0,30.35,58.41,0.0,33.0,,,M,,,GNR,1068025,2023-12-24 16:00:00+00:00,13700.0,8.31,,
250014,2023-12-24 17:00:00+00:00,0.0,2023-12-24 16:56,35.0,23.0,,1029.4,0.0,0.0,30.34,61.23,0.0,35.0,,,M,,,GNR,1068029,2023-12-24 17:00:00+00:00,12700.0,7.92,,
250015,2023-12-24 18:00:00+00:00,0.0,2023-12-24 17:56,37.0,21.0,,1028.8,0.0,0.0,30.33,51.99,0.0,37.0,,,M,,,GNR,1068033,2023-12-24 18:00:00+00:00,12600.0,7.9,,
250016,2023-12-24 19:00:00+00:00,0.0,2023-12-24 18:56,38.0,23.0,,1028.8,0.0,0.0,30.33,54.39,0.0,38.0,,,M,,,GNR,1068037,2023-12-24 19:00:00+00:00,12700.0,7.91,,
250017,2023-12-24 20:00:00+00:00,0.0,2023-12-24 19:56,39.0,24.0,,1029.0,0.0,0.0,30.33,54.54,0.0,39.0,,,M,,,GNR,1068041,2023-12-24 20:00:00+00:00,12700.0,7.91,,
250018,2023-12-24 21:00:00+00:00,0.0,2023-12-24 20:56,35.0,24.0,,1029.5,0.0,0.0,30.34,63.85,0.0,35.0,,,M,,,GNR,1068045,2023-12-24 21:00:00+00:00,12600.0,7.89,,
250019,2023-12-24 22:00:00+00:00,0.0,2023-12-24 21:56,32.0,23.0,,1030.0,0.0,0.0,30.36,69.04,0.0,32.0,,,M,,,GNR,1068049,2023-12-24 22:00:00+00:00,12600.0,7.89,,
250020,2023-12-24 23:00:00+00:00,0.0,2023-12-24 22:56,32.0,21.0,,1030.2,110.0,3.45,30.36,63.45,3.0,28.69,,,M,,,GNR,1068053,2023-12-24 23:00:00+00:00,12600.0,7.89,,
250021,2023-12-25 00:00:00+00:00,0.0,2023-12-24 23:56,34.0,23.0,,1030.3,0.0,0.0,30.36,63.72,0.0,34.0,,,M,,,GNR,1068057,2023-12-25 00:00:00+00:00,12600.0,7.87,,
250022,2023-12-25 01:00:00+00:00,0.0,2023-12-25 00:56,34.0,22.0,,1030.3,0.0,0.0,30.37,61.09,0.0,34.0,,,M,,,GNR,1068061,2023-12-25 01:00:00+00:00,12600.0,7.88,,
250023,2023-12-25 02:00:00+00:00,0.0,2023-12-25 01:56,35.0,22.0,,1030.2,0.0,0.0,30.37,58.7,0.0,35.0,,,M,,,GNR,1068065,2023-12-25 02:00:00+00:00,12500.0,7.86,,
250024,2023-12-25 03:00:00+00:00,0.0,2023-12-25 02:56,35.0,23.0,,1030.0,0.0,0.0,30.36,61.23,0.0,35.0,,,M,,,GNR,1068069,2023-12-25 03:00:00+00:00,12600.0,7.88,,
250025,2023-12-25 04:00:00+00:00,0.0,2023-12-25 03:56,33.0,21.0,,1030.2,0.0,0.0,30.37,60.95,0.0,33.0,,,M,,,GNR,1068073,2023-12-25 04:00:00+00:00,12500.0,7.85,,
250026,2023-12-25 05:00:00+00:00,0.0,2023-12-25 04:56,34.0,22.0,,1029.8,0.0,0.0,30.36,61.09,0.0,34.0,,,M,,,GNR,1068077,2023-12-25 05:00:00+00:00,12500.0,7.85,,
250027,2023-12-25 06:00:00+00:00,0.0,2023-12-25 05:56,34.0,24.0,,1029.5,80.0,3.45,30.35,66.45,3.0,30.97,,,M,,,GNR,1068081,2023-12-25 06:00:00+00:00,12500.0,7.86,,
250028,2023-12-25 07:00:00+00:00,0.0,2023-12-25 06:56,35.0,24.0,,1029.9,140.0,3.45,30.37,63.85,3.0,32.12,,,M,,,GNR,1068085,2023-12-25 07:00:00+00:00,12500.0,7.85,,
250029,2023-12-25 08:00:00+00:00,0.0,2023-12-25 07:56,34.0,24.0,,1030.1,110.0,5.75,30.37,66.45,5.0,28.77,,,M,,,GNR,1068089,2023-12-25 08:00:00+00:00,12600.0,7.87,,
250030,2023-12-25 09:00:00+00:00,0.0,2023-12-25 08:56,34.0,24.0,,1030.2,130.0,4.6,30.37,66.45,4.0,29.76,,,M,,,GNR,1068093,2023-12-25 09:00:00+00:00,12500.0,7.84,,
250031,2023-12-25 10:00:00+00:00,0.0,2023-12-25 09:56,33.0,24.0,,1030.3,140.0,4.6,30.37,69.16,4.0,28.59,,,M,,,GNR,1068097,2023-12-25 10:00:00+00:00,12500.0,7.85,,
250032,2023-12-25 11:00:00+00:00,0.0,2023-12-25 10:56,33.0,24.0,,1030.9,130.0,4.6,30.39,69.16,4.0,28.59,,,M,,,GNR,1068101,2023-12-25 11:00:00+00:00,12500.0,7.86,,
250033,2023-12-25 12:00:00+00:00,0.0,2023-12-25 11:56,33.0,25.0,,1031.0,150.0,4.6,30.39,72.11,4.0,28.59,,,M,,,GNR,1068105,2023-12-25 12:00:00+00:00,12500.0,7.85,,
250034,2023-12-25 13:00:00+00:00,0.0,2023-12-25 12:56,32.0,26.0,,1031.0,0.0,0.0,30.39,78.25,0.0,32.0,,,M,,,GNR,1068109,2023-12-25 13:00:00+00:00,12500.0,7.84,,
250035,2023-12-25 14:00:00+00:00,0.0,2023-12-25 13:56,37.0,29.0,,1031.0,0.0,0.0,30.4,72.54,0.0,37.0,,,M,,,GNR,1068113,2023-12-25 14:00:00+00:00,12500.0,7.85,,
250036,2023-12-25 15:00:00+00:00,0.0,2023-12-25 14:56,40.0,32.0,,1031.3,210.0,5.75,30.41,72.85,5.0,35.9,,,M,,,GNR,1068117,2023-12-25 15:00:00+00:00,12400.0,7.8,,
250037,2023-12-25 16:00:00+00:00,0.0,2023-12-25 15:56,42.0,34.0,,1030.8,190.0,5.75,30.39,73.06,5.0,38.27,,,M,,,GNR,1068121,2023-12-25 16:00:00+00:00,12500.0,7.83,2023-12-25 16:00:00+00:00,gs://gcp-public-data-sentinel-2/tiles/19/T/DL/S2A_MSIL1C_20231225T153641_N0510_R111_T19TDL_20231225T172815.SAFE
250038,2023-12-25 17:00:00+00:00,0.0,2023-12-25 16:56,41.0,35.0,,1030.3,190.0,4.6,30.38,79.02,4.0,37.93,,,M,,,GNR,1068125,2023-12-25 17:00:00+00:00,12500.0,7.83,,
250039,2023-12-25 18:00:00+00:00,0.0,2023-12-25 17:56,42.0,36.0,,1029.7,0.0,0.0,30.36,79.11,0.0,42.0,,,M,,,GNR,1068129,2023-12-25 18:00:00+00:00,12400.0,7.82,,
250040,2023-12-25 19:00:00+00:00,0.0,2023-12-25 18:56,41.0,35.0,,1029.5,0.0,0.0,30.35,79.02,0.0,41.0,,,M,,,GNR,1068133,2023-12-25 19:00:00+00:00,12400.0,7.82,,
250041,2023-12-25 20:00:00+00:00,0.0,2023-12-25 19:56,39.0,34.0,,1029.0,,5.75,30.34,82.08,5.0,34.71,,,M,,,GNR,1068137,2023-12-25 20:00:00+00:00,12500.0,7.83,,
250042,2023-12-25 21:00:00+00:00,0.0,2023-12-25 20:56,38.0,36.0,,1028.7,120.0,5.75,30.33,92.42,5.0,33.52,,,M,,,GNR,1068141,2023-12-25 21:00:00+00:00,12400.0,7.81,,
250043,2023-12-25 22:00:00+00:00,0.0,2023-12-25 21:56,37.0,36.0,,1028.7,130.0,4.6,30.33,96.13,4.0,33.26,,,M,,,GNR,1068145,2023-12-25 22:00:00+00:00,11900.0,7.61,,
250044,2023-12-25 23:00:00+00:00,0.0,2023-12-25 22:56,37.0,36.0,,1028.9,140.0,4.6,30.33,96.13,4.0,33.26,,,M,,,GNR,1068149,2023-12-25 23:00:00+00:00,11500.0,7.45,,
250045,2023-12-26 00:00:00+00:00,0.0,2023-12-25 23:56,37.0,36.0,,1028.6,,3.45,30.32,96.13,3.0,34.4,,,M,,,GNR,1068153,2023-12-26 00:00:00+00:00,11500.0,7.44,,
250046,2023-12-26 01:00:00+00:00,0.0,2023-12-26 00:56,37.0,36.0,,1028.3,0.0,0.0,30.31,96.13,0.0,37.0,,,M,,,GNR,1068157,2023-12-26 01:00:00+00:00,11500.0,7.45,,
250047,2023-12-26 02:00:00+00:00,0.0,2023-12-26 01:56,37.0,36.0,,1027.7,0.0,0.0,30.3,96.13,0.0,37.0,,,M,,,GNR,1068161,2023-12-26 02:00:00+00:00,11500.0,7.44,,
250048,2023-12-26 03:00:00+00:00,0.0,2023-12-26 02:56,37.0,36.0,,1027.5,0.0,0.0,30.3,96.13,0.0,37.0,,,M,,,GNR,1068165,2023-12-26 03:00:00+00:00,11500.0,7.44,,
250049,2023-12-26 04:00:00+00:00,0.0,2023-12-26 03:56,37.0,35.0,,1027.0,0.0,0.0,30.29,92.39,0.0,37.0,,,M,,,GNR,1068169,2023-12-26 04:00:00+00:00,11500.0,7.45,,
250050,2023-12-26 05:00:00+00:00,0.0,2023-12-26 04:56,37.0,35.0,,1026.7,0.0,0.0,30.28,92.39,0.0,37.0,,,M,,,GNR,1068173,2023-12-26 05:00:00+00:00,11500.0,7.43,,
250051,2023-12-26 06:00:00+00:00,0.0,2023-12-26 05:56,37.0,34.0,,1026.0,0.0,0.0,30.26,88.78,0.0,37.0,,,M,,,GNR,1068177,2023-12-26 06:00:00+00:00,11500.0,7.44,,
250052,2023-12-26 07:00:00+00:00,0.0,2023-12-26 06:56,36.0,33.0,,1026.2,0.0,0.0,30.26,88.73,0.0,36.0,,,M,,,GNR,1068181,2023-12-26 07:00:00+00:00,11500.0,7.42,,
250053,2023-12-26 08:00:00+00:00,0.0,2023-12-26 07:56,32.0,31.0,,1025.7,0.0,0.0,30.24,96.04,0.0,32.0,,,M,,,GNR,1068185,2023-12-26 08:00:00+00:00,11500.0,7.42,,
250054,2023-12-26 09:00:00+00:00,0.0,2023-12-26 08:56,35.0,32.0,,1025.2,220.0,3.45,30.23,88.68,3.0,32.12,,,M,,,GNR,1068189,2023-12-26 09:00:00+00:00,11400.0,7.41,,
250055,2023-12-26 10:00:00+00:00,0.0,2023-12-26 09:56,35.0,32.0,,1025.2,290.0,3.45,30.23,88.68,3.0,32.12,,,M,,,GNR,1068193,2023-12-26 10:00:00+00:00,11500.0,7.42,,
250056,2023-12-26 11:00:00+00:00,0.0,2023-12-26 10:56,36.0,33.0,,1025.1,310.0,4.6,30.22,88.73,4.0,32.09,,,M,,,GNR,1068197,2023-12-26 11:00:00+00:00,11500.0,7.42,,
250057,2023-12-26 12:00:00+00:00,0.0,2023-12-26 11:56,36.0,33.0,,1025.0,300.0,3.45,30.22,88.73,3.0,33.26,,,M,,,GNR,1068201,2023-12-26 12:00:00+00:00,11500.0,7.42,,
250058,2023-12-26 13:00:00+00:00,0.0,2023-12-26 12:56,37.0,35.0,,1025.1,0.0,0.0,30.23,92.39,0.0,37.0,,,M,,,GNR,1068205,2023-12-26 13:00:00+00:00,11500.0,7.42,,
250059,2023-12-26 14:00:00+00:00,0.0,2023-12-26 13:56,39.0,35.0,,1025.1,320.0,6.9,30.23,85.42,6.0,33.96,,,M,,,GNR,1068209,2023-12-26 14:00:00+00:00,11400.0,7.41,,
250060,2023-12-26 15:00:00+00:00,0.0,2023-12-26 14:56,40.0,36.0,,1024.8,340.0,5.75,30.22,85.48,5.0,35.9,,,M,,,GNR,1068213,2023-12-26 15:00:00+00:00,11400.0,7.41,,
250061,2023-12-26 16:00:00+00:00,0.0,2023-12-26 15:56,41.0,36.0,,1023.8,0.0,0.0,30.19,82.22,0.0,41.0,,,M,,,GNR,1068217,2023-12-26 16:00:00+00:00,11400.0,7.4,,
250062,2023-12-26 17:00:00+00:00,0.0,2023-12-26 16:56,44.0,36.0,,1022.6,,5.75,30.16,73.27,5.0,40.65,,,M,,,GNR,1068221,2023-12-26 17:00:00+00:00,11400.0,7.41,,
250063,2023-12-26 18:00:00+00:00,0.0,2023-12-26 17:56,43.0,36.0,,1022.2,310.0,6.9,30.15,76.12,6.0,38.78,,,M,,,GNR,1068225,2023-12-26 18:00:00+00:00,11400.0,7.41,,
250064,2023-12-26 19:00:00+00:00,0.0,2023-12-26 18:56,43.0,36.0,,1022.3,,5.75,30.15,76.12,5.0,39.46,,,M,,,GNR,1068229,2023-12-26 19:00:00+00:00,11500.0,7.42,,
250065,2023-12-26 20:00:00+00:00,0.0,2023-12-26 19:56,42.0,36.0,,1022.4,,5.75,30.15,79.11,5.0,38.27,,,M,,,GNR,1068233,2023-12-26 20:00:00+00:00,11400.0,7.39,,
250066,2023-12-26 21:00:00+00:00,0.0,2023-12-26 20:56,41.0,37.0,,1022.8,300.0,5.75,30.16,85.54,5.0,37.08,,,M,,,GNR,1068237,2023-12-26 21:00:00+00:00,10700.0,7.14,,
250067,2023-12-26 22:00:00+00:00,0.0,2023-12-26 21:56,40.0,36.0,,1022.8,290.0,5.75,30.16,85.48,5.0,35.9,,,M,,,GNR,1068241,2023-12-26 22:00:00+00:00,9920.0,6.82,,
250068,2023-12-26 23:00:00+00:00,0.0,2023-12-26 22:56,37.0,35.0,,1022.3,0.0,0.0,30.14,92.39,0.0,37.0,,,M,,,GNR,1068245,2023-12-26 23:00:00+00:00,9890.0,6.81,,
250069,2023-12-27 00:00:00+00:00,0.0,2023-12-26 23:56,38.0,35.0,,1022.7,0.0,0.0,30.16,88.83,0.0,38.0,,,M,,,GNR,1068249,2023-12-27 00:00:00+00:00,9870.0,6.8,,
250070,2023-12-27 01:00:00+00:00,0.0,2023-12-27 00:56,35.0,33.0,,1022.3,0.0,0.0,30.14,92.32,0.0,35.0,,,M,,,GNR,1068253,2023-12-27 01:00:00+00:00,9920.0,6.82,,
250071,2023-12-27 02:00:00+00:00,0.0,2023-12-27 01:56,35.0,34.0,,1022.0,30.0,4.6,30.14,96.09,4.0,30.92,,,M,,,GNR,1068257,2023-12-27 02:00:00+00:00,9820.0,6.78,,
250072,2023-12-27 03:00:00+00:00,0.0,2023-12-27 02:56,38.0,36.0,,1021.4,40.0,6.9,30.12,92.42,6.0,32.76,,,M,,,GNR,1068261,2023-12-27 03:00:00+00:00,9870.0,6.8,,
250073,2023-12-27 04:00:00+00:00,0.0,2023-12-27 03:56,38.0,35.0,,1021.5,300.0,3.45,30.13,88.83,3.0,35.55,,,M,,,GNR,1068265,2023-12-27 04:00:00+00:00,9840.0,6.79,,
250074,2023-12-27 05:00:00+00:00,0.0,2023-12-27 04:56,37.0,36.0,,1021.0,0.0,0.0,30.11,96.13,0.0,37.0,,,M,,,GNR,1068269,2023-12-27 05:00:00+00:00,9840.0,6.79,,
250075,2023-12-27 06:00:00+00:00,0.0,2023-12-27 05:56,37.0,36.0,,1020.5,0.0,0.0,30.1,96.13,0.0,37.0,,,M,,,GNR,1068273,2023-12-27 06:00:00+00:00,9820.0,6.78,,
250076,2023-12-27 07:00:00+00:00,0.0,2023-12-27 06:56,37.0,36.0,,1020.6,0.0,0.0,30.1,96.13,0.0,37.0,,,M,,,GNR,1068277,2023-12-27 07:00:00+00:00,9820.0,6.78,,
250077,2023-12-27 08:00:00+00:00,0.0,2023-12-27 07:56,37.0,36.0,,1020.5,30.0,4.6,30.1,96.13,4.0,33.26,,,M,,,GNR,1068281,2023-12-27 08:00:00+00:00,9840.0,6.79,,
250078,2023-12-27 09:00:00+00:00,0.0,2023-12-27 08:56,38.0,37.0,,1020.3,60.0,3.45,30.09,96.14,3.0,35.55,,,M,,,GNR,1068285,2023-12-27 09:00:00+00:00,9820.0,6.78,,
250079,2023-12-27 10:00:00+00:00,0.25,2023-12-27 09:56,38.0,38.0,,1020.3,110.0,4.6,30.09,100.0,4.0,34.43,,,M,,,GNR,1068289,2023-12-27 10:00:00+00:00,9770.0,6.76,,
250080,2023-12-27 11:00:00+00:00,0.0,2023-12-27 10:56,38.0,38.0,,1020.5,0.0,0.0,30.09,100.0,0.0,38.0,,,M,,,GNR,1068293,2023-12-27 11:00:00+00:00,9770.0,6.76,,
250081,2023-12-27 12:00:00+00:00,0.25,2023-12-27 11:56,39.0,39.0,,1020.5,110.0,3.45,30.09,100.0,3.0,36.69,,,M,,,GNR,1068297,2023-12-27 12:00:00+00:00,9790.0,6.77,,
250082,2023-12-27 13:00:00+00:00,0.0,2023-12-27 12:56,39.0,38.0,,1020.8,140.0,4.6,30.1,96.16,4.0,35.59,,,M,,,GNR,1068301,2023-12-27 13:00:00+00:00,9740.0,6.75,,
250083,2023-12-27 14:00:00+00:00,0.0,2023-12-27 13:56,38.0,38.0,,1021.1,140.0,3.45,30.11,100.0,3.0,35.55,,,M,,,GNR,1068305,2023-12-27 14:00:00+00:00,9770.0,6.76,,
250084,2023-12-27 15:00:00+00:00,0.0,2023-12-27 14:56,39.0,39.0,,1021.0,0.0,0.0,30.11,100.0,0.0,39.0,,,M,,,GNR,1068309,2023-12-27 15:00:00+00:00,9770.0,6.76,,
250085,2023-12-27 16:00:00+00:00,0.0,2023-12-27 15:56,38.0,37.0,,1020.1,130.0,6.9,30.08,96.14,6.0,32.76,,,M,,,GNR,1068313,2023-12-27 16:00:00+00:00,9770.0,6.76,,
250086,2023-12-27 17:00:00+00:00,0.0,2023-12-27 16:56,37.0,37.0,,1019.4,150.0,5.75,30.06,100.0,5.0,32.33,,,M,,,GNR,1068317,2023-12-27 17:00:00+00:00,9790.0,6.77,,
250087,2023-12-27 18:00:00+00:00,0.0,2023-12-27 17:56,37.0,36.0,,1018.8,140.0,4.6,30.04,96.13,4.0,33.26,,,M,,,GNR,1068321,2023-12-27 18:00:00+00:00,9790.0,6.77,,
250088,2023-12-27 19:00:00+00:00,0.0,2023-12-27 18:56,,,,,,,30.04,,,,,,M,,,GNR,1068325,2023-12-27 19:00:00+00:00,9770.0,6.76,,
250089,2023-12-27 20:00:00+00:00,0.0,2023-12-27 19:56,,,,,130.0,4.6,30.04,,4.0,,,,M,,,GNR,1068329,2023-12-27 20:00:00+00:00,9770.0,6.76,,
250090,2023-12-27 21:00:00+00:00,0.25,2023-12-27 20:56,36.0,36.0,,1018.3,0.0,0.0,30.03,100.0,0.0,36.0,,,M,,,GNR,1068333,2023-12-27 21:00:00+00:00,9740.0,6.75,,
250091,2023-12-27 22:00:00+00:00,0.0,2023-12-27 21:56,36.0,35.0,,1018.2,100.0,3.45,30.02,96.11,3.0,33.26,,,M,,,GNR,1068337,2023-12-27 22:00:00+00:00,9770.0,6.76,,
250092,2023-12-27 23:00:00+00:00,0.0,2023-12-27 22:56,36.0,34.0,,1018.0,130.0,3.45,30.02,92.35,3.0,33.26,,,M,,,GNR,1068341,2023-12-27 23:00:00+00:00,9770.0,6.76,,
250093,2023-12-28 00:00:00+00:00,0.0,2023-12-27 23:56,35.0,35.0,,1017.9,130.0,3.45,30.01,100.0,3.0,32.12,,,M,,,GNR,1068345,2023-12-28 00:00:00+00:00,9740.0,6.75,,
250094,2023-12-28 01:00:00+00:00,0.0,2023-12-28 00:56,35.0,35.0,,1017.9,0.0,0.0,30.02,100.0,0.0,35.0,,,M,,,GNR,1068349,2023-12-28 01:00:00+00:00,9790.0,6.77,,
250095,2023-12-28 02:00:00+00:00,0.76,2023-12-28 01:56,35.0,34.0,,1017.3,120.0,3.45,30.0,96.09,3.0,32.12,,,M,,,GNR,1068353,2023-12-28 02:00:00+00:00,9740.0,6.75,,
250096,2023-12-28 03:00:00+00:00,0.0,2023-12-28 02:56,35.0,34.0,,1017.0,120.0,3.45,29.99,96.09,3.0,32.12,,,M,,,GNR,1068357,2023-12-28 03:00:00+00:00,9770.0,6.76,,
250097,2023-12-28 04:00:00+00:00,0.0,2023-12-28 03:56,34.0,34.0,,1016.5,0.0,0.0,29.97,100.0,0.0,34.0,,,M,,,GNR,1068361,2023-12-28 04:00:00+00:00,9770.0,6.76,,
250098,2023-12-28 05:00:00+00:00,0.0,2023-12-28 04:56,35.0,35.0,,1016.0,0.0,0.0,29.96,100.0,0.0,35.0,,,M,,,GNR,1068365,2023-12-28 05:00:00+00:00,9740.0,6.75,,
250099,2023-12-28 06:00:00+00:00,0.0,2023-12-28 05:56,35.0,34.0,,1015.8,0.0,0.0,29.95,96.09,0.0,35.0,,,M,,,GNR,1068369,2023-12-28 06:00:00+00:00,9770.0,6.76,,
250100,2023-12-28 07:00:00+00:00,0.0,2023-12-28 06:56,34.0,33.0,,,0.0,0.0,29.94,96.08,0.0,34.0,,,M,,,GNR,1068373,2023-12-28 07:00:00+00:00,9720.0,6.74,,
250101,2023-12-28 08:00:00+00:00,0.0,2023-12-28 07:56,34.0,34.0,,,0.0,0.0,29.93,100.0,0.0,34.0,,,M,,,GNR,1068377,2023-12-28 08:00:00+00:00,9740.0,6.75,,
250102,2023-12-28 09:00:00+00:00,0.0,2023-12-28 08:56,34.0,33.0,,1014.7,0.0,0.0,29.92,96.08,0.0,34.0,,,M,,,GNR,1068381,2023-12-28 09:00:00+00:00,9720.0,6.74,,
250103,2023-12-28 10:00:00+00:00,0.0,2023-12-28 09:56,34.0,34.0,,1014.8,0.0,0.0,29.92,100.0,0.0,34.0,,,M,,,GNR,1068385,2023-12-28 10:00:00+00:00,9790.0,6.77,,
250104,2023-12-28 11:00:00+00:00,0.0,2023-12-28 10:56,34.0,33.0,,1015.3,130.0,5.75,29.93,96.08,5.0,28.77,,,M,,,GNR,1068389,2023-12-28 11:00:00+00:00,9740.0,6.75,,
250105,2023-12-28 13:00:00+00:00,0.0,2023-12-28 12:56,34.0,33.0,,1014.8,,4.6,29.92,96.08,4.0,29.76,,,M,,,GNR,1068397,2023-12-28 13:00:00+00:00,9720.0,6.74,,
250106,2023-12-28 14:00:00+00:00,0.0,2023-12-28 13:56,33.0,33.0,,1015.0,120.0,5.75,29.93,100.0,5.0,27.58,,,M,,,GNR,1068401,2023-12-28 14:00:00+00:00,9740.0,6.75,,
250107,2023-12-28 15:00:00+00:00,0.0,2023-12-28 14:56,34.0,34.0,,1015.1,100.0,3.45,29.93,100.0,3.0,30.97,,,M,,,GNR,1068405,2023-12-28 15:00:00+00:00,9690.0,6.73,,
250108,2023-12-28 16:00:00+00:00,0.0,2023-12-28 15:56,35.0,34.0,,1014.5,100.0,9.2,29.91,96.09,8.0,27.81,,,M,,,GNR,1068409,2023-12-28 16:00:00+00:00,9720.0,6.74,2023-12-28 16:00:00+00:00,gs://gcp-public-data-sentinel-2/tiles/19/T/DL/S2A_MSIL1C_20231228T154651_N0510_R011_T19TDL_20231228T174014.SAFE
250109,2023-12-28 17:00:00+00:00,0.0,2023-12-28 16:56,36.0,35.0,,1013.3,90.0,8.05,29.88,96.11,7.0,29.65,,,M,,,GNR,1068413,2023-12-28 17:00:00+00:00,9720.0,6.74,,
250110,2023-12-28 18:00:00+00:00,0.0,2023-12-28 17:56,37.0,36.0,,1012.7,90.0,5.75,29.86,96.13,5.0,32.33,,,M,,,GNR,1068417,2023-12-28 18:00:00+00:00,9720.0,6.74,,
250111,2023-12-28 19:00:00+00:00,0.0,2023-12-28 18:56,38.0,35.0,,1012.3,100.0,6.9,29.85,88.83,6.0,32.76,,,M,,,GNR,1068421,2023-12-28 19:00:00+00:00,9740.0,6.75,,
250112,2023-12-28 20:00:00+00:00,0.0,2023-12-28 19:56,37.0,34.0,,1011.9,100.0,6.9,29.84,88.78,6.0,31.55,,,M,,,GNR,1068425,2023-12-28 20:00:00+00:00,9720.0,6.74,,
250113,2023-12-28 21:00:00+00:00,0.0,2023-12-28 20:56,36.0,30.0,,1011.9,100.0,10.35,29.83,78.6,9.0,28.49,,,M,,,GNR,1068429,2023-12-28 21:00:00+00:00,9720.0,6.74,,
250114,2023-12-28 22:00:00+00:00,0.0,2023-12-28 21:56,35.0,28.0,,1011.7,80.0,6.9,29.83,75.36,6.0,29.14,,,M,,,GNR,1068433,2023-12-28 22:00:00+00:00,9720.0,6.74,,
250115,2023-12-28 23:00:00+00:00,0.0,2023-12-28 22:56,36.0,28.0,,1011.7,90.0,8.05,29.83,72.43,7.0,29.65,,,M,,,GNR,1068437,2023-12-28 23:00:00+00:00,9720.0,6.74,,
250116,2023-12-29 00:00:00+00:00,0.0,2023-12-28 23:56,35.0,28.0,,1011.3,80.0,5.75,29.82,75.36,5.0,29.96,,,M,,,GNR,1068441,2023-12-29 00:00:00+00:00,9740.0,6.75,,
250117,2023-12-29 01:00:00+00:00,0.51,2023-12-29 00:56,33.0,28.0,,1011.1,80.0,8.05,29.81,81.63,7.0,26.0,,,M,,,GNR,1068445,2023-12-29 01:00:00+00:00,9740.0,6.75,,
250118,2023-12-29 02:00:00+00:00,1.52,2023-12-29 01:56,33.0,30.0,,1010.1,0.0,0.0,29.78,88.58,0.0,33.0,,,M,,,GNR,1068449,2023-12-29 02:00:00+00:00,9770.0,6.76,,
250119,2023-12-29 03:00:00+00:00,1.02,2023-12-29 02:56,33.0,31.0,,1009.3,100.0,3.45,29.76,92.25,3.0,29.83,,,M,,,GNR,1068453,2023-12-29 03:00:00+00:00,9790.0,6.77,,
250120,2023-12-29 04:00:00+00:00,0.76,2023-12-29 03:56,33.0,32.0,,1008.6,0.0,0.0,29.74,96.06,0.0,33.0,,,M,,,GNR,1068457,2023-12-29 04:00:00+00:00,9770.0,6.76,,
250121,2023-12-29 05:00:00+00:00,1.02,2023-12-29 04:56,33.0,31.0,,1007.6,0.0,0.0,29.71,92.25,0.0,33.0,,,M,,,GNR,1068461,2023-12-29 05:00:00+00:00,9790.0,6.77,,
250122,2023-12-29 07:00:00+00:00,1.27,2023-12-29 06:56,32.0,31.0,,1006.1,30.0,4.6,29.67,96.04,4.0,27.42,,,M,,,GNR,1068469,2023-12-29 07:00:00+00:00,6680.0,5.53,,
250123,2023-12-29 08:00:00+00:00,0.76,2023-12-29 07:56,33.0,31.0,,1005.5,30.0,3.45,29.65,92.25,3.0,29.83,,,M,,,GNR,1068473,2023-12-29 08:00:00+00:00,6360.0,5.4,,
250124,2023-12-29 09:00:00+00:00,0.25,2023-12-29 08:56,32.0,31.0,,1005.0,320.0,4.6,29.63,96.04,4.0,27.42,,,M,,,GNR,1068477,2023-12-29 09:00:00+00:00,6360.0,5.4,,
250125,2023-12-29 10:00:00+00:00,0.51,2023-12-29 09:56,32.0,31.0,,1004.4,340.0,3.45,29.62,96.04,3.0,28.69,,,M,,,GNR,1068481,2023-12-29 10:00:00+00:00,6340.0,5.39,,
250126,2023-12-29 11:00:00+00:00,0.25,2023-12-29 10:56,32.0,31.0,,1004.3,0.0,0.0,29.61,96.04,0.0,32.0,,,M,,,GNR,1068485,2023-12-29 11:00:00+00:00,6360.0,5.4,,
250127,2023-12-29 12:00:00+00:00,0.25,2023-12-29 11:56,33.0,32.0,,1004.1,30.0,3.45,29.61,96.06,3.0,29.83,,,M,,,GNR,1068489,2023-12-29 12:00:00+00:00,6270.0,5.36,,
250128,2023-12-29 13:00:00+00:00,0.0,2023-12-29 12:56,33.0,31.0,,1003.9,0.0,0.0,29.6,92.25,0.0,33.0,,,M,,,GNR,1068493,2023-12-29 13:00:00+00:00,6310.0,5.38,,
250129,2023-12-29 14:00:00+00:00,0.25,2023-12-29 13:56,32.0,30.0,,1004.0,30.0,4.6,29.6,92.22,4.0,27.42,,,M,,,GNR,1068497,2023-12-29 14:00:00+00:00,6310.0,5.38,,
250130,2023-12-29 15:00:00+00:00,0.25,2023-12-29 14:56,33.0,32.0,,1003.9,0.0,0.0,29.6,96.06,0.0,33.0,,,M,,,GNR,1068501,2023-12-29 15:00:00+00:00,6290.0,5.37,,
250131,2023-12-29 16:00:00+00:00,0.51,2023-12-29 15:56,33.0,31.0,,1003.3,100.0,6.9,29.58,92.25,6.0,26.73,,,M,,,GNR,1068505,2023-12-29 16:00:00+00:00,6290.0,5.37,,
250132,2023-12-29 17:00:00+00:00,0.25,2023-12-29 16:56,33.0,32.0,,1002.6,130.0,5.75,29.56,96.06,5.0,27.58,,,M,,,GNR,1068509,2023-12-29 17:00:00+00:00,6310.0,5.38,,
250133,2023-12-29 18:00:00+00:00,0.25,2023-12-29 17:56,33.0,32.0,,1001.9,120.0,5.75,29.54,96.06,5.0,27.58,,,M,,,GNR,1068513,2023-12-29 18:00:00+00:00,6290.0,5.37,,
250134,2023-12-29 19:00:00+00:00,0.0,2023-12-29 18:56,34.0,32.0,,1001.7,110.0,6.9,29.53,92.29,6.0,27.94,,,M,,,GNR,1068517,2023-12-29 19:00:00+00:00,6310.0,5.38,,
250135,2023-12-29 20:00:00+00:00,0.0,2023-12-29 19:56,33.0,31.0,,1001.6,110.0,6.9,29.53,92.25,6.0,26.73,,,M,,,GNR,1068521,2023-12-29 20:00:00+00:00,6310.0,5.38,,
250136,2023-12-29 21:00:00+00:00,0.25,2023-12-29 20:56,32.0,31.0,,1001.6,120.0,8.05,29.53,96.04,7.0,24.78,,,M,,,GNR,1068525,2023-12-29 21:00:00+00:00,6340.0,5.39,,
250137,2023-12-29 22:00:00+00:00,0.25,2023-12-29 21:56,32.0,30.0,,1002.0,130.0,8.05,29.54,92.22,7.0,24.78,,,M,,,GNR,1068529,2023-12-29 22:00:00+00:00,6340.0,5.39,,
250138,2023-12-29 23:00:00+00:00,0.51,2023-12-29 22:56,31.0,30.0,,1002.2,150.0,4.6,29.55,96.02,4.0,26.25,,,M,,,GNR,1068533,2023-12-29 23:00:00+00:00,6310.0,5.38,,
250139,2023-12-30 00:00:00+00:00,1.02,2023-12-29 23:56,31.0,30.0,,1002.4,150.0,8.05,29.56,96.02,7.0,23.56,,,M,,,GNR,1068537,2023-12-30 00:00:00+00:00,6360.0,5.4,,
250140,2023-12-30 01:00:00+00:00,0.51,2023-12-30 00:56,30.0,29.0,,1002.4,,5.75,29.56,96.0,5.0,24.02,,,M,,,GNR,1068541,2023-12-30 01:00:00+00:00,6340.0,5.39,,
250141,2023-12-30 02:00:00+00:00,0.25,2023-12-30 01:56,30.0,29.0,,1002.3,140.0,5.75,29.55,96.0,5.0,24.02,,,M,,,GNR,1068545,2023-12-30 02:00:00+00:00,6340.0,5.39,,
250142,2023-12-30 03:00:00+00:00,0.0,2023-12-30 02:56,30.0,29.0,,1001.8,130.0,6.9,29.54,96.0,6.0,23.12,,,M,,,GNR,1068549,2023-12-30 03:00:00+00:00,6340.0,5.39,,
250143,2023-12-30 04:00:00+00:00,0.0,2023-12-30 03:56,30.0,29.0,,1001.5,140.0,8.05,29.53,96.0,7.0,22.34,,,M,,,GNR,1068553,2023-12-30 04:00:00+00:00,6360.0,5.4,,
250144,2023-12-30 05:00:00+00:00,0.0,2023-12-30 04:56,30.0,28.0,,1001.1,130.0,8.05,29.52,92.15,7.0,22.34,,,M,,,GNR,1068557,2023-12-30 05:00:00+00:00,6340.0,5.39,,
250145,2023-12-30 06:00:00+00:00,0.0,2023-12-30 05:56,30.0,29.0,,1000.9,140.0,6.9,29.51,96.0,6.0,23.12,,,M,,,GNR,1068561,2023-12-30 06:00:00+00:00,6340.0,5.39,,
250146,2023-12-30 07:00:00+00:00,0.25,2023-12-30 06:56,29.0,28.0,,1000.8,130.0,6.9,29.51,95.99,6.0,21.92,,,M,,,GNR,1068565,2023-12-30 07:00:00+00:00,5370.0,4.98,,
250147,2023-12-30 08:00:00+00:00,0.25,2023-12-30 07:56,29.0,28.0,,1000.7,130.0,5.75,29.5,95.99,5.0,22.83,,,M,,,GNR,1068569,2023-12-30 08:00:00+00:00,5010.0,4.82,,
250148,2023-12-30 09:00:00+00:00,0.25,2023-12-30 08:56,29.0,28.0,,1000.4,120.0,5.75,29.49,95.99,5.0,22.83,,,M,,,GNR,1068573,2023-12-30 09:00:00+00:00,4990.0,4.81,,
250149,2023-12-30 10:00:00+00:00,0.25,2023-12-30 09:56,30.0,28.0,,999.9,120.0,4.6,29.48,92.15,4.0,25.08,,,M,,,GNR,1068577,2023-12-30 10:00:00+00:00,4960.0,4.8,,
250150,2023-12-30 11:00:00+00:00,0.25,2023-12-30 10:56,30.0,29.0,,999.9,130.0,3.45,29.48,96.0,3.0,26.4,,,M,,,GNR,1068581,2023-12-30 11:00:00+00:00,4960.0,4.8,,
250151,2023-12-30 12:00:00+00:00,0.25,2023-12-30 11:56,30.0,28.0,,999.9,140.0,3.45,29.48,92.15,3.0,26.4,,,M,,,GNR,1068585,2023-12-30 12:00:00+00:00,4960.0,4.8,,
250152,2023-12-30 13:00:00+00:00,0.76,2023-12-30 12:56,30.0,29.0,,999.5,0.0,0.0,29.47,96.0,0.0,30.0,,,M,,,GNR,1068589,2023-12-30 13:00:00+00:00,4940.0,4.79,,
250153,2023-12-30 14:00:00+00:00,0.76,2023-12-30 13:56,30.0,29.0,,999.5,0.0,0.0,29.47,96.0,0.0,30.0,,,M,,,GNR,1068593,2023-12-30 14:00:00+00:00,4960.0,4.8,,
250154,2023-12-30 15:00:00+00:00,0.51,2023-12-30 14:56,30.0,28.0,,999.3,0.0,0.0,29.46,92.15,0.0,30.0,,,M,,,GNR,1068597,2023-12-30 15:00:00+00:00,4940.0,4.79,,
250155,2023-12-30 16:00:00+00:00,1.02,2023-12-30 15:56,31.0,29.0,,998.6,0.0,0.0,29.44,92.19,0.0,31.0,,,M,,,GNR,1068601,2023-12-30 16:00:00+00:00,4920.0,4.78,2023-12-30 16:00:00+00:00,gs://gcp-public-data-sentinel-2/tiles/19/T/DL/S2B_MSIL1C_20231230T153649_N0510_R111_T19TDL_20231230T172606.SAFE
250156,2023-12-30 17:00:00+00:00,0.76,2023-12-30 16:56,32.0,29.0,,997.7,320.0,4.6,29.41,88.53,4.0,27.42,,,M,,,GNR,1068605,2023-12-30 17:00:00+00:00,4900.0,4.77,,
250157,2023-12-30 18:00:00+00:00,0.51,2023-12-30 17:56,32.0,29.0,,997.3,330.0,5.75,29.4,88.53,5.0,26.4,,,M,,,GNR,1068609,2023-12-30 18:00:00+00:00,4900.0,4.77,,
250158,2023-12-30 19:00:00+00:00,0.51,2023-12-30 18:56,32.0,29.0,,997.4,350.0,5.75,29.41,88.53,5.0,26.4,,,M,,,GNR,1068613,2023-12-30 19:00:00+00:00,4900.0,4.77,,
250159,2023-12-30 20:00:00+00:00,0.25,2023-12-30 19:56,31.0,28.0,,997.8,340.0,8.05,29.42,88.48,7.0,23.56,,,M,,,GNR,1068617,2023-12-30 20:00:00+00:00,4880.0,4.76,,
250160,2023-12-30 21:00:00+00:00,0.0,2023-12-30 20:56,31.0,28.0,,998.3,340.0,8.05,29.43,88.48,7.0,23.56,,,M,,,GNR,1068621,2023-12-30 21:00:00+00:00,4880.0,4.76,,
250161,2023-12-30 22:00:00+00:00,0.25,2023-12-30 21:56,30.0,28.0,,998.9,340.0,9.2,29.45,92.15,8.0,21.65,,16.0,M,,,GNR,1068625,2023-12-30 22:00:00+00:00,4880.0,4.76,,
250162,2023-12-30 23:00:00+00:00,0.0,2023-12-30 22:56,30.0,28.0,,999.7,340.0,10.35,29.47,92.15,9.0,21.03,,,M,,,GNR,1068629,2023-12-30 23:00:00+00:00,8830.0,6.39,,
250163,2023-12-31 00:00:00+00:00,0.0,2023-12-30 23:56,30.0,27.0,,1000.3,350.0,11.5,29.49,88.44,10.0,20.46,,,M,,,GNR,1068633,2023-12-31 00:00:00+00:00,9490.0,6.65,,
250164,2023-12-31 01:00:00+00:00,0.0,2023-12-31 00:56,30.0,27.0,,1000.8,340.0,10.35,29.5,88.44,9.0,21.03,,16.0,M,,,GNR,1068637,2023-12-31 01:00:00+00:00,9510.0,6.66,,
250165,2023-12-31 02:00:00+00:00,0.0,2023-12-31 01:56,30.0,27.0,,1001.4,340.0,12.65,29.52,88.44,11.0,19.94,,18.0,M,,,GNR,1068641,2023-12-31 02:00:00+00:00,9540.0,6.67,,
250166,2023-12-31 03:00:00+00:00,0.0,2023-12-31 02:56,29.0,26.0,,1002.0,330.0,14.95,29.54,88.38,13.0,17.73,,21.0,M,,,GNR,1068645,2023-12-31 03:00:00+00:00,9510.0,6.66,,
250167,2023-12-31 04:00:00+00:00,0.0,2023-12-31 03:56,28.0,25.0,,1002.7,330.0,14.95,29.56,88.33,13.0,16.44,,20.0,M,,,GNR,1068649,2023-12-31 04:00:00+00:00,5550.0,5.06,,
250168,2023-12-31 05:00:00+00:00,0.0,2023-12-31 04:56,28.0,25.0,,1003.4,330.0,11.5,29.58,88.33,10.0,17.95,,,M,,,GNR,1068653,2023-12-31 05:00:00+00:00,4880.0,4.76,,
250169,2023-12-31 06:00:00+00:00,0.0,2023-12-31 05:56,28.0,25.0,,1003.9,330.0,13.8,29.59,88.33,12.0,16.91,,,M,,,GNR,1068657,2023-12-31 06:00:00+00:00,4850.0,4.75,,
250170,2023-12-31 07:00:00+00:00,0.25,2023-12-31 06:56,27.0,25.0,,1004.7,310.0,10.35,29.61,92.05,9.0,17.3,,16.0,M,,,GNR,1068661,2023-12-31 07:00:00+00:00,4830.0,4.74,,
250171,2023-12-31 08:00:00+00:00,0.25,2023-12-31 07:56,26.0,24.0,,1005.6,310.0,12.65,29.64,92.01,11.0,14.88,,18.0,M,,,GNR,1068665,2023-12-31 08:00:00+00:00,5600.0,5.08,,
250172,2023-12-31 09:00:00+00:00,0.0,2023-12-31 08:56,25.0,23.0,,1006.2,300.0,8.05,29.66,91.97,7.0,16.25,,17.0,M,,,GNR,1068669,2023-12-31 09:00:00+00:00,5810.0,5.17,,
250173,2023-12-31 10:00:00+00:00,0.0,2023-12-31 09:56,25.0,22.0,,1006.8,310.0,8.05,29.67,88.18,7.0,16.25,,18.0,M,,,GNR,1068673,2023-12-31 10:00:00+00:00,5790.0,5.16,,
250174,2023-12-31 11:00:00+00:00,0.0,2023-12-31 10:56,24.0,21.0,,1007.6,310.0,12.65,29.69,88.13,11.0,12.36,,21.0,M,,,GNR,1068677,2023-12-31 11:00:00+00:00,5760.0,5.15,,
250175,2023-12-31 12:00:00+00:00,0.0,2023-12-31 11:56,23.0,20.0,,1008.3,300.0,9.2,29.72,88.08,8.0,13.03,,21.0,M,,,GNR,1068681,2023-12-31 12:00:00+00:00,5760.0,5.15,,
250176,2023-12-31 13:00:00+00:00,0.0,2023-12-31 12:56,23.0,20.0,,1009.1,300.0,11.5,29.74,88.08,10.0,11.68,,21.0,M,,,GNR,1068685,2023-12-31 13:00:00+00:00,5760.0,5.15,,
250177,2023-12-31 14:00:00+00:00,0.0,2023-12-31 13:56,23.0,19.0,,1009.8,310.0,14.95,29.76,84.39,13.0,10.04,,23.0,M,,,GNR,1068689,2023-12-31 14:00:00+00:00,5760.0,5.15,,
250178,2023-12-31 15:00:00+00:00,0.0,2023-12-31 14:56,22.0,19.0,,1010.4,300.0,5.75,29.78,88.02,5.0,14.52,,,M,,,GNR,1068693,2023-12-31 15:00:00+00:00,5760.0,5.15,,
250179,2023-12-31 16:00:00+00:00,0.0,2023-12-31 15:56,22.0,19.0,,1010.3,300.0,9.2,29.77,88.02,8.0,11.79,,18.0,M,,,GNR,1068697,2023-12-31 16:00:00+00:00,5740.0,5.14,,
250180,2023-12-31 17:00:00+00:00,0.0,2023-12-31 16:56,21.0,18.0,,1010.4,320.0,13.8,29.77,87.97,12.0,8.0,,21.0,M,,,GNR,1068701,2023-12-31 17:00:00+00:00,5740.0,5.14,,
250181,2023-12-31 18:00:00+00:00,0.0,2023-12-31 17:56,21.0,17.0,,1010.4,310.0,16.1,29.77,84.26,14.0,6.98,,21.0,M,,,GNR,1068705,2023-12-31 18:00:00+00:00,5740.0,5.14,,
250182,2023-12-31 19:00:00+00:00,0.0,2023-12-31 18:56,21.0,15.0,,1010.9,,6.9,29.79,77.25,6.0,12.28,,20.0,M,,,GNR,1068709,2023-12-31 19:00:00+00:00,5760.0,5.15,,
250183,2023-12-31 20:00:00+00:00,0.0,2023-12-31 19:56,19.0,14.0,,1011.6,300.0,8.05,29.81,80.52,7.0,8.93,,17.0,M,,,GNR,1068713,2023-12-31 20:00:00+00:00,5740.0,5.14,,
250184,2023-12-31 21:00:00+00:00,0.0,2023-12-31 20:56,19.0,14.0,,1011.9,290.0,8.05,29.81,80.52,7.0,8.93,,15.0,M,,,GNR,1068717,2023-12-31 21:00:00+00:00,5740.0,5.14,,
250185,2023-12-31 22:00:00+00:00,0.0,2023-12-31 21:56,18.0,14.0,,1012.5,300.0,8.05,29.83,84.05,7.0,7.71,,,M,,,GNR,1068721,2023-12-31 22:00:00+00:00,5720.0,5.13,,
250186,2023-12-31 23:00:00+00:00,0.0,2023-12-31 22:56,17.0,13.0,,1013.0,320.0,14.95,29.84,83.98,13.0,2.35,,22.0,M,,,GNR,1068725,2023-12-31 23:00:00+00:00,8910.0,6.42,,
250187,2024-01-01 00:00:00+00:00,0.0,2023-12-31 23:56,17.0,12.0,,1013.2,330.0,12.65,29.85,80.36,11.0,3.51,,,M,,,GNR,1068729,2024-01-01 00:00:00+00:00,9460.0,6.64,,
250188,2024-01-01 01:00:00+00:00,0.0,2024-01-01 00:56,16.0,11.0,,1013.6,330.0,13.8,29.86,80.27,12.0,1.64,,21.0,M,,,GNR,1068733,2024-01-01 01:00:00+00:00,9460.0,6.64,,
250189,2024-01-01 02:00:00+00:00,0.0,2024-01-01 01:56,16.0,11.0,,1013.5,340.0,10.35,29.86,80.27,9.0,3.62,,19.0,M,,,GNR,1068737,2024-01-01 02:00:00+00:00,9440.0,6.63,,
250190,2024-01-01 03:00:00+00:00,0.0,2024-01-01 02:56,16.0,11.0,,1013.5,330.0,11.5,29.85,80.27,10.0,2.9,,,M,,,GNR,1068741,2024-01-01 03:00:00+00:00,9440.0,6.63,,
250191,2024-01-01 04:00:00+00:00,0.0,2024-01-01 03:56,15.0,11.0,,1013.8,340.0,10.35,29.86,83.84,9.0,2.38,,,M,,,GNR,1068745,2024-01-01 04:00:00+00:00,5670.0,5.11,,
250192,2024-01-01 05:00:00+00:00,0.0,2024-01-01 04:56,15.0,11.0,,1013.8,350.0,9.2,29.86,83.84,8.0,3.17,,,M,,,GNR,1068749,2024-01-01 05:00:00+00:00,4790.0,4.72,,
250193,2024-01-01 06:00:00+00:00,0.0,2024-01-01 05:56,15.0,11.0,,1013.8,340.0,10.35,29.86,83.84,9.0,2.38,,,M,,,GNR,1068753,2024-01-01 06:00:00+00:00,4790.0,4.72,,
250194,2024-01-01 07:00:00+00:00,0.0,2024-01-01 06:56,15.0,10.0,,1014.3,330.0,6.9,29.87,80.19,6.0,5.06,,,M,,,GNR,1068757,2024-01-01 07:00:00+00:00,4770.0,4.71,,
250195,2024-01-01 08:00:00+00:00,0.0,2024-01-01 07:56,15.0,10.0,,1014.4,340.0,8.05,29.87,80.19,7.0,4.06,,,M,,,GNR,1068761,2024-01-01 08:00:00+00:00,4720.0,4.69,,
250196,2024-01-01 09:00:00+00:00,0.0,2024-01-01 08:56,15.0,10.0,,1014.3,320.0,9.2,29.87,80.19,8.0,3.17,,18.0,M,,,GNR,1068765,2024-01-01 09:00:00+00:00,4720.0,4.69,,
250197,2024-01-01 10:00:00+00:00,0.0,2024-01-01 09:56,15.0,11.0,,1014.0,340.0,8.05,29.86,83.84,7.0,4.06,,,M,,,GNR,1068769,2024-01-01 10:00:00+00:00,4700.0,4.68,,
250198,2024-01-01 11:00:00+00:00,0.0,2024-01-01 10:56,15.0,11.0,,1014.3,350.0,10.35,29.87,83.84,9.0,2.38,,,M,,,GNR,1068773,2024-01-01 11:00:00+00:00,4680.0,4.67,,
250199,2024-01-01 12:00:00+00:00,0.0,2024-01-01 11:56,15.0,10.0,,1015.0,340.0,13.8,29.89,80.19,12.0,0.37,,18.0,M,,,GNR,1068777,2024-01-01 12:00:00+00:00,4700.0,4.68,,
250200,2024-01-01 13:00:00+00:00,0.0,2024-01-01 12:56,15.0,10.0,,1015.5,350.0,8.05,29.9,80.19,7.0,4.06,,,M,,,GNR,1068781,2024-01-01 13:00:00+00:00,4680.0,4.67,,
250201,2024-01-01 14:00:00+00:00,0.0,2024-01-01 13:56,16.0,10.0,,1015.8,340.0,8.05,29.91,76.77,7.0,5.28,,,M,,,GNR,1068785,2024-01-01 14:00:00+00:00,4680.0,4.67,,
250202,2024-01-01 15:00:00+00:00,0.0,2024-01-01 14:56,17.0,11.0,,1016.2,310.0,6.9,29.93,76.87,6.0,7.46,,,M,,,GNR,1068789,2024-01-01 15:00:00+00:00,4680.0,4.67,,
250203,2024-01-01 16:00:00+00:00,0.25,2024-01-01 15:56,17.0,12.0,,1015.9,,4.6,29.92,80.36,4.0,9.9,,,M,,,GNR,1068793,2024-01-01 16:00:00+00:00,5480.0,5.03,,
250204,2024-01-01 17:00:00+00:00,0.0,2024-01-01 16:56,17.0,12.0,,1015.5,,4.6,29.91,80.36,4.0,9.9,,,M,,,GNR,1068797,2024-01-01 17:00:00+00:00,5670.0,5.11,,
250205,2024-01-01 18:00:00+00:00,0.0,2024-01-01 17:56,17.0,11.0,,1015.1,,,29.89,76.87,,,,,M,,,GNR,1068801,2024-01-01 18:00:00+00:00,5650.0,5.1,,
250206,2024-01-01 19:00:00+00:00,0.0,2024-01-01 18:56,17.0,10.0,,1015.3,320.0,9.2,29.9,73.52,8.0,5.64,,,M,,,GNR,1068805,2024-01-01 19:00:00+00:00,5650.0,5.1,,
250207,2024-01-01 20:00:00+00:00,0.0,2024-01-01 19:56,17.0,11.0,,1015.6,,3.45,29.91,76.87,3.0,11.54,,,M,,,GNR,1068809,2024-01-01 20:00:00+00:00,5650.0,5.1,,
250208,2024-01-01 21:00:00+00:00,0.0,2024-01-01 20:56,16.0,11.0,,1015.8,310.0,9.2,29.92,80.27,8.0,4.4,,,M,,,GNR,1068813,2024-01-01 21:00:00+00:00,5650.0,5.1,,
250209,2024-01-01 22:00:00+00:00,0.0,2024-01-01 21:56,16.0,10.0,,1016.0,320.0,10.35,29.92,76.77,9.0,3.62,,16.0,M,,,GNR,1068817,2024-01-01 22:00:00+00:00,5650.0,5.1,,
250210,2024-01-01 23:00:00+00:00,0.0,2024-01-01 22:56,15.0,11.0,,1016.2,,6.9,29.92,83.84,6.0,5.06,,,M,,,GNR,1068821,2024-01-01 23:00:00+00:00,5650.0,5.1,,
250211,2024-01-02 00:00:00+00:00,0.0,2024-01-01 23:56,15.0,9.0,,1016.2,310.0,10.35,29.92,76.68,9.0,2.38,,19.0,M,,,GNR,1068825,2024-01-02 00:00:00+00:00,8370.0,6.21,,
250212,2024-01-02 01:00:00+00:00,0.0,2024-01-02 00:56,15.0,9.0,,1016.1,310.0,10.35,29.92,76.68,9.0,2.38,,21.0,M,,,GNR,1068829,2024-01-02 01:00:00+00:00,9360.0,6.6,,
250213,2024-01-02 02:00:00+00:00,0.0,2024-01-02 01:56,14.0,9.0,,1015.9,310.0,10.35,29.92,80.1,9.0,1.13,,19.0,M,,,GNR,1068833,2024-01-02 02:00:00+00:00,9360.0,6.6,,
250214,2024-01-02 03:00:00+00:00,0.0,2024-01-02 02:56,15.0,9.0,,1015.7,320.0,12.65,29.91,76.68,11.0,0.98,,18.0,M,,,GNR,1068837,2024-01-02 03:00:00+00:00,5580.0,5.07,,
250215,2024-01-02 04:00:00+00:00,0.0,2024-01-02 03:56,15.0,10.0,,1015.3,320.0,10.35,29.9,80.19,9.0,2.38,,,M,,,GNR,1068841,2024-01-02 04:00:00+00:00,4700.0,4.68,,
250216,2024-01-02 05:00:00+00:00,0.0,2024-01-02 04:56,14.0,10.0,,1014.8,320.0,8.05,29.88,83.77,7.0,2.84,,,M,,,GNR,1068845,2024-01-02 05:00:00+00:00,4680.0,4.67,,
250217,2024-01-02 06:00:00+00:00,0.0,2024-01-02 05:56,14.0,9.0,,1014.6,310.0,10.35,29.88,80.1,9.0,1.13,,,M,,,GNR,1068849,2024-01-02 06:00:00+00:00,4660.0,4.66,,
250218,2024-01-02 07:00:00+00:00,0.0,2024-01-02 06:56,14.0,9.0,,1014.7,320.0,11.5,29.88,80.1,10.0,0.4,,,M,,,GNR,1068853,2024-01-02 07:00:00+00:00,3810.0,4.26,,
250219,2024-01-02 08:00:00+00:00,0.0,2024-01-02 07:56,15.0,10.0,,1014.4,330.0,12.65,29.87,80.19,11.0,0.98,,17.0,M,,,GNR,1068857,2024-01-02 08:00:00+00:00,2460.0,3.55,,
250220,2024-01-02 09:00:00+00:00,0.0,2024-01-02 08:56,15.0,10.0,,1013.9,330.0,10.35,29.86,80.19,9.0,2.38,,17.0,M,,,GNR,1068861,2024-01-02 09:00:00+00:00,2350.0,3.49,,
250221,2024-01-02 10:00:00+00:00,0.0,2024-01-02 09:56,15.0,11.0,,1013.7,360.0,9.2,29.85,83.84,8.0,3.17,,,M,,,GNR,1068865,2024-01-02 10:00:00+00:00,2340.0,3.48,,
250222,2024-01-02 11:00:00+00:00,0.0,2024-01-02 10:56,16.0,11.0,,1013.9,350.0,11.5,29.86,80.27,10.0,2.9,,,M,,,GNR,1068869,2024-01-02 11:00:00+00:00,2340.0,3.48,,
250223,2024-01-02 12:00:00+00:00,0.0,2024-01-02 11:56,16.0,11.0,,1013.9,330.0,13.8,29.86,80.27,12.0,1.64,,17.0,M,,,GNR,1068873,2024-01-02 12:00:00+00:00,2340.0,3.48,,
250224,2024-01-02 13:00:00+00:00,0.0,2024-01-02 12:56,18.0,12.0,,1013.8,350.0,9.2,29.86,76.97,8.0,6.87,,,M,,,GNR,1068877,2024-01-02 13:00:00+00:00,2250.0,3.43,,
250225,2024-01-02 14:00:00+00:00,0.0,2024-01-02 13:56,20.0,13.0,,1013.8,320.0,8.05,29.85,73.84,7.0,10.15,,,M,,,GNR,1068881,2024-01-02 14:00:00+00:00,2240.0,3.42,,
250226,2024-01-02 15:00:00+00:00,0.0,2024-01-02 14:56,21.0,14.0,,1013.7,,3.45,29.86,73.94,3.0,16.11,,,M,,,GNR,1068885,2024-01-02 15:00:00+00:00,2240.0,3.42,,
250227,2024-01-02 16:00:00+00:00,0.0,2024-01-02 15:56,26.0,15.0,,1013.0,0.0,0.0,29.84,62.64,0.0,26.0,,,M,,,GNR,1068889,2024-01-02 16:00:00+00:00,8370.0,6.21,2024-01-02 16:00:00+00:00,gs://gcp-public-data-sentinel-2/tiles/19/T/DL/S2B_MSIL1C_20240102T154649_N0510_R011_T19TDL_20240102T191909.SAFE
250228,2024-01-02 17:00:00+00:00,0.0,2024-01-02 16:56,25.0,16.0,,1012.1,0.0,0.0,29.81,68.2,0.0,25.0,,,M,,,GNR,1068893,2024-01-02 17:00:00+00:00,9240.0,6.55,,
250229,2024-01-02 18:00:00+00:00,0.0,2024-01-02 17:56,27.0,17.0,,1011.7,,3.45,29.8,65.56,3.0,22.97,,,M,,,GNR,1068897,2024-01-02 18:00:00+00:00,6140.0,5.31,,
250230,2024-01-02 19:00:00+00:00,0.0,2024-01-02 18:56,28.0,17.0,,1011.4,310.0,6.9,29.79,62.91,6.0,20.71,,,M,,,GNR,1068901,2024-01-02 19:00:00+00:00,5600.0,5.08,,
250231,2024-01-02 20:00:00+00:00,0.0,2024-01-02 19:56,25.0,18.0,,1011.4,320.0,10.35,29.79,74.36,9.0,14.81,,,M,,,GNR,1068905,2024-01-02 20:00:00+00:00,5580.0,5.07,,
250232,2024-01-02 21:00:00+00:00,0.0,2024-01-02 20:56,23.0,18.0,,1011.6,320.0,8.05,29.8,80.85,7.0,13.81,,,M,,,GNR,1068909,2024-01-02 21:00:00+00:00,5580.0,5.07,,
250233,2024-01-02 22:00:00+00:00,0.0,2024-01-02 21:56,22.0,18.0,,1011.8,330.0,9.2,29.8,84.33,8.0,11.79,,,M,,,GNR,1068913,2024-01-02 22:00:00+00:00,5580.0,5.07,,
250234,2024-01-02 23:00:00+00:00,0.0,2024-01-02 22:56,22.0,18.0,,1011.9,320.0,10.35,29.81,84.33,9.0,11.08,,,M,,,GNR,1068917,2024-01-02 23:00:00+00:00,8810.0,6.38,,
250235,2024-01-03 00:00:00+00:00,0.0,2024-01-02 23:56,23.0,19.0,,1011.6,,5.75,29.8,84.39,5.0,15.71,,,M,,,GNR,1068921,2024-01-03 00:00:00+00:00,9260.0,6.56,,
250236,2024-01-03 01:00:00+00:00,0.0,2024-01-03 00:56,25.0,20.0,,1011.2,310.0,11.5,29.79,81.01,10.0,14.19,,18.0,M,,,GNR,1068925,2024-01-03 01:00:00+00:00,9310.0,6.58,,
250237,2024-01-03 02:00:00+00:00,0.0,2024-01-03 01:56,26.0,21.0,,1011.1,,3.45,29.79,81.09,3.0,21.83,,,M,,,GNR,1068929,2024-01-03 02:00:00+00:00,9340.0,6.59,,
250238,2024-01-03 03:00:00+00:00,0.0,2024-01-03 02:56,27.0,22.0,,1011.1,,3.45,29.79,81.17,3.0,22.97,,,M,,,GNR,1068933,2024-01-03 03:00:00+00:00,9310.0,6.58,,
250239,2024-01-03 04:00:00+00:00,0.0,2024-01-03 03:56,25.0,21.0,,1011.1,,,29.8,84.53,,,,,M,,,GNR,1068937,2024-01-03 04:00:00+00:00,5230.0,4.92,,
250240,2024-01-03 05:00:00+00:00,0.0,2024-01-03 04:56,26.0,21.0,,1010.8,,3.45,29.79,81.09,3.0,21.83,,,M,,,GNR,1068941,2024-01-03 05:00:00+00:00,4300.0,4.49,,
250241,2024-01-03 06:00:00+00:00,0.0,2024-01-03 05:56,27.0,23.0,,1010.8,300.0,8.05,29.79,84.66,7.0,18.68,,,M,,,GNR,1068945,2024-01-03 06:00:00+00:00,4280.0,4.48,,
250242,2024-01-03 07:00:00+00:00,0.0,2024-01-03 06:56,28.0,24.0,,1010.9,310.0,6.9,29.8,84.72,6.0,20.71,,,M,,,GNR,1068949,2024-01-03 07:00:00+00:00,4280.0,4.48,,
250243,2024-01-03 08:00:00+00:00,0.0,2024-01-03 07:56,28.0,23.0,,1010.9,310.0,9.2,29.79,81.25,8.0,19.19,,17.0,M,,,GNR,1068953,2024-01-03 08:00:00+00:00,4280.0,4.48,,
250244,2024-01-03 09:00:00+00:00,0.0,2024-01-03 08:56,29.0,22.0,,1010.9,300.0,10.35,29.79,74.77,9.0,19.78,,20.0,M,,,GNR,1068957,2024-01-03 09:00:00+00:00,4280.0,4.48,,
250245,2024-01-03 10:00:00+00:00,0.0,2024-01-03 09:56,29.0,22.0,,1010.8,,,29.79,74.77,,,,,M,,,GNR,1068961,2024-01-03 10:00:00+00:00,4280.0,4.48,,
250246,2024-01-03 11:00:00+00:00,0.0,2024-01-03 10:56,28.0,23.0,,1011.3,0.0,0.0,29.8,81.25,0.0,28.0,,,M,,,GNR,1068965,2024-01-03 11:00:00+00:00,4260.0,4.47,,
250247,2024-01-03 12:00:00+00:00,0.0,2024-01-03 11:56,29.0,23.0,,1011.4,,4.6,29.81,77.98,4.0,23.92,,,M,,,GNR,1068969,2024-01-03 12:00:00+00:00,4260.0,4.47,,
250248,2024-01-03 13:00:00+00:00,0.0,2024-01-03 12:56,29.0,24.0,,1011.9,0.0,0.0,29.82,81.32,0.0,29.0,,,M,,,GNR,1068973,2024-01-03 13:00:00+00:00,4280.0,4.48,,
250249,2024-01-03 14:00:00+00:00,0.0,2024-01-03 13:56,30.0,25.0,,1012.1,0.0,0.0,29.83,81.4,0.0,30.0,,,M,,,GNR,1068977,2024-01-03 14:00:00+00:00,5100.0,4.86,,
250250,2024-01-03 15:00:00+00:00,0.0,2024-01-03 14:56,30.0,25.0,,1012.4,,3.45,29.84,81.4,3.0,26.4,,,M,,,GNR,1068981,2024-01-03 15:00:00+00:00,5440.0,5.01,,
250251,2024-01-03 16:00:00+00:00,0.0,2024-01-03 15:56,31.0,25.0,,1012.0,0.0,0.0,29.83,78.16,0.0,31.0,,,M,,,GNR,1068985,2024-01-03 16:00:00+00:00,4620.0,4.64,,
250252,2024-01-03 17:00:00+00:00,0.0,2024-01-03 16:56,31.0,26.0,,1011.4,,3.45,29.81,81.48,3.0,27.55,,,M,,,GNR,1068989,2024-01-03 17:00:00+00:00,4230.0,4.46,,
250253,2024-01-03 18:00:00+00:00,0.0,2024-01-03 17:56,31.0,26.0,,1011.1,0.0,0.0,29.8,81.48,0.0,31.0,,,M,,,GNR,1068993,2024-01-03 18:00:00+00:00,4210.0,4.45,,
250254,2024-01-03 19:00:00+00:00,0.0,2024-01-03 18:56,31.0,27.0,,1011.0,0.0,0.0,29.8,84.92,0.0,31.0,,,M,,,GNR,1068997,2024-01-03 19:00:00+00:00,4230.0,4.46,,
250255,2024-01-03 20:00:00+00:00,0.0,2024-01-03 19:56,31.0,27.0,,1011.0,200.0,4.6,29.8,84.92,4.0,26.25,,,M,,,GNR,1069001,2024-01-03 20:00:00+00:00,4590.0,4.63,,
250256,2024-01-03 21:00:00+00:00,0.0,2024-01-03 20:56,31.0,27.0,,1011.1,220.0,4.6,29.8,84.92,4.0,26.25,,,M,,,GNR,1069005,2024-01-03 21:00:00+00:00,4280.0,4.48,,
250257,2024-01-03 22:00:00+00:00,0.0,2024-01-03 21:56,30.0,27.0,,1011.6,0.0,0.0,29.82,88.44,0.0,30.0,,,M,,,GNR,1069009,2024-01-03 22:00:00+00:00,4260.0,4.47,,
250258,2024-01-03 23:00:00+00:00,0.0,2024-01-03 22:56,30.0,27.0,,1011.6,0.0,0.0,29.82,88.44,0.0,30.0,,,M,,,GNR,1069013,2024-01-03 23:00:00+00:00,8170.0,6.13,,
250259,2024-01-04 00:00:00+00:00,0.0,2024-01-03 23:56,29.0,27.0,,1011.8,0.0,0.0,29.82,92.12,0.0,29.0,,,M,,,GNR,1069017,2024-01-04 00:00:00+00:00,9110.0,6.5,,
250260,2024-01-04 01:00:00+00:00,0.0,2024-01-04 00:56,29.0,26.0,,1011.5,,3.45,29.82,88.38,3.0,25.26,,,M,,,GNR,1069021,2024-01-04 01:00:00+00:00,9110.0,6.5,,
250261,2024-01-04 02:00:00+00:00,0.0,2024-01-04 01:56,29.0,26.0,,1011.4,0.0,0.0,29.81,88.38,0.0,29.0,,,M,,,GNR,1069025,2024-01-04 02:00:00+00:00,9110.0,6.5,,
250262,2024-01-04 03:00:00+00:00,0.0,2024-01-04 02:56,29.0,26.0,,1011.5,0.0,0.0,29.81,88.38,0.0,29.0,,,M,,,GNR,1069029,2024-01-04 03:00:00+00:00,7690.0,5.94,,
250263,2024-01-04 04:00:00+00:00,0.0,2024-01-04 03:56,28.0,26.0,,1011.3,190.0,3.45,29.81,92.08,3.0,24.12,,,M,,,GNR,1069033,2024-01-04 04:00:00+00:00,5050.0,4.84,,
250264,2024-01-04 05:00:00+00:00,0.0,2024-01-04 04:56,29.0,25.0,,1010.8,,3.45,29.79,84.79,3.0,25.26,,,M,,,GNR,1069037,2024-01-04 05:00:00+00:00,4280.0,4.48,,
250265,2024-01-04 06:00:00+00:00,0.0,2024-01-04 05:56,29.0,25.0,,1010.4,0.0,0.0,29.78,84.79,0.0,29.0,,,M,,,GNR,1069041,2024-01-04 06:00:00+00:00,4260.0,4.47,,
250266,2024-01-04 07:00:00+00:00,0.0,2024-01-04 06:56,29.0,25.0,,1010.2,0.0,0.0,29.78,84.79,0.0,29.0,,,M,,,GNR,1069045,2024-01-04 07:00:00+00:00,3950.0,4.33,,
250267,2024-01-04 08:00:00+00:00,0.0,2024-01-04 07:56,29.0,25.0,,1010.3,0.0,0.0,29.78,84.79,0.0,29.0,,,M,,,GNR,1069049,2024-01-04 08:00:00+00:00,3720.0,4.22,,
250268,2024-01-04 09:00:00+00:00,0.0,2024-01-04 08:56,28.0,24.0,,1010.1,120.0,3.45,29.77,84.72,3.0,24.12,,,M,,,GNR,1069053,2024-01-04 09:00:00+00:00,3700.0,4.21,,
250269,2024-01-04 10:00:00+00:00,0.0,2024-01-04 09:56,28.0,25.0,,1009.5,0.0,0.0,29.76,88.33,0.0,28.0,,,M,,,GNR,1069057,2024-01-04 10:00:00+00:00,3680.0,4.2,,
250270,2024-01-04 11:00:00+00:00,0.0,2024-01-04 10:56,28.0,25.0,,1009.4,140.0,3.45,29.75,88.33,3.0,24.12,,,M,,,GNR,1069061,2024-01-04 11:00:00+00:00,3680.0,4.2,,
250271,2024-01-04 12:00:00+00:00,0.0,2024-01-04 11:56,27.0,25.0,,1009.1,130.0,4.6,29.74,92.05,4.0,21.58,,,M,,,GNR,1069065,2024-01-04 12:00:00+00:00,3680.0,4.2,,
250272,2024-01-04 13:00:00+00:00,0.0,2024-01-04 12:56,27.0,25.0,,1008.7,130.0,3.45,29.73,92.05,3.0,22.97,,,M,,,GNR,1069069,2024-01-04 13:00:00+00:00,3680.0,4.2,,
250273,2024-01-04 14:00:00+00:00,0.0,2024-01-04 13:56,28.0,25.0,,1008.5,0.0,0.0,29.73,88.33,0.0,28.0,,,M,,,GNR,1069073,2024-01-04 14:00:00+00:00,3680.0,4.2,,
250274,2024-01-04 15:00:00+00:00,0.0,2024-01-04 14:56,29.0,26.0,,1008.4,,3.45,29.72,88.38,3.0,25.26,,,M,,,GNR,1069077,2024-01-04 15:00:00+00:00,3680.0,4.2,,
250275,2024-01-04 16:00:00+00:00,0.0,2024-01-04 15:56,30.0,27.0,,1007.8,200.0,3.45,29.71,88.44,3.0,26.4,,,M,,,GNR,1069081,2024-01-04 16:00:00+00:00,3680.0,4.2,2024-01-04 16:00:00+00:00,gs://gcp-public-data-sentinel-2/tiles/19/T/DL/S2A_MSIL1C_20240104T153631_N0510_R111_T19TDL_20240104T173017.SAFE
250276,2024-01-04 17:00:00+00:00,0.0,2024-01-04 16:56,32.0,28.0,,1007.0,,3.45,29.69,84.98,3.0,28.69,,,M,,,GNR,1069085,2024-01-04 17:00:00+00:00,3660.0,4.19,,
250277,2024-01-04 18:00:00+00:00,0.0,2024-01-04 17:56,29.0,26.0,,1007.1,300.0,12.65,29.69,88.38,11.0,18.68,,22.0,M,,,GNR,1069089,2024-01-04 18:00:00+00:00,3680.0,4.2,,
250278,2024-01-04 19:00:00+00:00,1.27,2024-01-04 18:56,26.0,19.0,,1008.4,310.0,14.95,29.72,74.46,13.0,13.88,,22.0,M,27.0,,GNR,1069093,2024-01-04 19:00:00+00:00,3680.0,4.2,,
250279,2024-01-04 20:00:00+00:00,0.0,2024-01-04 19:56,21.0,12.0,,1010.0,310.0,16.1,29.76,67.71,14.0,6.98,,27.0,M,33.0,,GNR,1069097,2024-01-04 20:00:00+00:00,3680.0,4.2,,
250280,2024-01-04 21:00:00+00:00,0.0,2024-01-04 20:56,16.0,8.0,,1011.3,320.0,17.25,29.8,70.18,15.0,0.04,,26.0,M,36.0,,GNR,1069101,2024-01-04 21:00:00+00:00,3660.0,4.19,,
250281,2024-01-04 22:00:00+00:00,0.0,2024-01-04 21:56,13.0,5.0,,1012.1,310.0,18.4,29.81,69.82,16.0,-4.35,,33.0,M,36.0,,GNR,1069105,2024-01-04 22:00:00+00:00,3640.0,4.18,,
250282,2024-01-04 23:00:00+00:00,0.0,2024-01-04 22:56,12.0,5.0,,1012.7,320.0,17.25,29.83,72.97,15.0,-5.15,,36.0,M,36.0,,GNR,1069109,2024-01-04 23:00:00+00:00,8290.0,6.18,,
250283,2024-01-05 00:00:00+00:00,0.0,2024-01-04 23:56,12.0,4.0,,1013.0,310.0,17.25,29.84,69.7,15.0,-5.15,,36.0,M,37.0,,GNR,1069113,2024-01-05 00:00:00+00:00,9190.0,6.53,,
250284,2024-01-05 01:00:00+00:00,0.0,2024-01-05 00:56,11.0,4.0,,1014.0,320.0,24.15,29.87,72.86,21.0,-9.16,,34.0,M,38.0,,GNR,1069117,2024-01-05 01:00:00+00:00,9240.0,6.55,,
250285,2024-01-05 02:00:00+00:00,0.0,2024-01-05 01:56,11.0,4.0,,1014.4,320.0,20.7,29.88,72.86,18.0,-7.9,,29.0,M,33.0,,GNR,1069121,2024-01-05 02:00:00+00:00,9210.0,6.54,,
250286,2024-01-05 03:00:00+00:00,0.0,2024-01-05 02:56,10.0,3.0,,1014.7,310.0,17.25,29.89,72.75,15.0,-7.74,,30.0,M,32.0,,GNR,1069125,2024-01-05 03:00:00+00:00,9260.0,6.56,,
250287,2024-01-05 04:00:00+00:00,0.0,2024-01-05 03:56,10.0,3.0,,1015.2,320.0,16.1,29.9,72.75,14.0,-7.2,,26.0,M,31.0,,GNR,1069129,2024-01-05 04:00:00+00:00,5120.0,4.87,,
250288,2024-01-05 05:00:00+00:00,0.0,2024-01-05 04:56,9.0,3.0,,1014.5,310.0,17.25,29.88,76.08,15.0,-9.04,,33.0,M,33.0,,GNR,1069133,2024-01-05 05:00:00+00:00,3660.0,4.19,,
250289,2024-01-05 06:00:00+00:00,0.0,2024-01-05 05:56,9.0,3.0,,1014.4,310.0,23.0,29.88,76.08,20.0,-11.41,,33.0,M,33.0,,GNR,1069137,2024-01-05 06:00:00+00:00,3640.0,4.18,,
250290,2024-01-05 07:00:00+00:00,0.0,2024-01-05 06:56,8.0,2.0,,1015.1,310.0,18.4,29.89,75.98,16.0,-10.86,,32.0,M,32.0,,GNR,1069141,2024-01-05 07:00:00+00:00,3600.0,4.16,,
250291,2024-01-05 08:00:00+00:00,0.0,2024-01-05 07:56,8.0,2.0,,1015.3,310.0,17.25,29.9,75.98,15.0,-10.33,,29.0,M,31.0,,GNR,1069145,2024-01-05 08:00:00+00:00,3240.0,3.98,,
250292,2024-01-05 09:00:00+00:00,0.0,2024-01-05 08:56,7.0,1.0,,1015.7,310.0,17.25,29.9,75.88,15.0,-11.63,,28.0,M,29.0,,GNR,1069149,2024-01-05 09:00:00+00:00,3200.0,3.96,,
250293,2024-01-05 10:00:00+00:00,0.0,2024-01-05 09:56,7.0,2.0,,1015.9,320.0,19.55,29.9,79.5,17.0,-12.68,,26.0,M,27.0,,GNR,1069153,2024-01-05 10:00:00+00:00,3180.0,3.95,,
250294,2024-01-05 11:00:00+00:00,0.0,2024-01-05 10:56,5.0,1.0,,1016.6,310.0,17.25,29.92,83.12,15.0,-14.22,,25.0,M,29.0,,GNR,1069157,2024-01-05 11:00:00+00:00,3170.0,3.94,,
250295,2024-01-05 12:00:00+00:00,0.0,2024-01-05 11:56,5.0,1.0,,1016.8,310.0,18.4,29.93,83.12,16.0,-14.77,,28.0,M,28.0,,GNR,1069161,2024-01-05 12:00:00+00:00,3170.0,3.94,,
250296,2024-01-05 13:00:00+00:00,0.0,2024-01-05 12:56,6.0,1.0,,1017.3,310.0,10.35,29.94,79.41,9.0,-8.82,,22.0,M,27.0,,GNR,1069165,2024-01-05 13:00:00+00:00,3170.0,3.94,,
250297,2024-01-05 14:00:00+00:00,0.0,2024-01-05 13:56,8.0,1.0,,1017.8,320.0,13.8,29.96,72.52,12.0,-8.54,,22.0,M,,,GNR,1069169,2024-01-05 14:00:00+00:00,3170.0,3.94,,
250298,2024-01-05 15:00:00+00:00,0.0,2024-01-05 14:56,10.0,2.0,,1018.0,300.0,11.5,29.96,69.45,10.0,-4.62,,21.0,M,,,GNR,1069173,2024-01-05 15:00:00+00:00,3180.0,3.95,,
250299,2024-01-05 16:00:00+00:00,0.0,2024-01-05 15:56,12.0,2.0,,1017.0,310.0,13.8,29.94,63.54,12.0,-3.45,,26.0,M,26.0,,GNR,1069177,2024-01-05 16:00:00+00:00,3180.0,3.95,,
250300,2024-01-05 17:00:00+00:00,0.0,2024-01-05 16:56,14.0,3.0,,1016.2,310.0,13.8,29.92,60.94,12.0,-0.91,,29.0,M,29.0,,GNR,1069181,2024-01-05 17:00:00+00:00,3240.0,3.98,,
250301,2024-01-05 18:00:00+00:00,0.0,2024-01-05 17:56,15.0,3.0,,1016.3,280.0,9.2,29.92,58.34,8.0,3.17,,19.0,M,34.0,,GNR,1069185,2024-01-05 18:00:00+00:00,3260.0,3.99,,
250302,2024-01-05 19:00:00+00:00,0.0,2024-01-05 18:56,13.0,3.0,,1016.5,310.0,8.05,29.92,63.68,7.0,1.62,,26.0,M,27.0,,GNR,1069189,2024-01-05 19:00:00+00:00,3260.0,3.99,,
250303,2024-01-05 20:00:00+00:00,0.0,2024-01-05 19:56,15.0,3.0,,1016.4,300.0,11.5,29.92,58.34,10.0,1.65,,18.0,M,,,GNR,1069193,2024-01-05 20:00:00+00:00,3240.0,3.98,,
250304,2024-01-05 21:00:00+00:00,0.0,2024-01-05 20:56,13.0,4.0,,1016.5,300.0,8.05,29.92,66.69,7.0,1.62,,20.0,M,,,GNR,1069197,2024-01-05 21:00:00+00:00,3220.0,3.97,,
250305,2024-01-05 22:00:00+00:00,0.0,2024-01-05 21:56,12.0,4.0,,1016.3,300.0,9.2,29.92,69.7,8.0,-0.52,,16.0,M,,,GNR,1069201,2024-01-05 22:00:00+00:00,3220.0,3.97,,
250306,2024-01-05 23:00:00+00:00,0.0,2024-01-05 22:56,14.0,5.0,,1016.0,290.0,8.05,29.91,66.82,7.0,2.84,,14.0,M,,,GNR,1069205,2024-01-05 23:00:00+00:00,7940.0,6.04,,
250307,2024-01-06 00:00:00+00:00,0.0,2024-01-05 23:56,14.0,6.0,,1016.0,,6.9,29.9,69.94,6.0,3.85,,,M,,,GNR,1069209,2024-01-06 00:00:00+00:00,8940.0,6.43,,
250308,2024-01-06 01:00:00+00:00,0.0,2024-01-06 00:56,16.0,8.0,,1016.1,300.0,11.5,29.91,70.18,10.0,2.9,,19.0,M,,,GNR,1069213,2024-01-06 01:00:00+00:00,8940.0,6.43,,
250309,2024-01-06 02:00:00+00:00,0.0,2024-01-06 01:56,16.0,9.0,,1015.8,290.0,5.75,29.91,73.41,5.0,7.39,,,M,,,GNR,1069217,2024-01-06 02:00:00+00:00,8990.0,6.45,,
250310,2024-01-06 03:00:00+00:00,0.0,2024-01-06 02:56,17.0,11.0,,1015.3,310.0,9.2,29.9,76.87,8.0,5.64,,18.0,M,,,GNR,1069221,2024-01-06 03:00:00+00:00,8940.0,6.43,,
250311,2024-01-06 04:00:00+00:00,0.0,2024-01-06 03:56,19.0,13.0,,1015.4,290.0,4.6,29.9,77.06,4.0,12.24,,,M,,,GNR,1069225,2024-01-06 04:00:00+00:00,4660.0,4.66,,
250312,2024-01-06 05:00:00+00:00,0.0,2024-01-06 04:56,20.0,14.0,,1015.6,290.0,8.05,29.91,77.16,7.0,10.15,,,M,,,GNR,1069229,2024-01-06 05:00:00+00:00,3620.0,4.17,,
250313,2024-01-06 06:00:00+00:00,0.0,2024-01-06 05:56,21.0,16.0,,1016.1,300.0,11.5,29.93,80.69,10.0,9.17,,17.0,M,,,GNR,1069233,2024-01-06 06:00:00+00:00,3600.0,4.16,,
250314,2024-01-06 07:00:00+00:00,0.0,2024-01-06 06:56,20.0,15.0,,1017.4,330.0,13.8,29.96,80.6,12.0,6.73,,21.0,M,,,GNR,1069237,2024-01-06 07:00:00+00:00,3600.0,4.16,,
250315,2024-01-06 08:00:00+00:00,0.0,2024-01-06 07:56,17.0,9.0,,1018.8,320.0,18.4,30.0,70.3,16.0,0.87,,27.0,M,30.0,,GNR,1069241,2024-01-06 08:00:00+00:00,3600.0,4.16,,
250316,2024-01-06 09:00:00+00:00,0.0,2024-01-06 08:56,14.0,4.0,,1019.8,330.0,19.55,30.03,63.82,17.0,-3.51,,28.0,M,28.0,,GNR,1069245,2024-01-06 09:00:00+00:00,3600.0,4.16,,
250317,2024-01-06 10:00:00+00:00,0.0,2024-01-06 09:56,12.0,4.0,,1021.3,320.0,13.8,30.07,69.7,12.0,-3.45,,21.0,M,28.0,,GNR,1069249,2024-01-06 10:00:00+00:00,3600.0,4.16,,
250318,2024-01-06 11:00:00+00:00,0.0,2024-01-06 10:56,11.0,3.0,,1022.4,350.0,9.2,30.1,69.58,8.0,-1.76,,18.0,M,,,GNR,1069253,2024-01-06 11:00:00+00:00,3580.0,4.15,,
250319,2024-01-06 12:00:00+00:00,0.0,2024-01-06 11:56,9.0,2.0,,1023.5,350.0,5.75,30.13,72.64,5.0,-0.92,,,M,,,GNR,1069257,2024-01-06 12:00:00+00:00,3580.0,4.15,,
250320,2024-01-06 13:00:00+00:00,0.0,2024-01-06 12:56,9.0,0.0,,1024.2,350.0,10.35,30.15,66.16,9.0,-5.09,,,M,,,GNR,1069261,2024-01-06 13:00:00+00:00,3580.0,4.15,,
250321,2024-01-06 14:00:00+00:00,0.0,2024-01-06 13:56,9.0,-1.0,,1025.2,350.0,9.2,30.18,63.12,8.0,-4.22,,,M,,,GNR,1069265,2024-01-06 14:00:00+00:00,3560.0,4.14,,
250322,2024-01-06 15:00:00+00:00,0.0,2024-01-06 14:56,10.0,-1.0,,1025.0,360.0,6.9,30.18,60.36,6.0,-0.97,,,M,,,GNR,1069269,2024-01-06 15:00:00+00:00,3580.0,4.15,,
250323,2024-01-06 16:00:00+00:00,0.0,2024-01-06 15:56,10.0,-1.0,,1024.7,330.0,6.9,30.17,60.36,6.0,-0.97,,,M,,,GNR,1069273,2024-01-06 16:00:00+00:00,3580.0,4.15,,
250324,2024-01-06 17:00:00+00:00,0.0,2024-01-06 16:56,11.0,-1.0,,1023.7,320.0,6.9,30.15,57.72,6.0,0.24,,,M,,,GNR,1069277,2024-01-06 17:00:00+00:00,3540.0,4.13,,
250325,2024-01-06 18:00:00+00:00,0.0,2024-01-06 17:56,13.0,1.0,,1022.9,350.0,6.9,30.12,58.03,6.0,2.65,,,M,,,GNR,1069281,2024-01-06 18:00:00+00:00,3560.0,4.14,,
250326,2024-01-06 19:00:00+00:00,0.0,2024-01-06 18:56,13.0,1.0,,1023.4,340.0,4.6,30.14,58.03,4.0,5.23,,,M,,,GNR,1069285,2024-01-06 19:00:00+00:00,3540.0,4.13,,
250327,2024-01-06 20:00:00+00:00,0.0,2024-01-06 19:56,13.0,2.0,,1023.0,360.0,4.6,30.12,60.8,4.0,5.23,,,M,,,GNR,1069289,2024-01-06 20:00:00+00:00,3520.0,4.12,,
250328,2024-01-06 21:00:00+00:00,0.0,2024-01-06 20:56,13.0,2.0,,1022.4,360.0,3.45,30.1,60.8,3.0,6.97,,,M,,,GNR,1069293,2024-01-06 21:00:00+00:00,3520.0,4.12,,
250329,2024-01-06 22:00:00+00:00,0.0,2024-01-06 21:56,13.0,4.0,,1021.8,70.0,4.6,30.08,66.69,4.0,5.23,,,M,,,GNR,1069297,2024-01-06 22:00:00+00:00,3520.0,4.12,,
250330,2024-01-06 23:00:00+00:00,0.0,2024-01-06 22:56,12.0,4.0,,1022.8,130.0,3.45,30.11,69.7,3.0,5.82,,,M,,,GNR,1069301,2024-01-06 23:00:00+00:00,8070.0,6.09,,
250331,2024-01-07 00:00:00+00:00,0.0,2024-01-06 23:56,10.0,4.0,,1022.9,130.0,4.6,30.11,76.18,4.0,1.73,,,M,,,GNR,1069305,2024-01-07 00:00:00+00:00,8830.0,6.39,,
250332,2024-01-07 01:00:00+00:00,0.0,2024-01-07 00:56,10.0,3.0,,1022.7,100.0,6.9,30.1,72.75,6.0,-0.97,,,M,,,GNR,1069309,2024-01-07 01:00:00+00:00,8880.0,6.41,,
250333,2024-01-07 02:00:00+00:00,0.0,2024-01-07 01:56,10.0,3.0,,1022.0,120.0,4.6,30.08,72.75,4.0,1.73,,,M,,,GNR,1069313,2024-01-07 02:00:00+00:00,8880.0,6.41,,
250334,2024-01-07 03:00:00+00:00,0.0,2024-01-07 02:56,10.0,4.0,,1021.4,0.0,0.0,30.06,76.18,0.0,10.0,,,M,,,GNR,1069317,2024-01-07 03:00:00+00:00,4660.0,4.66,,
250335,2024-01-07 04:00:00+00:00,0.0,2024-01-07 03:56,10.0,4.0,,1020.9,140.0,4.6,30.05,76.18,4.0,1.73,,,M,,,GNR,1069321,2024-01-07 04:00:00+00:00,3600.0,4.16,,
250336,2024-01-07 05:00:00+00:00,0.0,2024-01-07 04:56,10.0,4.0,,1019.5,120.0,5.75,30.01,76.18,5.0,0.27,,,M,,,GNR,1069325,2024-01-07 05:00:00+00:00,3580.0,4.15,,
250337,2024-01-07 06:00:00+00:00,0.0,2024-01-07 05:56,10.0,2.0,,1018.5,120.0,5.75,29.98,69.45,5.0,0.27,,,M,,,GNR,1069329,2024-01-07 06:00:00+00:00,3580.0,4.15,,
250338,2024-01-07 07:00:00+00:00,0.0,2024-01-07 06:56,10.0,1.0,,1017.7,110.0,8.05,29.96,66.29,7.0,-2.04,,,M,,,GNR,1069333,2024-01-07 07:00:00+00:00,3540.0,4.13,,
250339,2024-01-07 08:00:00+00:00,0.0,2024-01-07 07:56,10.0,1.0,,1016.5,100.0,8.05,29.93,66.29,7.0,-2.04,,,M,,,GNR,1069337,2024-01-07 08:00:00+00:00,3520.0,4.12,,
250340,2024-01-07 09:00:00+00:00,0.0,2024-01-07 08:56,10.0,1.0,,1016.7,130.0,5.75,29.93,66.29,5.0,0.27,,,M,,,GNR,1069341,2024-01-07 09:00:00+00:00,3520.0,4.12,,
250341,2024-01-07 10:00:00+00:00,0.0,2024-01-07 09:56,11.0,1.0,,1016.1,110.0,5.75,29.91,63.4,5.0,1.46,,,M,,,GNR,1069345,2024-01-07 10:00:00+00:00,3520.0,4.12,,
250342,2024-01-07 11:00:00+00:00,0.0,2024-01-07 10:56,12.0,0.0,,1015.5,100.0,8.05,29.9,57.88,7.0,0.4,,,M,,,GNR,1069349,2024-01-07 11:00:00+00:00,3520.0,4.12,,
250343,2024-01-07 12:00:00+00:00,0.0,2024-01-07 11:56,12.0,1.0,,1014.9,120.0,8.05,29.88,60.65,7.0,0.4,,,M,,,GNR,1069353,2024-01-07 12:00:00+00:00,3500.0,4.11,,
250344,2024-01-07 13:00:00+00:00,0.0,2024-01-07 12:56,11.0,2.0,,1014.7,90.0,6.9,29.87,66.43,6.0,0.24,,,M,,,GNR,1069357,2024-01-07 13:00:00+00:00,3520.0,4.12,,
250345,2024-01-07 14:00:00+00:00,0.0,2024-01-07 13:56,13.0,1.0,,1013.4,90.0,4.6,29.84,58.03,4.0,5.23,,,M,,,GNR,1069361,2024-01-07 14:00:00+00:00,3520.0,4.12,,
250346,2024-01-07 15:00:00+00:00,0.0,2024-01-07 14:56,14.0,7.0,,1012.5,100.0,8.05,29.81,73.19,7.0,2.84,,,M,,,GNR,1069365,2024-01-07 15:00:00+00:00,3520.0,4.12,,
250347,2024-01-07 16:00:00+00:00,0.0,2024-01-07 15:56,15.0,10.0,,1011.6,100.0,8.05,29.78,80.19,7.0,4.06,,,M,,,GNR,1069369,2024-01-07 16:00:00+00:00,3520.0,4.12,2024-01-07 16:00:00+00:00,gs://gcp-public-data-sentinel-2/tiles/19/T/DL/S2A_MSIL1C_20240107T154631_N0510_R011_T19TDL_20240107T173948.SAFE
250348,2024-01-07 17:00:00+00:00,0.0,2024-01-07 16:56,17.0,11.0,,1010.5,90.0,8.05,29.75,76.87,7.0,6.5,,,M,,,GNR,1069373,2024-01-07 17:00:00+00:00,3520.0,4.12,,
250349,2024-01-07 18:00:00+00:00,0.25,2024-01-07 17:56,15.0,9.0,,1009.4,90.0,8.05,29.72,76.68,7.0,4.06,,16.0,M,,,GNR,1069377,2024-01-07 18:00:00+00:00,3520.0,4.12,,
250350,2024-01-07 19:00:00+00:00,0.25,2024-01-07 18:56,15.0,11.0,,1008.6,40.0,5.75,29.7,83.84,5.0,6.21,,,M,,,GNR,1069381,2024-01-07 19:00:00+00:00,3520.0,4.12,,
250351,2024-01-07 20:00:00+00:00,0.51,2024-01-07 19:56,15.0,11.0,,1008.1,40.0,9.2,29.68,83.84,8.0,3.17,,,M,,,GNR,1069385,2024-01-07 20:00:00+00:00,3520.0,4.12,,
250352,2024-01-07 21:00:00+00:00,0.76,2024-01-07 20:56,14.0,10.0,,1007.9,50.0,9.2,29.68,83.77,8.0,1.94,,,M,,,GNR,1069389,2024-01-07 21:00:00+00:00,3520.0,4.12,,
250353,2024-01-07 22:00:00+00:00,0.25,2024-01-07 21:56,14.0,10.0,,1007.8,20.0,5.75,29.68,83.77,5.0,5.02,,,M,,,GNR,1069393,2024-01-07 22:00:00+00:00,3500.0,4.11,,
250354,2024-01-07 23:00:00+00:00,0.51,2024-01-07 22:56,14.0,11.0,,1008.6,0.0,0.0,29.7,87.59,0.0,14.0,,,M,,,GNR,1069397,2024-01-07 23:00:00+00:00,7890.0,6.02,,
250355,2024-01-08 00:00:00+00:00,0.25,2024-01-07 23:56,14.0,10.0,,1009.1,10.0,4.6,29.71,83.77,4.0,6.4,,,M,,,GNR,1069401,2024-01-08 00:00:00+00:00,8830.0,6.39,,
250356,2024-01-08 01:00:00+00:00,0.25,2024-01-08 00:56,13.0,9.0,,1009.8,350.0,9.2,29.73,83.7,8.0,0.71,,,M,,,GNR,1069405,2024-01-08 01:00:00+00:00,8830.0,6.39,,
250357,2024-01-08 02:00:00+00:00,0.25,2024-01-08 01:56,13.0,9.0,,1010.0,330.0,8.05,29.74,83.7,7.0,1.62,,,M,,,GNR,1069409,2024-01-08 02:00:00+00:00,8860.0,6.4,,
250358,2024-01-08 03:00:00+00:00,0.0,2024-01-08 02:56,13.0,9.0,,1010.5,350.0,5.75,29.75,83.7,5.0,3.83,,,M,,,GNR,1069413,2024-01-08 03:00:00+00:00,4810.0,4.73,,
250359,2024-01-08 04:00:00+00:00,0.25,2024-01-08 03:56,13.0,9.0,,1011.0,310.0,6.9,29.77,83.7,6.0,2.65,,,M,,,GNR,1069417,2024-01-08 04:00:00+00:00,3500.0,4.11,,
250360,2024-01-08 05:00:00+00:00,0.0,2024-01-08 04:56,12.0,9.0,,1011.3,320.0,8.05,29.78,87.48,7.0,0.4,,,M,,,GNR,1069421,2024-01-08 05:00:00+00:00,3500.0,4.11,,
250361,2024-01-08 06:00:00+00:00,0.0,2024-01-08 05:56,12.0,9.0,,1012.1,330.0,9.2,29.8,87.48,8.0,-0.52,,,M,,,GNR,1069425,2024-01-08 06:00:00+00:00,3480.0,4.1,,
250362,2024-01-08 07:00:00+00:00,0.0,2024-01-08 06:56,12.0,9.0,,1012.8,320.0,9.2,29.82,87.48,8.0,-0.52,,,M,,,GNR,1069429,2024-01-08 07:00:00+00:00,3480.0,4.1,,
250363,2024-01-08 08:00:00+00:00,0.0,2024-01-08 07:56,12.0,9.0,,1013.3,330.0,6.9,29.83,87.48,6.0,1.44,,,M,,,GNR,1069433,2024-01-08 08:00:00+00:00,3480.0,4.1,,
250364,2024-01-08 09:00:00+00:00,0.0,2024-01-08 08:56,12.0,9.0,,1014.1,320.0,9.2,29.86,87.48,8.0,-0.52,,,M,,,GNR,1069437,2024-01-08 09:00:00+00:00,3480.0,4.1,,
250365,2024-01-08 10:00:00+00:00,0.25,2024-01-08 09:56,13.0,10.0,,1015.2,330.0,9.2,29.89,87.54,8.0,0.71,,,M,,,GNR,1069441,2024-01-08 10:00:00+00:00,3480.0,4.1,,
250366,2024-01-08 11:00:00+00:00,0.25,2024-01-08 10:56,13.0,10.0,,1016.3,310.0,4.6,29.92,87.54,4.0,5.23,,,M,,,GNR,1069445,2024-01-08 11:00:00+00:00,3460.0,4.09,,
250367,2024-01-08 12:00:00+00:00,0.0,2024-01-08 11:56,14.0,10.0,,1016.9,320.0,11.5,29.94,83.77,10.0,0.4,,19.0,M,,,GNR,1069449,2024-01-08 12:00:00+00:00,3460.0,4.09,,
250368,2024-01-08 13:00:00+00:00,0.0,2024-01-08 12:56,14.0,10.0,,1018.2,320.0,12.65,29.98,83.77,11.0,-0.28,,,M,,,GNR,1069453,2024-01-08 13:00:00+00:00,3460.0,4.09,,
250369,2024-01-08 14:00:00+00:00,0.0,2024-01-08 13:56,15.0,10.0,,1019.5,320.0,12.65,30.02,80.19,11.0,0.98,,20.0,M,,,GNR,1069457,2024-01-08 14:00:00+00:00,3150.0,3.93,,
250370,2024-01-08 15:00:00+00:00,0.0,2024-01-08 14:56,17.0,11.0,,1020.3,320.0,11.5,30.04,76.87,10.0,4.16,,19.0,M,,,GNR,1069461,2024-01-08 15:00:00+00:00,3110.0,3.91,,
250371,2024-01-08 16:00:00+00:00,0.0,2024-01-08 15:56,18.0,11.0,,1020.5,310.0,16.1,30.05,73.62,14.0,3.12,,26.0,M,26.0,,GNR,1069465,2024-01-08 16:00:00+00:00,3090.0,3.9,,
250372,2024-01-08 17:00:00+00:00,0.0,2024-01-08 16:56,20.0,12.0,,1020.2,300.0,12.65,30.04,70.65,11.0,7.3,,25.0,M,26.0,,GNR,1069469,2024-01-08 17:00:00+00:00,3090.0,3.9,,
250373,2024-01-08 18:00:00+00:00,0.0,2024-01-08 17:56,20.0,13.0,,1020.7,310.0,13.8,30.06,73.84,12.0,6.73,,25.0,M,32.0,,GNR,1069473,2024-01-08 18:00:00+00:00,3090.0,3.9,,
250374,2024-01-08 19:00:00+00:00,0.0,2024-01-08 18:56,20.0,13.0,,1020.9,330.0,20.7,30.06,73.84,18.0,3.95,,27.0,M,31.0,,GNR,1069477,2024-01-08 19:00:00+00:00,3090.0,3.9,,
250375,2024-01-08 20:00:00+00:00,0.0,2024-01-08 19:56,22.0,14.0,,1021.1,330.0,18.4,30.07,70.88,16.0,7.38,,24.0,M,29.0,,GNR,1069481,2024-01-08 20:00:00+00:00,3090.0,3.9,,
250376,2024-01-08 21:00:00+00:00,0.0,2024-01-08 20:56,20.0,13.0,,1022.8,310.0,14.95,30.12,73.84,13.0,6.19,,24.0,M,,,GNR,1069485,2024-01-08 21:00:00+00:00,3090.0,3.9,,
250377,2024-01-08 22:00:00+00:00,0.0,2024-01-08 21:56,20.0,14.0,,1023.5,310.0,12.65,30.14,77.16,11.0,7.3,,25.0,M,,,GNR,1069489,2024-01-08 22:00:00+00:00,3090.0,3.9,,
250378,2024-01-08 23:00:00+00:00,0.0,2024-01-08 22:56,18.0,13.0,,1023.8,310.0,12.65,30.15,80.44,11.0,4.77,,18.0,M,,,GNR,1069493,2024-01-08 23:00:00+00:00,7840.0,6.0,,
250379,2024-01-09 00:00:00+00:00,0.0,2024-01-08 23:56,18.0,13.0,,1025.6,320.0,12.65,30.2,80.44,11.0,4.77,,,M,,,GNR,1069497,2024-01-09 00:00:00+00:00,8830.0,6.39,,
250380,2024-01-09 01:00:00+00:00,0.0,2024-01-09 00:56,18.0,13.0,,1025.8,320.0,14.95,30.21,80.44,13.0,3.63,,24.0,M,,,GNR,1069501,2024-01-09 01:00:00+00:00,8910.0,6.42,,
250381,2024-01-09 02:00:00+00:00,0.0,2024-01-09 01:56,18.0,13.0,,1025.9,310.0,12.65,30.21,80.44,11.0,4.77,,24.0,M,,,GNR,1069505,2024-01-09 02:00:00+00:00,8880.0,6.41,,
250382,2024-01-09 03:00:00+00:00,0.0,2024-01-09 02:56,19.0,14.0,,1025.5,320.0,14.95,30.2,80.52,13.0,4.91,,23.0,M,,,GNR,1069509,2024-01-09 03:00:00+00:00,8960.0,6.44,,
250383,2024-01-09 04:00:00+00:00,0.0,2024-01-09 03:56,19.0,14.0,,1026.0,310.0,13.8,30.22,80.52,12.0,5.46,,23.0,M,,,GNR,1069513,2024-01-09 04:00:00+00:00,4830.0,4.74,,
250384,2024-01-09 05:00:00+00:00,0.0,2024-01-09 04:56,19.0,14.0,,1025.4,310.0,11.5,30.2,80.52,10.0,6.67,,22.0,M,,,GNR,1069517,2024-01-09 05:00:00+00:00,3500.0,4.11,,
250385,2024-01-09 06:00:00+00:00,0.0,2024-01-09 05:56,19.0,13.0,,1025.7,310.0,16.1,30.21,77.06,14.0,4.41,,26.0,M,26.0,,GNR,1069521,2024-01-09 06:00:00+00:00,3460.0,4.09,,
250386,2024-01-09 07:00:00+00:00,0.0,2024-01-09 06:56,18.0,13.0,,1027.4,310.0,8.05,30.26,80.44,7.0,7.71,,16.0,M,,,GNR,1069525,2024-01-09 07:00:00+00:00,3460.0,4.09,,
250387,2024-01-09 08:00:00+00:00,0.0,2024-01-09 07:56,18.0,12.0,,1027.8,310.0,16.1,30.27,76.97,14.0,3.12,,29.0,M,29.0,,GNR,1069529,2024-01-09 08:00:00+00:00,3460.0,4.09,,
250388,2024-01-09 09:00:00+00:00,0.0,2024-01-09 08:56,16.0,12.0,,1028.2,310.0,9.2,30.28,83.91,8.0,4.4,,18.0,M,27.0,,GNR,1069533,2024-01-09 09:00:00+00:00,3460.0,4.09,,
250389,2024-01-09 10:00:00+00:00,0.0,2024-01-09 09:56,15.0,11.0,,1028.3,310.0,8.05,30.28,83.84,7.0,4.06,,,M,,,GNR,1069537,2024-01-09 10:00:00+00:00,3440.0,4.08,,
250390,2024-01-09 11:00:00+00:00,0.0,2024-01-09 10:56,15.0,10.0,,1028.3,330.0,11.5,30.28,80.19,10.0,1.65,,,M,,,GNR,1069541,2024-01-09 11:00:00+00:00,3460.0,4.09,,
250391,2024-01-09 12:00:00+00:00,0.0,2024-01-09 11:56,15.0,9.0,,1028.6,350.0,11.5,30.29,76.68,10.0,1.65,,,M,,,GNR,1069545,2024-01-09 12:00:00+00:00,3440.0,4.08,,
250392,2024-01-09 13:00:00+00:00,0.0,2024-01-09 12:56,15.0,10.0,,1028.5,350.0,9.2,30.29,80.19,8.0,3.17,,,M,,,GNR,1069549,2024-01-09 13:00:00+00:00,3440.0,4.08,,
250393,2024-01-09 14:00:00+00:00,0.0,2024-01-09 13:56,16.0,10.0,,1029.1,,5.75,30.3,76.77,5.0,7.39,,,M,,,GNR,1069553,2024-01-09 14:00:00+00:00,3440.0,4.08,,
250394,2024-01-09 15:00:00+00:00,0.0,2024-01-09 14:56,18.0,10.0,,1028.1,0.0,0.0,30.28,70.41,0.0,18.0,,,M,,,GNR,1069557,2024-01-09 15:00:00+00:00,3460.0,4.09,,
250395,2024-01-09 16:00:00+00:00,0.0,2024-01-09 15:56,21.0,11.0,,1027.3,0.0,0.0,30.26,64.77,0.0,21.0,,,M,,,GNR,1069561,2024-01-09 16:00:00+00:00,3440.0,4.08,2024-01-09 16:00:00+00:00,gs://gcp-public-data-sentinel-2/tiles/19/T/DL/S2B_MSIL1C_20240109T153619_N0510_R111_T19TDL_20240109T191547.SAFE
250396,2024-01-09 16:00:00+00:00,0.0,2024-01-09 15:56,21.0,11.0,,1027.3,0.0,0.0,30.26,64.77,0.0,21.0,,,M,,,GNR,1069561,2024-01-09 16:00:00+00:00,3440.0,4.08,2024-01-09 16:00:00+00:00,gs://gcp-public-data-sentinel-2/tiles/19/T/DL/S2B_MSIL1C_20240109T153619_N0510_R111_T19TDL_20240109T172601.SAFE
250397,2024-01-09 17:00:00+00:00,0.0,2024-01-09 16:56,21.0,11.0,,1026.2,0.0,0.0,30.22,64.77,0.0,21.0,,,M,,,GNR,1069565,2024-01-09 17:00:00+00:00,3460.0,4.09,,
250398,2024-01-09 18:00:00+00:00,0.0,2024-01-09 17:56,23.0,12.0,,1025.7,,4.6,30.21,62.23,4.0,16.91,,,M,,,GNR,1069569,2024-01-09 18:00:00+00:00,3460.0,4.09,,
250399,2024-01-09 19:00:00+00:00,0.0,2024-01-09 18:56,23.0,13.0,,1025.5,190.0,4.6,30.21,65.03,4.0,16.91,,,M,,,GNR,1069573,2024-01-09 19:00:00+00:00,3480.0,4.1,,
250400,2024-01-09 20:00:00+00:00,0.0,2024-01-09 19:56,23.0,14.0,,1025.0,140.0,8.05,30.19,67.96,7.0,13.81,,,M,,,GNR,1069577,2024-01-09 20:00:00+00:00,3460.0,4.09,,
250401,2024-01-09 21:00:00+00:00,0.0,2024-01-09 20:56,22.0,14.0,,1024.6,130.0,6.9,30.18,70.88,6.0,13.49,,,M,,,GNR,1069581,2024-01-09 21:00:00+00:00,3460.0,4.09,,
250402,2024-01-09 22:00:00+00:00,0.0,2024-01-09 21:56,21.0,14.0,,1022.9,130.0,11.5,30.12,73.94,10.0,9.17,,,M,,,GNR,1069585,2024-01-09 22:00:00+00:00,3460.0,4.09,,
250403,2024-01-09 23:00:00+00:00,0.0,2024-01-09 22:56,21.0,13.0,,1022.0,140.0,11.5,30.1,70.76,10.0,9.17,,18.0,M,,,GNR,1069589,2024-01-09 23:00:00+00:00,7890.0,6.02,,
250404,2024-01-10 00:00:00+00:00,0.0,2024-01-09 23:56,21.0,13.0,,1021.3,130.0,13.8,30.08,70.76,12.0,8.0,,19.0,M,,,GNR,1069593,2024-01-10 00:00:00+00:00,8990.0,6.45,,
250405,2024-01-10 01:00:00+00:00,0.0,2024-01-10 00:56,20.0,13.0,,1020.7,130.0,11.5,30.06,73.84,10.0,7.92,,19.0,M,,,GNR,1069597,2024-01-10 01:00:00+00:00,9010.0,6.46,,
250406,2024-01-10 02:00:00+00:00,0.0,2024-01-10 01:56,20.0,14.0,,1018.2,130.0,14.95,29.99,77.16,13.0,6.19,,25.0,M,28.0,,GNR,1069601,2024-01-10 02:00:00+00:00,4790.0,4.72,,
250407,2024-01-10 03:00:00+00:00,0.51,2024-01-10 02:56,20.0,17.0,,1016.8,130.0,14.95,29.95,87.92,13.0,6.19,,26.0,M,26.0,,GNR,1069605,2024-01-10 03:00:00+00:00,3500.0,4.11,,
250408,2024-01-10 04:00:00+00:00,1.78,2024-01-10 03:56,22.0,19.0,,1015.7,130.0,17.25,29.92,88.02,15.0,7.82,,27.0,M,27.0,,GNR,1069609,2024-01-10 04:00:00+00:00,3130.0,3.92,,
250409,2024-01-10 05:00:00+00:00,3.81,2024-01-10 04:56,24.0,21.0,,1012.2,130.0,20.7,29.82,88.13,18.0,9.22,,35.0,M,35.0,,GNR,1069613,2024-01-10 05:00:00+00:00,3110.0,3.91,,
250410,2024-01-10 06:00:00+00:00,1.27,2024-01-10 05:56,26.0,23.0,,1008.8,130.0,24.15,29.73,88.23,21.0,10.85,,40.0,M,43.0,,GNR,1069617,2024-01-10 06:00:00+00:00,3090.0,3.9,,
250411,2024-01-10 07:00:00+00:00,0.76,2024-01-10 06:56,26.0,24.0,,1006.8,120.0,24.15,29.67,92.01,21.0,10.85,,38.0,M,45.0,,GNR,1069621,2024-01-10 07:00:00+00:00,3070.0,3.89,,
250412,2024-01-10 08:00:00+00:00,1.02,2024-01-10 07:56,26.0,24.0,,1003.9,120.0,27.6,29.59,92.01,24.0,9.96,,44.0,M,44.0,,GNR,1069625,2024-01-10 08:00:00+00:00,3090.0,3.9,,
250413,2024-01-10 09:00:00+00:00,2.03,2024-01-10 08:56,28.0,26.0,,1000.2,120.0,31.05,29.48,92.08,27.0,11.89,,48.0,M,48.0,,GNR,1069629,2024-01-10 09:00:00+00:00,3110.0,3.91,,
250414,2024-01-10 10:00:00+00:00,2.29,2024-01-10 09:56,30.0,27.0,,995.9,120.0,34.5,29.35,88.44,30.0,13.94,,55.0,M,55.0,,GNR,1069633,2024-01-10 10:00:00+00:00,3130.0,3.92,,
250415,2024-01-10 11:00:00+00:00,2.54,2024-01-10 10:56,31.0,29.0,,993.6,120.0,25.3,29.29,92.19,22.0,17.24,,49.0,M,54.0,,GNR,1069637,2024-01-10 11:00:00+00:00,3130.0,3.92,,
250416,2024-01-10 12:00:00+00:00,4.57,2024-01-10 11:56,31.0,29.0,,993.1,130.0,23.0,29.27,92.19,20.0,17.81,,32.0,M,43.0,,GNR,1069641,2024-01-10 12:00:00+00:00,3130.0,3.92,,
250417,2024-01-10 13:00:00+00:00,2.03,2024-01-10 12:56,32.0,31.0,,989.3,110.0,26.45,29.16,96.04,23.0,18.31,,34.0,M,36.0,,GNR,1069645,2024-01-10 13:00:00+00:00,3110.0,3.91,,
250418,2024-01-10 14:00:00+00:00,1.27,2024-01-10 13:56,35.0,32.0,,984.7,110.0,36.8,29.03,88.68,32.0,20.44,,51.0,M,57.0,,GNR,1069649,2024-01-10 14:00:00+00:00,3130.0,3.92,,
250419,2024-01-10 15:00:00+00:00,3.81,2024-01-10 14:56,36.0,35.0,,982.2,120.0,29.9,28.96,96.11,26.0,23.01,,45.0,M,46.0,,GNR,1069653,2024-01-10 15:00:00+00:00,3110.0,3.91,,
250420,2024-01-10 16:00:00+00:00,6.35,2024-01-10 15:56,38.0,37.0,,978.7,120.0,21.85,28.86,96.14,19.0,27.37,,34.0,M,45.0,,GNR,1069657,2024-01-10 16:00:00+00:00,3110.0,3.91,,
250421,2024-01-10 17:00:00+00:00,5.84,2024-01-10 16:56,40.0,40.0,,977.0,130.0,16.1,28.81,100.0,14.0,31.47,,25.0,M,36.0,,GNR,1069661,2024-01-10 17:00:00+00:00,3130.0,3.92,,
250422,2024-01-10 18:00:00+00:00,3.05,2024-01-10 17:56,40.0,39.0,,978.6,,3.45,28.86,96.18,3.0,37.83,,,M,,,GNR,1069665,2024-01-10 18:00:00+00:00,3150.0,3.93,,
250423,2024-01-10 19:00:00+00:00,0.25,2024-01-10 18:56,38.0,35.0,,980.3,300.0,9.2,28.91,88.83,8.0,31.5,,18.0,M,,,GNR,1069669,2024-01-10 19:00:00+00:00,3130.0,3.92,,
250424,2024-01-10 20:00:00+00:00,0.0,2024-01-10 19:56,39.0,34.0,,981.6,,,28.95,82.08,,,,,M,,,GNR,1069673,2024-01-10 20:00:00+00:00,3130.0,3.92,,
250425,2024-01-10 21:00:00+00:00,0.0,2024-01-10 20:56,38.0,32.0,,983.7,280.0,9.2,29.01,78.77,8.0,31.5,,21.0,M,,,GNR,1069677,2024-01-10 21:00:00+00:00,3130.0,3.92,,
250426,2024-01-10 22:00:00+00:00,0.0,2024-01-10 21:56,37.0,30.0,,984.9,290.0,11.5,29.05,75.56,10.0,29.24,,20.0,M,26.0,,GNR,1069681,2024-01-10 22:00:00+00:00,3980.0,4.34,,
250427,2024-01-10 23:00:00+00:00,0.0,2024-01-10 22:56,37.0,30.0,,986.2,,6.9,29.08,75.56,6.0,31.55,,18.0,M,27.0,,GNR,1069685,2024-01-10 23:00:00+00:00,4470.0,4.57,,
250428,2024-01-11 00:00:00+00:00,0.0,2024-01-10 23:56,34.0,30.0,,988.2,200.0,3.45,29.14,85.11,3.0,30.97,,,M,,,GNR,1069689,2024-01-11 00:00:00+00:00,8500.0,6.26,,
250429,2024-01-11 01:00:00+00:00,0.0,2024-01-11 00:56,34.0,31.0,,989.0,0.0,0.0,29.16,88.63,0.0,34.0,,,M,,,GNR,1069693,2024-01-11 01:00:00+00:00,8960.0,6.44,,
250430,2024-01-11 02:00:00+00:00,0.0,2024-01-11 01:56,36.0,30.0,,989.9,,,29.19,78.6,,,,,M,,,GNR,1069697,2024-01-11 02:00:00+00:00,4750.0,4.7,,
250431,2024-01-11 03:00:00+00:00,0.0,2024-01-11 02:56,36.0,30.0,,991.2,0.0,0.0,29.23,78.6,0.0,36.0,,,M,,,GNR,1069701,2024-01-11 03:00:00+00:00,3200.0,3.96,,
250432,2024-01-11 04:00:00+00:00,0.0,2024-01-11 03:56,36.0,29.0,,992.1,310.0,5.75,29.26,75.46,5.0,31.15,,,M,,,GNR,1069705,2024-01-11 04:00:00+00:00,3180.0,3.95,,
250433,2024-01-11 05:00:00+00:00,0.0,2024-01-11 04:56,35.0,29.0,,992.9,0.0,0.0,29.29,78.51,0.0,35.0,,,M,,,GNR,1069709,2024-01-11 05:00:00+00:00,3170.0,3.94,,
250434,2024-01-11 06:00:00+00:00,0.0,2024-01-11 05:56,34.0,27.0,,993.7,,6.9,29.31,75.26,6.0,27.94,,,M,,,GNR,1069713,2024-01-11 06:00:00+00:00,3180.0,3.95,,
250435,2024-01-11 07:00:00+00:00,0.0,2024-01-11 06:56,34.0,27.0,,995.4,,3.45,29.36,75.26,3.0,30.97,,,M,,,GNR,1069717,2024-01-11 07:00:00+00:00,3130.0,3.92,,
250436,2024-01-11 08:00:00+00:00,0.0,2024-01-11 07:56,33.0,26.0,,996.3,,5.75,29.38,75.17,5.0,27.58,,,M,,,GNR,1069721,2024-01-11 08:00:00+00:00,2150.0,3.37,,
250437,2024-01-11 09:00:00+00:00,0.0,2024-01-11 08:56,32.0,25.0,,996.5,,4.6,29.39,75.07,4.0,27.42,,,M,,,GNR,1069725,2024-01-11 09:00:00+00:00,1960.0,3.25,,
250438,2024-01-11 10:00:00+00:00,0.0,2024-01-11 09:56,32.0,24.0,,997.7,,4.6,29.42,72.0,4.0,27.42,,,M,,,GNR,1069729,2024-01-11 10:00:00+00:00,1950.0,3.24,,
250439,2024-01-11 11:00:00+00:00,0.0,2024-01-11 10:56,31.0,23.0,,999.0,300.0,9.2,29.46,71.89,8.0,22.88,,,M,,,GNR,1069733,2024-01-11 11:00:00+00:00,1960.0,3.25,,
250440,2024-01-11 12:00:00+00:00,0.0,2024-01-11 11:56,29.0,21.0,,999.9,,4.6,29.48,71.67,4.0,23.92,,17.0,M,,,GNR,1069737,2024-01-11 12:00:00+00:00,1950.0,3.24,,
250441,2024-01-11 13:00:00+00:00,0.0,2024-01-11 12:56,28.0,20.0,,1001.5,280.0,9.2,29.52,71.56,8.0,19.19,,15.0,M,,,GNR,1069741,2024-01-11 13:00:00+00:00,1950.0,3.24,,
250442,2024-01-11 14:00:00+00:00,0.0,2024-01-11 13:56,26.0,19.0,,1002.7,310.0,6.9,29.56,74.46,6.0,18.3,,,M,,,GNR,1069745,2024-01-11 14:00:00+00:00,1950.0,3.24,,
250443,2024-01-11 15:00:00+00:00,0.0,2024-01-11 14:56,27.0,18.0,,1003.3,320.0,6.9,29.58,68.45,6.0,19.51,,,M,,,GNR,1069749,2024-01-11 15:00:00+00:00,1960.0,3.25,,
250444,2024-01-11 16:00:00+00:00,0.0,2024-01-11 15:56,29.0,18.0,,1003.3,290.0,11.5,29.58,63.05,10.0,19.21,,20.0,M,,,GNR,1069753,2024-01-11 16:00:00+00:00,8880.0,6.41,,
250445,2024-01-11 17:00:00+00:00,0.0,2024-01-11 16:56,28.0,17.0,,1002.9,300.0,9.2,29.57,62.91,8.0,19.19,,15.0,M,,,GNR,1069757,2024-01-11 17:00:00+00:00,4320.0,4.5,,
250446,2024-01-11 18:00:00+00:00,0.0,2024-01-11 17:56,28.0,17.0,,1003.2,300.0,9.2,29.58,62.91,8.0,19.19,,,M,,,GNR,1069761,2024-01-11 18:00:00+00:00,2170.0,3.38,,
250447,2024-01-11 19:00:00+00:00,0.0,2024-01-11 18:56,27.0,17.0,,1003.3,,3.45,29.58,65.56,3.0,22.97,,,M,,,GNR,1069765,2024-01-11 19:00:00+00:00,1990.0,3.27,,
250448,2024-01-11 20:00:00+00:00,0.0,2024-01-11 19:56,27.0,17.0,,1004.3,290.0,4.6,29.61,65.56,4.0,21.58,,,M,,,GNR,1069769,2024-01-11 20:00:00+00:00,1980.0,3.26,,
250449,2024-01-11 21:00:00+00:00,0.0,2024-01-11 20:56,26.0,17.0,,1005.2,280.0,9.2,29.63,68.32,8.0,16.72,,,M,,,GNR,1069773,2024-01-11 21:00:00+00:00,1980.0,3.26,,
250450,2024-01-11 22:00:00+00:00,0.0,2024-01-11 21:56,26.0,18.0,,1005.0,290.0,5.75,29.63,71.33,5.0,19.27,,,M,,,GNR,1069777,2024-01-11 22:00:00+00:00,1960.0,3.25,,
250451,2024-01-11 23:00:00+00:00,0.0,2024-01-11 22:56,25.0,17.0,,1005.9,310.0,11.5,29.65,71.22,10.0,14.19,,19.0,M,,,GNR,1069781,2024-01-11 23:00:00+00:00,6560.0,5.48,,
250452,2024-01-12 00:00:00+00:00,0.0,2024-01-11 23:56,25.0,18.0,,1006.9,300.0,8.05,29.67,74.36,7.0,16.25,,,M,,,GNR,1069785,2024-01-12 00:00:00+00:00,8990.0,6.45,,
250453,2024-01-12 01:00:00+00:00,0.0,2024-01-12 00:56,24.0,20.0,,1007.5,320.0,9.2,29.69,84.46,8.0,14.26,,,M,,,GNR,1069789,2024-01-12 01:00:00+00:00,9060.0,6.48,,
250454,2024-01-12 02:00:00+00:00,0.0,2024-01-12 01:56,23.0,19.0,,1008.0,310.0,8.05,29.7,84.39,7.0,13.81,,,M,,,GNR,1069793,2024-01-12 02:00:00+00:00,9060.0,6.48,,
250455,2024-01-12 03:00:00+00:00,0.0,2024-01-12 02:56,23.0,18.0,,1008.4,310.0,8.05,29.72,80.85,7.0,13.81,,14.0,M,,,GNR,1069797,2024-01-12 03:00:00+00:00,4940.0,4.79,,
250456,2024-01-12 04:00:00+00:00,0.0,2024-01-12 03:56,23.0,18.0,,1009.1,310.0,6.9,29.74,80.85,6.0,14.69,,,M,,,GNR,1069801,2024-01-12 04:00:00+00:00,2250.0,3.43,,
250457,2024-01-12 05:00:00+00:00,0.0,2024-01-12 04:56,22.0,18.0,,1009.7,,6.9,29.75,84.33,6.0,13.49,,,M,,,GNR,1069805,2024-01-12 05:00:00+00:00,1990.0,3.27,,
250458,2024-01-12 06:00:00+00:00,0.0,2024-01-12 05:56,22.0,16.0,,1010.2,,6.9,29.77,77.34,6.0,13.49,,15.0,M,,,GNR,1069809,2024-01-12 06:00:00+00:00,1980.0,3.26,,
250459,2024-01-12 07:00:00+00:00,0.0,2024-01-12 06:56,21.0,15.0,,1011.7,310.0,13.8,29.81,77.25,12.0,8.0,,21.0,M,,,GNR,1069813,2024-01-12 07:00:00+00:00,1960.0,3.25,,
250460,2024-01-12 08:00:00+00:00,0.0,2024-01-12 07:56,21.0,15.0,,1012.7,310.0,13.8,29.84,77.25,12.0,8.0,,22.0,M,,,GNR,1069817,2024-01-12 08:00:00+00:00,1960.0,3.25,,
250461,2024-01-12 09:00:00+00:00,0.0,2024-01-12 08:56,20.0,14.0,,1013.3,300.0,9.2,29.86,77.16,8.0,9.33,,22.0,M,26.0,,GNR,1069821,2024-01-12 09:00:00+00:00,1950.0,3.24,,
250462,2024-01-12 10:00:00+00:00,0.0,2024-01-12 09:56,19.0,13.0,,1013.8,310.0,12.65,29.87,77.06,11.0,6.04,,22.0,M,,,GNR,1069825,2024-01-12 10:00:00+00:00,1950.0,3.24,,
250463,2024-01-12 11:00:00+00:00,0.0,2024-01-12 10:56,19.0,12.0,,1015.3,310.0,14.95,29.91,73.73,13.0,4.91,,26.0,M,27.0,,GNR,1069829,2024-01-12 11:00:00+00:00,1950.0,3.24,,
250464,2024-01-12 12:00:00+00:00,0.0,2024-01-12 11:56,17.0,11.0,,1016.6,310.0,11.5,29.95,76.87,10.0,4.16,,19.0,M,,,GNR,1069833,2024-01-12 12:00:00+00:00,1950.0,3.24,,
250465,2024-01-12 13:00:00+00:00,0.0,2024-01-12 12:56,17.0,11.0,,1017.1,310.0,12.65,29.96,76.87,11.0,3.51,,20.0,M,,,GNR,1069837,2024-01-12 13:00:00+00:00,1930.0,3.23,,
250466,2024-01-12 14:00:00+00:00,0.0,2024-01-12 13:56,19.0,10.0,,1019.0,300.0,9.2,30.02,67.46,8.0,8.1,,20.0,M,,,GNR,1069841,2024-01-12 14:00:00+00:00,1930.0,3.23,,
250467,2024-01-12 15:00:00+00:00,0.0,2024-01-12 14:56,19.0,9.0,,1020.2,320.0,17.25,30.05,64.5,15.0,3.93,,21.0,M,26.0,,GNR,1069845,2024-01-12 15:00:00+00:00,1930.0,3.23,,
250468,2024-01-12 16:00:00+00:00,0.0,2024-01-12 15:56,20.0,8.0,,1020.1,310.0,13.8,30.05,59.08,12.0,6.73,,25.0,M,27.0,,GNR,1069849,2024-01-12 16:00:00+00:00,1930.0,3.23,2024-01-12 16:00:00+00:00,gs://gcp-public-data-sentinel-2/tiles/19/T/DL/S2B_MSIL1C_20240112T154619_N0510_R011_T19TDL_20240112T223706.SAFE
250469,2024-01-12 17:00:00+00:00,0.0,2024-01-12 16:56,21.0,7.0,,1019.7,300.0,16.1,30.04,54.12,14.0,6.98,,22.0,M,29.0,,GNR,1069853,2024-01-12 17:00:00+00:00,1930.0,3.23,,
250470,2024-01-12 18:00:00+00:00,0.0,2024-01-12 17:56,23.0,6.0,,1020.4,,6.9,30.06,47.53,6.0,14.69,,20.0,M,,,GNR,1069857,2024-01-12 18:00:00+00:00,1930.0,3.23,,
250471,2024-01-12 19:00:00+00:00,0.0,2024-01-12 18:56,23.0,6.0,,1020.8,,5.75,30.07,47.53,5.0,15.71,,,M,,,GNR,1069861,2024-01-12 19:00:00+00:00,1920.0,3.22,,
250472,2024-01-12 20:00:00+00:00,0.0,2024-01-12 19:56,23.0,6.0,,1020.9,320.0,10.35,30.08,47.53,9.0,12.32,,,M,,,GNR,1069865,2024-01-12 20:00:00+00:00,1920.0,3.22,,
250473,2024-01-12 21:00:00+00:00,0.0,2024-01-12 20:56,21.0,6.0,,1021.0,0.0,0.0,30.08,51.72,0.0,21.0,,,M,,,GNR,1069869,2024-01-12 21:00:00+00:00,1920.0,3.22,,
250474,2024-01-12 22:00:00+00:00,0.0,2024-01-12 21:56,18.0,6.0,,1022.2,0.0,0.0,30.11,58.79,0.0,18.0,,,M,,,GNR,1069873,2024-01-12 22:00:00+00:00,1920.0,3.22,,
250475,2024-01-12 23:00:00+00:00,0.0,2024-01-12 22:56,16.0,5.0,,1022.5,20.0,5.75,30.11,61.23,5.0,7.39,,,M,,,GNR,1069877,2024-01-12 23:00:00+00:00,1920.0,3.22,,
250476,2024-01-13 00:00:00+00:00,0.0,2024-01-12 23:56,16.0,6.0,,1021.3,40.0,8.05,30.07,64.09,7.0,5.28,,,M,,,GNR,1069881,2024-01-13 00:00:00+00:00,5880.0,5.2,,
250477,2024-01-13 01:00:00+00:00,0.0,2024-01-13 00:56,15.0,5.0,,1021.4,30.0,3.45,30.08,63.96,3.0,9.25,,,M,,,GNR,1069885,2024-01-13 01:00:00+00:00,8910.0,6.42,,
250478,2024-01-13 02:00:00+00:00,0.0,2024-01-13 01:56,15.0,6.0,,1020.5,40.0,6.9,30.05,66.95,6.0,5.06,,,M,,,GNR,1069889,2024-01-13 02:00:00+00:00,8910.0,6.42,,
250479,2024-01-13 03:00:00+00:00,0.0,2024-01-13 02:56,14.0,6.0,,1021.6,200.0,3.45,30.08,69.94,3.0,8.11,,,M,,,GNR,1069893,2024-01-13 03:00:00+00:00,4490.0,4.58,,
250480,2024-01-13 04:00:00+00:00,0.0,2024-01-13 03:56,15.0,6.0,,1021.0,130.0,8.05,30.07,66.95,7.0,4.06,,,M,,,GNR,1069897,2024-01-13 04:00:00+00:00,2140.0,3.36,,
250481,2024-01-13 05:00:00+00:00,0.0,2024-01-13 04:56,16.0,7.0,,1019.5,130.0,9.2,30.03,67.07,8.0,4.4,,,M,,,GNR,1069901,2024-01-13 05:00:00+00:00,1930.0,3.23,,
250482,2024-01-13 06:00:00+00:00,0.0,2024-01-13 05:56,15.0,7.0,,1019.9,160.0,5.75,30.04,70.06,5.0,6.21,,,M,,,GNR,1069905,2024-01-13 06:00:00+00:00,1920.0,3.22,,
250483,2024-01-13 07:00:00+00:00,0.0,2024-01-13 06:56,15.0,7.0,,1019.6,130.0,11.5,30.03,70.06,10.0,1.65,,,M,,,GNR,1069909,2024-01-13 07:00:00+00:00,1920.0,3.22,,
250484,2024-01-13 08:00:00+00:00,0.0,2024-01-13 07:56,17.0,7.0,,1018.8,140.0,10.35,30.01,64.23,9.0,4.86,,,M,,,GNR,1069913,2024-01-13 08:00:00+00:00,1920.0,3.22,,
250485,2024-01-13 09:00:00+00:00,0.0,2024-01-13 08:56,19.0,6.0,,1017.6,130.0,14.95,29.98,56.32,13.0,4.91,,20.0,M,,,GNR,1069917,2024-01-13 09:00:00+00:00,1920.0,3.22,,
250486,2024-01-13 10:00:00+00:00,0.25,2024-01-13 09:56,18.0,13.0,,1014.2,110.0,17.25,29.87,80.44,15.0,2.63,,24.0,M,,,GNR,1069921,2024-01-13 10:00:00+00:00,1920.0,3.22,,
250487,2024-01-13 11:00:00+00:00,0.25,2024-01-13 10:56,19.0,15.0,,1013.9,120.0,13.8,29.86,84.12,12.0,5.46,,19.0,M,26.0,,GNR,1069925,2024-01-13 11:00:00+00:00,1920.0,3.22,,
250488,2024-01-13 12:00:00+00:00,0.0,2024-01-13 11:56,22.0,17.0,,1010.2,120.0,24.15,29.76,80.77,21.0,5.52,,31.0,M,32.0,,GNR,1069929,2024-01-13 12:00:00+00:00,1920.0,3.22,,
250489,2024-01-13 13:00:00+00:00,0.0,2024-01-13 12:56,22.0,17.0,,1007.5,120.0,26.45,29.68,80.77,23.0,4.87,,41.0,M,41.0,,GNR,1069933,2024-01-13 13:00:00+00:00,1900.0,3.21,,
250490,2024-01-13 14:00:00+00:00,0.0,2024-01-13 13:56,22.0,15.0,,1005.6,120.0,24.15,29.62,74.05,21.0,5.52,,38.0,M,47.0,,GNR,1069937,2024-01-13 14:00:00+00:00,1900.0,3.21,,
250491,2024-01-13 15:00:00+00:00,0.25,2024-01-13 14:56,22.0,18.0,,1003.0,120.0,26.45,29.54,84.33,23.0,4.87,,45.0,M,47.0,,GNR,1069941,2024-01-13 15:00:00+00:00,1920.0,3.22,,
250492,2024-01-13 16:00:00+00:00,2.03,2024-01-13 15:56,24.0,21.0,,1000.2,110.0,25.3,29.47,88.13,22.0,7.87,,39.0,M,39.0,,GNR,1069945,2024-01-13 16:00:00+00:00,1930.0,3.23,,
250493,2024-01-13 17:00:00+00:00,0.76,2024-01-13 16:56,27.0,23.0,,996.1,120.0,32.2,29.35,84.66,28.0,10.28,,51.0,M,51.0,,GNR,1069949,2024-01-13 17:00:00+00:00,1920.0,3.22,,
250494,2024-01-13 18:00:00+00:00,0.76,2024-01-13 17:56,26.0,23.0,,994.0,110.0,34.5,29.29,88.23,30.0,8.44,,43.0,M,53.0,,GNR,1069953,2024-01-13 18:00:00+00:00,1930.0,3.23,,
250495,2024-01-13 19:00:00+00:00,1.02,2024-01-13 18:56,26.0,24.0,,990.8,100.0,33.35,29.19,92.01,29.0,8.68,,47.0,M,48.0,,GNR,1069957,2024-01-13 19:00:00+00:00,2240.0,3.42,,
250496,2024-01-13 20:00:00+00:00,1.27,2024-01-13 19:56,30.0,27.0,,987.9,110.0,34.5,29.11,88.44,30.0,13.94,,49.0,M,53.0,,GNR,1069961,2024-01-13 20:00:00+00:00,1930.0,3.23,,
250497,2024-01-13 21:00:00+00:00,0.76,2024-01-13 20:56,33.0,31.0,,985.9,120.0,24.15,29.06,92.25,21.0,20.19,,44.0,M,53.0,,GNR,1069965,2024-01-13 21:00:00+00:00,1920.0,3.22,,
250498,2024-01-13 22:00:00+00:00,1.27,2024-01-13 21:56,35.0,34.0,,984.2,120.0,18.4,29.01,96.09,16.0,24.33,,35.0,M,45.0,,GNR,1069969,2024-01-13 22:00:00+00:00,5170.0,4.89,,
250499,2024-01-13 23:00:00+00:00,1.52,2024-01-13 22:56,37.0,36.0,,982.6,120.0,19.55,28.97,96.13,17.0,26.63,,26.0,M,29.0,,GNR,1069973,2024-01-13 23:00:00+00:00,5190.0,4.9,,
250500,2024-01-14 00:00:00+00:00,3.56,2024-01-13 23:56,36.0,36.0,,983.2,,5.75,28.99,100.0,5.0,31.15,,,M,26.0,,GNR,1069977,2024-01-14 00:00:00+00:00,5210.0,4.91,,
250501,2024-01-14 01:00:00+00:00,1.27,2024-01-14 00:56,33.0,31.0,,985.5,300.0,13.8,29.05,92.25,12.0,23.27,,24.0,M,,,GNR,1069981,2024-01-14 01:00:00+00:00,5210.0,4.91,,
250502,2024-01-14 02:00:00+00:00,0.0,2024-01-14 01:56,32.0,29.0,,987.7,290.0,9.2,29.11,88.53,8.0,24.11,,22.0,M,,,GNR,1069985,2024-01-14 02:00:00+00:00,5190.0,4.9,,
250503,2024-01-14 03:00:00+00:00,0.0,2024-01-14 02:56,32.0,27.0,,989.1,300.0,11.5,29.16,81.55,10.0,22.97,,17.0,M,30.0,,GNR,1069989,2024-01-14 03:00:00+00:00,5210.0,4.91,,
250504,2024-01-14 04:00:00+00:00,0.0,2024-01-14 03:56,31.0,26.0,,990.4,290.0,8.05,29.19,81.48,7.0,23.56,,19.0,M,,,GNR,1069993,2024-01-14 04:00:00+00:00,5210.0,4.91,,
250505,2024-01-14 05:00:00+00:00,0.0,2024-01-14 04:56,31.0,25.0,,991.2,,3.45,29.22,78.16,3.0,27.55,,,M,,,GNR,1069997,2024-01-14 05:00:00+00:00,5230.0,4.92,,
250506,2024-01-14 06:00:00+00:00,0.0,2024-01-14 05:56,30.0,23.0,,992.5,,4.6,29.26,74.87,4.0,25.08,,,M,,,GNR,1070001,2024-01-14 06:00:00+00:00,5230.0,4.92,,
250507,2024-01-14 07:00:00+00:00,0.0,2024-01-14 06:56,30.0,21.0,,994.1,,,29.31,68.81,,,,,M,,,GNR,1070005,2024-01-14 07:00:00+00:00,3910.0,4.31,,
250508,2024-01-14 08:00:00+00:00,0.0,2024-01-14 07:56,29.0,19.0,,994.9,,6.9,29.33,65.81,6.0,21.92,,,M,,,GNR,1070009,2024-01-14 08:00:00+00:00,2140.0,3.36,,
250509,2024-01-14 09:00:00+00:00,0.0,2024-01-14 08:56,28.0,18.0,,996.1,,6.9,29.37,65.69,6.0,20.71,,,M,,,GNR,1070013,2024-01-14 09:00:00+00:00,1980.0,3.26,,
250510,2024-01-14 10:00:00+00:00,0.0,2024-01-14 09:56,27.0,21.0,,997.3,,,29.4,77.8,,,,,M,,,GNR,1070017,2024-01-14 10:00:00+00:00,1980.0,3.26,,
250511,2024-01-14 11:00:00+00:00,0.0,2024-01-14 10:56,26.0,22.0,,998.5,,,29.44,84.59,,,,,M,,,GNR,1070021,2024-01-14 11:00:00+00:00,1980.0,3.26,,
250512,2024-01-14 12:00:00+00:00,0.0,2024-01-14 11:56,26.0,20.0,,999.5,,3.45,29.47,77.71,3.0,21.83,,,M,,,GNR,1070025,2024-01-14 12:00:00+00:00,1960.0,3.25,,
250513,2024-01-14 13:00:00+00:00,0.0,2024-01-14 12:56,25.0,20.0,,1000.2,0.0,0.0,29.48,81.01,0.0,25.0,,,M,,,GNR,1070029,2024-01-14 13:00:00+00:00,1980.0,3.26,,
250514,2024-01-14 14:00:00+00:00,0.0,2024-01-14 13:56,26.0,20.0,,1000.9,,3.45,29.5,77.71,3.0,21.83,,,M,,,GNR,1070033,2024-01-14 14:00:00+00:00,1960.0,3.25,,
250515,2024-01-14 15:00:00+00:00,0.0,2024-01-14 14:56,27.0,21.0,,1001.3,,3.45,29.52,77.8,3.0,22.97,,,M,,,GNR,1070037,2024-01-14 15:00:00+00:00,1960.0,3.25,,
250516,2024-01-14 16:00:00+00:00,0.0,2024-01-14 15:56,29.0,18.0,,1000.7,180.0,8.05,29.5,63.05,7.0,21.12,,,M,,,GNR,1070041,2024-01-14 16:00:00+00:00,5100.0,4.86,2024-01-14 16:00:00+00:00,gs://gcp-public-data-sentinel-2/tiles/19/T/DL/S2A_MSIL1C_20240114T153611_N0510_R111_T19TDL_20240114T172837.SAFE
250517,2024-01-14 17:00:00+00:00,0.0,2024-01-14 16:56,30.0,17.0,,1000.0,,,29.48,57.98,,,,,M,,,GNR,1070045,2024-01-14 17:00:00+00:00,3850.0,4.28,,
250518,2024-01-14 18:00:00+00:00,0.0,2024-01-14 17:56,30.0,17.0,,999.6,200.0,8.05,29.47,57.98,7.0,22.34,,,M,,,GNR,1070049,2024-01-14 18:00:00+00:00,2140.0,3.36,,
250519,2024-01-14 19:00:00+00:00,0.0,2024-01-14 18:56,27.0,21.0,,999.0,190.0,9.2,29.45,77.8,8.0,17.95,,16.0,M,,,GNR,1070053,2024-01-14 19:00:00+00:00,1980.0,3.26,,
250520,2024-01-14 20:00:00+00:00,0.25,2024-01-14 19:56,26.0,24.0,,1000.2,210.0,6.9,29.48,92.01,6.0,18.3,,,M,,,GNR,1070057,2024-01-14 20:00:00+00:00,1980.0,3.26,,
250521,2024-01-14 21:00:00+00:00,0.51,2024-01-14 20:56,26.0,22.0,,1000.7,,5.75,29.49,84.59,5.0,19.27,,,M,,,GNR,1070061,2024-01-14 21:00:00+00:00,2010.0,3.28,,
250522,2024-01-14 22:00:00+00:00,0.0,2024-01-14 21:56,24.0,20.0,,1001.5,0.0,0.0,29.52,84.46,0.0,24.0,,,M,,,GNR,1070065,2024-01-14 22:00:00+00:00,5230.0,4.92,,
250523,2024-01-14 23:00:00+00:00,0.0,2024-01-14 22:56,22.0,18.0,,1003.5,310.0,8.05,29.57,84.33,7.0,12.59,,,M,,,GNR,1070069,2024-01-14 23:00:00+00:00,5260.0,4.93,,
250524,2024-01-15 00:00:00+00:00,0.51,2024-01-14 23:56,22.0,14.0,,1004.0,,4.6,29.59,70.88,4.0,15.74,,,M,,,GNR,1070073,2024-01-15 00:00:00+00:00,5260.0,4.93,,
250525,2024-01-15 01:00:00+00:00,0.0,2024-01-15 00:56,22.0,13.0,,1004.2,330.0,4.6,29.59,67.83,4.0,15.74,,,M,,,GNR,1070077,2024-01-15 01:00:00+00:00,5230.0,4.92,,
250526,2024-01-15 02:00:00+00:00,0.0,2024-01-15 01:56,21.0,11.0,,1005.3,,,29.62,64.77,,,,,M,,,GNR,1070081,2024-01-15 02:00:00+00:00,5230.0,4.92,,
250527,2024-01-15 03:00:00+00:00,0.0,2024-01-15 02:56,19.0,10.0,,1006.4,0.0,0.0,29.65,67.46,0.0,19.0,,,M,,,GNR,1070085,2024-01-15 03:00:00+00:00,5230.0,4.92,,
250528,2024-01-15 04:00:00+00:00,0.0,2024-01-15 03:56,19.0,10.0,,1007.5,,5.75,29.69,67.46,5.0,10.96,,,M,,,GNR,1070089,2024-01-15 04:00:00+00:00,5210.0,4.91,,
250529,2024-01-15 05:00:00+00:00,0.0,2024-01-15 04:56,19.0,9.0,,1008.4,280.0,8.05,29.72,64.5,7.0,8.93,,17.0,M,,,GNR,1070093,2024-01-15 05:00:00+00:00,5210.0,4.91,,
250530,2024-01-15 06:00:00+00:00,0.0,2024-01-15 05:56,19.0,9.0,,1009.1,,5.75,29.74,64.5,5.0,10.96,,,M,,,GNR,1070097,2024-01-15 06:00:00+00:00,5210.0,4.91,,
250531,2024-01-15 07:00:00+00:00,0.0,2024-01-15 06:56,18.0,12.0,,1011.4,,3.45,29.8,76.97,3.0,12.68,,,M,,,GNR,1070101,2024-01-15 07:00:00+00:00,5210.0,4.91,,
250532,2024-01-15 08:00:00+00:00,0.0,2024-01-15 07:56,17.0,8.0,,1012.3,300.0,9.2,29.82,67.2,8.0,5.64,,22.0,M,,,GNR,1070105,2024-01-15 08:00:00+00:00,5210.0,4.91,,
250533,2024-01-15 09:00:00+00:00,0.0,2024-01-15 08:56,17.0,7.0,,1013.0,300.0,12.65,29.84,64.23,11.0,3.51,,20.0,M,,,GNR,1070109,2024-01-15 09:00:00+00:00,5190.0,4.9,,
250534,2024-01-15 10:00:00+00:00,0.0,2024-01-15 09:56,15.0,7.0,,1013.8,310.0,8.05,29.86,70.06,7.0,4.06,,16.0,M,,,GNR,1070113,2024-01-15 10:00:00+00:00,5210.0,4.91,,
250535,2024-01-15 11:00:00+00:00,0.0,2024-01-15 10:56,16.0,7.0,,1014.8,290.0,9.2,29.89,67.07,8.0,4.4,,,M,,,GNR,1070117,2024-01-15 11:00:00+00:00,5210.0,4.91,,
250536,2024-01-15 12:00:00+00:00,0.0,2024-01-15 11:56,14.0,7.0,,1016.3,,3.45,29.93,73.19,3.0,8.11,,,M,,,GNR,1070121,2024-01-15 12:00:00+00:00,5190.0,4.9,,
250537,2024-01-15 13:00:00+00:00,0.0,2024-01-15 12:56,13.0,8.0,,1017.2,210.0,3.45,29.96,80.02,3.0,6.97,,,M,,,GNR,1070125,2024-01-15 13:00:00+00:00,5210.0,4.91,,
250538,2024-01-15 14:00:00+00:00,0.0,2024-01-15 13:56,16.0,9.0,,1017.7,,3.45,29.98,73.41,3.0,10.4,,,M,,,GNR,1070129,2024-01-15 14:00:00+00:00,5210.0,4.91,,
250539,2024-01-15 15:00:00+00:00,0.0,2024-01-15 14:56,19.0,9.0,,1017.7,,,29.97,64.5,,,,,M,,,GNR,1070133,2024-01-15 15:00:00+00:00,3870.0,4.29,,
250540,2024-01-15 16:00:00+00:00,0.0,2024-01-15 15:56,21.0,10.0,,1017.4,,3.45,29.97,61.95,3.0,16.11,,,M,,,GNR,1070137,2024-01-15 16:00:00+00:00,2120.0,3.35,,
250541,2024-01-15 17:00:00+00:00,0.0,2024-01-15 16:56,21.0,8.0,,1017.1,,3.45,29.96,56.62,3.0,16.11,,,M,,,GNR,1070141,2024-01-15 17:00:00+00:00,1960.0,3.25,,
250542,2024-01-15 18:00:00+00:00,0.0,2024-01-15 17:56,21.0,8.0,,1016.9,,5.75,29.95,56.62,5.0,13.33,,,M,,,GNR,1070145,2024-01-15 18:00:00+00:00,1990.0,3.27,,
250543,2024-01-15 19:00:00+00:00,0.0,2024-01-15 18:56,22.0,8.0,,1017.1,230.0,5.75,29.96,54.28,5.0,14.52,,,M,,,GNR,1070149,2024-01-15 19:00:00+00:00,1950.0,3.24,,
250544,2024-01-15 20:00:00+00:00,0.0,2024-01-15 19:56,21.0,6.0,,1018.0,,4.6,29.98,51.72,4.0,14.57,,,M,,,GNR,1070153,2024-01-15 20:00:00+00:00,1950.0,3.24,,
250545,2024-01-15 21:00:00+00:00,0.0,2024-01-15 20:56,20.0,9.0,,1018.7,0.0,0.0,30.0,61.8,0.0,20.0,,,M,,,GNR,1070157,2024-01-15 21:00:00+00:00,1930.0,3.23,,
250546,2024-01-15 22:00:00+00:00,0.0,2024-01-15 21:56,17.0,8.0,,1019.3,0.0,0.0,30.02,67.2,0.0,17.0,,,M,,,GNR,1070161,2024-01-15 22:00:00+00:00,1930.0,3.23,,
250547,2024-01-15 23:00:00+00:00,0.0,2024-01-15 22:56,15.0,7.0,,1019.7,0.0,0.0,30.03,70.06,0.0,15.0,,,M,,,GNR,1070165,2024-01-15 23:00:00+00:00,6560.0,5.48,,
250548,2024-01-16 00:00:00+00:00,0.0,2024-01-15 23:56,12.0,5.0,,1020.1,0.0,0.0,30.03,72.97,0.0,12.0,,,M,,,GNR,1070169,2024-01-16 00:00:00+00:00,8810.0,6.38,,
250549,2024-01-16 01:00:00+00:00,0.0,2024-01-16 00:56,15.0,6.0,,1019.9,340.0,3.45,30.03,66.95,3.0,9.25,,,M,,,GNR,1070173,2024-01-16 01:00:00+00:00,8860.0,6.4,,
250550,2024-01-16 02:00:00+00:00,0.0,2024-01-16 01:56,13.0,6.0,,1019.9,20.0,4.6,30.03,73.08,4.0,5.23,,,M,,,GNR,1070177,2024-01-16 02:00:00+00:00,8860.0,6.4,,
250551,2024-01-16 03:00:00+00:00,0.0,2024-01-16 02:56,14.0,7.0,,1020.0,0.0,0.0,30.04,73.19,0.0,14.0,,,M,,,GNR,1070181,2024-01-16 03:00:00+00:00,4450.0,4.56,,
250552,2024-01-16 04:00:00+00:00,0.0,2024-01-16 03:56,11.0,5.0,,1020.1,40.0,4.6,30.04,76.28,4.0,2.9,,,M,,,GNR,1070185,2024-01-16 04:00:00+00:00,2150.0,3.37,,
250553,2024-01-16 05:00:00+00:00,0.0,2024-01-16 04:56,11.0,5.0,,1019.8,20.0,4.6,30.03,76.28,4.0,2.9,,,M,,,GNR,1070189,2024-01-16 05:00:00+00:00,1950.0,3.24,,
250554,2024-01-16 06:00:00+00:00,0.0,2024-01-16 05:56,10.0,4.0,,1020.0,30.0,3.45,30.04,76.18,3.0,3.54,,,M,,,GNR,1070193,2024-01-16 06:00:00+00:00,1950.0,3.24,,
250555,2024-01-16 07:00:00+00:00,0.0,2024-01-16 06:56,10.0,5.0,,1020.3,30.0,5.75,30.04,79.76,5.0,0.27,,,M,,,GNR,1070197,2024-01-16 07:00:00+00:00,1930.0,3.23,,
250556,2024-01-16 08:00:00+00:00,0.0,2024-01-16 07:56,11.0,4.0,,1020.5,20.0,4.6,30.05,72.86,4.0,2.9,,,M,,,GNR,1070201,2024-01-16 08:00:00+00:00,1950.0,3.24,,
250557,2024-01-16 09:00:00+00:00,0.0,2024-01-16 08:56,12.0,5.0,,1020.1,0.0,0.0,30.04,72.97,0.0,12.0,,,M,,,GNR,1070205,2024-01-16 09:00:00+00:00,1950.0,3.24,,
250558,2024-01-16 10:00:00+00:00,0.0,2024-01-16 09:56,12.0,5.0,,1019.3,40.0,5.75,30.01,72.97,5.0,2.64,,,M,,,GNR,1070209,2024-01-16 10:00:00+00:00,1960.0,3.25,,
250559,2024-01-16 11:00:00+00:00,0.0,2024-01-16 10:56,12.0,5.0,,1019.5,0.0,0.0,30.02,72.97,0.0,12.0,,,M,,,GNR,1070213,2024-01-16 11:00:00+00:00,1980.0,3.26,,
250560,2024-01-16 12:00:00+00:00,0.0,2024-01-16 11:56,13.0,5.0,,1019.0,50.0,5.75,30.0,69.82,5.0,3.83,,,M,,,GNR,1070217,2024-01-16 12:00:00+00:00,2010.0,3.28,,
250561,2024-01-16 13:00:00+00:00,0.0,2024-01-16 12:56,14.0,6.0,,1018.8,110.0,6.9,30.0,69.94,6.0,3.85,,,M,,,GNR,1070221,2024-01-16 13:00:00+00:00,2030.0,3.29,,
250562,2024-01-16 14:00:00+00:00,0.0,2024-01-16 13:56,15.0,7.0,,1018.7,130.0,4.6,29.99,70.06,4.0,7.57,,,M,,,GNR,1070225,2024-01-16 14:00:00+00:00,2040.0,3.3,,
250563,2024-01-16 15:00:00+00:00,0.0,2024-01-16 14:56,16.0,7.0,,1017.6,100.0,10.35,29.96,67.07,9.0,3.62,,,M,,,GNR,1070229,2024-01-16 15:00:00+00:00,2070.0,3.32,,
250564,2024-01-16 16:00:00+00:00,0.0,2024-01-16 15:56,18.0,6.0,,1016.3,100.0,13.8,29.93,58.79,12.0,4.18,,,M,,,GNR,1070233,2024-01-16 16:00:00+00:00,2090.0,3.33,,
250565,2024-01-16 17:00:00+00:00,0.0,2024-01-16 16:56,20.0,7.0,,1014.0,120.0,8.05,29.86,56.47,7.0,10.15,,,M,,,GNR,1070237,2024-01-16 17:00:00+00:00,2110.0,3.34,,
250566,2024-01-16 18:00:00+00:00,0.0,2024-01-16 17:56,19.0,8.0,,1012.1,140.0,9.2,29.8,61.66,8.0,8.1,,,M,,,GNR,1070241,2024-01-16 18:00:00+00:00,2110.0,3.34,,
250567,2024-01-16 19:00:00+00:00,0.0,2024-01-16 18:56,18.0,12.0,,1010.4,100.0,6.9,29.75,76.97,6.0,8.67,,,M,,,GNR,1070245,2024-01-16 19:00:00+00:00,5460.0,5.02,,
250568,2024-01-16 20:00:00+00:00,0.51,2024-01-16 19:56,18.0,14.0,,1008.7,20.0,3.45,29.71,84.05,3.0,12.68,,,M,,,GNR,1070249,2024-01-16 20:00:00+00:00,8700.0,6.34,,
250569,2024-01-16 21:00:00+00:00,1.27,2024-01-16 20:56,19.0,15.0,,1006.8,20.0,4.6,29.65,84.12,4.0,12.24,,,M,,,GNR,1070253,2024-01-16 21:00:00+00:00,4450.0,4.56,,
250570,2024-01-16 22:00:00+00:00,1.27,2024-01-16 21:56,18.0,14.0,,1005.8,330.0,10.35,29.62,84.05,9.0,6.11,,,M,,,GNR,1070257,2024-01-16 22:00:00+00:00,2140.0,3.36,,
250571,2024-01-16 23:00:00+00:00,1.52,2024-01-16 22:56,18.0,15.0,,1003.9,40.0,3.45,29.57,87.81,3.0,12.68,,,M,,,GNR,1070261,2024-01-16 23:00:00+00:00,5580.0,5.07,,
250572,2024-01-17 04:00:00+00:00,5.08,2024-01-17 03:56,16.0,13.0,,999.0,320.0,17.25,29.42,87.7,15.0,0.04,,26.0,M,30.0,,GNR,1070281,2024-01-17 04:00:00+00:00,4130.0,4.41,,
250573,2024-01-17 05:00:00+00:00,0.25,2024-01-17 04:56,16.0,12.0,,,320.0,17.25,29.4,83.91,15.0,0.04,,30.0,M,30.0,,GNR,1070285,2024-01-17 05:00:00+00:00,2110.0,3.34,,
250574,2024-01-17 06:00:00+00:00,0.0,2024-01-17 05:56,15.0,11.0,,998.6,320.0,16.1,29.41,83.84,14.0,-0.75,,25.0,M,33.0,,GNR,1070289,2024-01-17 06:00:00+00:00,1950.0,3.24,,
250575,2024-01-17 07:00:00+00:00,0.0,2024-01-17 06:56,13.0,9.0,,998.9,340.0,14.95,29.42,83.7,13.0,-2.77,,24.0,M,,,GNR,1070293,2024-01-17 07:00:00+00:00,1930.0,3.23,,
250576,2024-01-17 08:00:00+00:00,0.0,2024-01-17 07:56,13.0,9.0,,999.2,320.0,18.4,29.43,83.7,16.0,-4.35,,29.0,M,30.0,,GNR,1070297,2024-01-17 08:00:00+00:00,1920.0,3.22,,
250577,2024-01-17 09:00:00+00:00,0.0,2024-01-17 08:56,13.0,9.0,,999.6,310.0,14.95,29.44,83.7,13.0,-2.77,,27.0,M,32.0,,GNR,1070301,2024-01-17 09:00:00+00:00,1920.0,3.22,,
250578,2024-01-17 19:00:00+00:00,0.0,2024-01-17 18:56,15.0,5.0,,1002.6,300.0,11.5,29.53,63.96,10.0,1.65,,24.0,M,,,GNR,1070341,2024-01-17 19:00:00+00:00,1900.0,3.21,,
250579,2024-01-17 20:00:00+00:00,0.0,2024-01-17 19:56,16.0,5.0,,1003.2,310.0,12.65,29.55,61.23,11.0,2.25,,23.0,M,,,GNR,1070345,2024-01-17 20:00:00+00:00,1900.0,3.21,,
250580,2024-01-17 21:00:00+00:00,0.0,2024-01-17 20:56,14.0,4.0,,1004.0,,5.75,29.57,63.82,5.0,5.02,,16.0,M,,,GNR,1070349,2024-01-17 21:00:00+00:00,1950.0,3.24,,
250581,2024-01-17 22:00:00+00:00,0.0,2024-01-17 21:56,12.0,3.0,,1004.9,300.0,8.05,29.59,66.56,7.0,0.4,,22.0,M,,,GNR,1070353,2024-01-17 22:00:00+00:00,5080.0,4.85,,
250582,2024-01-17 23:00:00+00:00,0.0,2024-01-17 22:56,11.0,2.0,,1005.4,,4.6,29.6,66.43,4.0,2.9,,,M,,,GNR,1070357,2024-01-17 23:00:00+00:00,7970.0,6.05,,
250583,2024-01-18 01:00:00+00:00,0.0,2024-01-18 00:56,11.0,3.0,,1005.4,290.0,8.05,29.61,69.58,7.0,-0.82,,,M,,,GNR,1070365,2024-01-18 01:00:00+00:00,8780.0,6.37,,
250584,2024-01-18 02:00:00+00:00,0.0,2024-01-18 01:56,11.0,3.0,,1005.9,280.0,10.35,29.62,69.58,9.0,-2.6,,22.0,M,,,GNR,1070369,2024-01-18 02:00:00+00:00,8780.0,6.37,,
250585,2024-01-18 03:00:00+00:00,0.0,2024-01-18 02:56,11.0,2.0,,1006.2,290.0,10.35,29.63,66.43,9.0,-2.6,,22.0,M,,,GNR,1070373,2024-01-18 03:00:00+00:00,8780.0,6.37,,
250586,2024-01-18 04:00:00+00:00,0.0,2024-01-18 03:56,11.0,2.0,,1006.7,310.0,10.35,29.64,66.43,9.0,-2.6,,,M,,,GNR,1070377,2024-01-18 04:00:00+00:00,8780.0,6.37,,
250587,2024-01-18 05:00:00+00:00,0.0,2024-01-18 04:56,11.0,2.0,,1006.9,310.0,8.05,29.65,66.43,7.0,-0.82,,14.0,M,,,GNR,1070381,2024-01-18 05:00:00+00:00,4360.0,4.52,,
250588,2024-01-18 06:00:00+00:00,0.0,2024-01-18 05:56,11.0,2.0,,1007.2,300.0,9.2,29.65,66.43,8.0,-1.76,,16.0,M,,,GNR,1070385,2024-01-18 06:00:00+00:00,2120.0,3.35,,
250589,2024-01-18 07:00:00+00:00,0.0,2024-01-18 06:56,12.0,2.0,,1007.8,,5.75,29.67,63.54,5.0,2.64,,18.0,M,,,GNR,1070389,2024-01-18 07:00:00+00:00,1920.0,3.22,,
250590,2024-01-18 08:00:00+00:00,0.0,2024-01-18 07:56,12.0,3.0,,1007.9,,6.9,29.68,66.56,6.0,1.44,,,M,,,GNR,1070393,2024-01-18 08:00:00+00:00,1900.0,3.21,,
250591,2024-01-18 09:00:00+00:00,0.0,2024-01-18 08:56,12.0,3.0,,1007.9,,,29.68,66.56,,,,,M,,,GNR,1070397,2024-01-18 09:00:00+00:00,1900.0,3.21,,
250592,2024-01-18 10:00:00+00:00,0.0,2024-01-18 09:56,12.0,5.0,,1009.4,,4.6,29.72,72.97,4.0,4.07,,,M,,,GNR,1070401,2024-01-18 10:00:00+00:00,1900.0,3.21,,
250593,2024-01-18 11:00:00+00:00,0.0,2024-01-18 10:56,12.0,3.0,,1010.2,300.0,11.5,29.74,66.56,10.0,-2.11,,21.0,M,,,GNR,1070405,2024-01-18 11:00:00+00:00,1900.0,3.21,,
250594,2024-01-18 12:00:00+00:00,0.0,2024-01-18 11:56,11.0,2.0,,1011.0,310.0,6.9,29.77,66.43,6.0,0.24,,,M,,,GNR,1070409,2024-01-18 12:00:00+00:00,1920.0,3.22,,
250595,2024-01-18 13:00:00+00:00,0.0,2024-01-18 12:56,11.0,3.0,,1011.3,290.0,8.05,29.77,69.58,7.0,-0.82,,,M,,,GNR,1070413,2024-01-18 13:00:00+00:00,1930.0,3.23,,
250596,2024-01-18 14:00:00+00:00,0.0,2024-01-18 13:56,14.0,4.0,,1011.2,300.0,8.05,29.77,63.82,7.0,2.84,,,M,,,GNR,1070417,2024-01-18 14:00:00+00:00,6290.0,5.37,,
250597,2024-01-18 15:00:00+00:00,0.0,2024-01-18 14:56,16.0,5.0,,1011.5,,6.9,29.78,61.23,6.0,6.26,,18.0,M,,,GNR,1070421,2024-01-18 15:00:00+00:00,8830.0,6.39,,
250598,2024-01-18 16:00:00+00:00,0.0,2024-01-18 15:56,17.0,5.0,,1011.4,280.0,8.05,29.78,58.64,7.0,6.5,,,M,,,GNR,1070425,2024-01-18 16:00:00+00:00,8730.0,6.35,,
250599,2024-01-18 17:00:00+00:00,0.0,2024-01-18 16:56,17.0,5.0,,1010.8,,,29.76,58.64,,,,,M,,,GNR,1070429,2024-01-18 17:00:00+00:00,4490.0,4.58,,
250600,2024-01-18 18:00:00+00:00,0.0,2024-01-18 17:56,17.0,5.0,,1010.5,,,29.75,58.64,,,,,M,,,GNR,1070433,2024-01-18 18:00:00+00:00,2140.0,3.36,,
250601,2024-01-18 19:00:00+00:00,0.0,2024-01-18 18:56,18.0,4.0,,1010.3,280.0,11.5,29.75,53.64,10.0,5.41,,24.0,M,,,GNR,1070437,2024-01-18 19:00:00+00:00,1900.0,3.21,,
250602,2024-01-18 20:00:00+00:00,0.0,2024-01-18 19:56,18.0,4.0,,1010.7,290.0,9.2,29.76,53.64,8.0,6.87,,,M,26.0,,GNR,1070441,2024-01-18 20:00:00+00:00,1890.0,3.2,,
250603,2024-01-18 21:00:00+00:00,0.0,2024-01-18 20:56,16.0,2.0,,1011.0,,,29.77,53.32,,,,,M,,,GNR,1070445,2024-01-18 21:00:00+00:00,1890.0,3.2,,
250604,2024-01-18 22:00:00+00:00,0.0,2024-01-18 21:56,14.0,2.0,,1011.4,300.0,4.6,29.78,58.18,4.0,6.4,,,M,,,GNR,1070449,2024-01-18 22:00:00+00:00,6410.0,5.42,,
250605,2024-01-18 23:00:00+00:00,0.0,2024-01-18 22:56,13.0,1.0,,1012.1,,,29.8,58.03,,,,,M,,,GNR,1070453,2024-01-18 23:00:00+00:00,8700.0,6.34,,
250606,2024-01-19 00:00:00+00:00,0.0,2024-01-18 23:56,12.0,2.0,,1012.7,300.0,4.6,29.81,63.54,4.0,4.07,,,M,,,GNR,1070457,2024-01-19 00:00:00+00:00,8730.0,6.35,,
250607,2024-01-19 01:00:00+00:00,0.0,2024-01-19 00:56,12.0,3.0,,1012.6,300.0,5.75,29.81,66.56,5.0,2.64,,,M,,,GNR,1070461,2024-01-19 01:00:00+00:00,8750.0,6.36,,
250608,2024-01-19 02:00:00+00:00,0.0,2024-01-19 01:56,12.0,3.0,,1012.5,,5.75,29.81,66.56,5.0,2.64,,,M,,,GNR,1070465,2024-01-19 02:00:00+00:00,8810.0,6.38,,
250609,2024-01-19 03:00:00+00:00,0.0,2024-01-19 02:56,12.0,3.0,,1012.4,,5.75,29.81,66.56,5.0,2.64,,,M,,,GNR,1070469,2024-01-19 03:00:00+00:00,8780.0,6.37,,
250610,2024-01-19 04:00:00+00:00,0.0,2024-01-19 03:56,11.0,4.0,,1012.7,300.0,9.2,29.82,72.86,8.0,-1.76,,,M,,,GNR,1070473,2024-01-19 04:00:00+00:00,4510.0,4.59,,
250611,2024-01-19 05:00:00+00:00,0.0,2024-01-19 04:56,12.0,4.0,,1012.4,300.0,9.2,29.81,69.7,8.0,-0.52,,19.0,M,,,GNR,1070477,2024-01-19 05:00:00+00:00,2110.0,3.34,,
250612,2024-01-19 06:00:00+00:00,0.0,2024-01-19 05:56,11.0,3.0,,1011.8,300.0,10.35,29.79,69.58,9.0,-2.6,,19.0,M,,,GNR,1070481,2024-01-19 06:00:00+00:00,1890.0,3.2,,
250613,2024-01-19 07:00:00+00:00,0.0,2024-01-19 06:56,11.0,3.0,,1012.1,310.0,8.05,29.8,69.58,7.0,-0.82,,20.0,M,,,GNR,1070485,2024-01-19 07:00:00+00:00,1870.0,3.19,,
250614,2024-01-19 08:00:00+00:00,0.0,2024-01-19 07:56,9.0,2.0,,1011.8,310.0,12.65,29.79,72.64,11.0,-6.6,,20.0,M,,,GNR,1070489,2024-01-19 08:00:00+00:00,1860.0,3.18,,
250615,2024-01-19 09:00:00+00:00,0.0,2024-01-19 08:56,8.0,0.0,,1011.6,310.0,14.95,29.78,69.21,13.0,-9.18,,21.0,M,26.0,,GNR,1070493,2024-01-19 09:00:00+00:00,1860.0,3.18,,
250616,2024-01-19 10:00:00+00:00,0.0,2024-01-19 09:56,5.0,-1.0,,1011.8,310.0,10.35,29.78,75.67,9.0,-10.06,,17.0,M,,,GNR,1070497,2024-01-19 10:00:00+00:00,1860.0,3.18,,
250617,2024-01-19 11:00:00+00:00,0.0,2024-01-19 10:56,3.0,-3.0,,1011.8,310.0,8.05,29.78,75.46,7.0,-10.57,,,M,,,GNR,1070501,2024-01-19 11:00:00+00:00,1870.0,3.19,,
250618,2024-01-19 12:00:00+00:00,0.0,2024-01-19 11:56,2.0,-7.0,,1011.4,320.0,17.25,29.76,65.21,15.0,-18.11,,22.0,M,,,GNR,1070505,2024-01-19 12:00:00+00:00,1890.0,3.2,,
250619,2024-01-19 13:00:00+00:00,0.0,2024-01-19 12:56,2.0,-8.0,,1010.8,320.0,16.1,29.75,62.11,14.0,-17.51,,23.0,M,27.0,,GNR,1070509,2024-01-19 13:00:00+00:00,1890.0,3.2,,
250620,2024-01-19 14:00:00+00:00,0.0,2024-01-19 13:56,3.0,-9.0,,1010.7,320.0,13.8,29.75,56.47,12.0,-14.91,,23.0,M,,,GNR,1070513,2024-01-19 14:00:00+00:00,5170.0,4.89,,
250621,2024-01-19 15:00:00+00:00,0.0,2024-01-19 14:56,4.0,-9.0,,1010.2,310.0,13.8,29.73,53.92,12.0,-13.63,,26.0,M,26.0,,GNR,1070517,2024-01-19 15:00:00+00:00,8940.0,6.43,,
250622,2024-01-19 16:00:00+00:00,0.0,2024-01-19 15:56,7.0,-8.0,,1009.6,330.0,11.5,29.72,49.38,10.0,-8.38,,18.0,M,,,GNR,1070521,2024-01-19 16:00:00+00:00,8810.0,6.38,,
250623,2024-01-19 17:00:00+00:00,0.0,2024-01-19 16:56,9.0,-6.0,,1008.1,320.0,12.65,29.68,49.72,11.0,-6.6,,20.0,M,,,GNR,1070525,2024-01-19 17:00:00+00:00,4380.0,4.53,,
250624,2024-01-19 18:00:00+00:00,0.0,2024-01-19 17:56,11.0,-5.0,,1007.1,330.0,11.5,29.65,47.71,10.0,-3.37,,19.0,M,,,GNR,1070529,2024-01-19 18:00:00+00:00,2090.0,3.33,,
250625,2024-01-19 19:00:00+00:00,0.0,2024-01-19 18:56,13.0,-3.0,,1005.8,320.0,16.1,29.61,48.06,14.0,-3.33,,24.0,M,,,GNR,1070533,2024-01-19 19:00:00+00:00,1870.0,3.19,,
250626,2024-01-19 20:00:00+00:00,0.0,2024-01-19 19:56,13.0,-3.0,,1005.4,310.0,10.35,29.6,48.06,9.0,-0.11,,20.0,M,,,GNR,1070537,2024-01-19 20:00:00+00:00,1870.0,3.19,,
250627,2024-01-19 21:00:00+00:00,0.0,2024-01-19 20:56,11.0,-3.0,,1005.1,310.0,8.05,29.59,52.51,7.0,-0.82,,17.0,M,,,GNR,1070541,2024-01-19 21:00:00+00:00,1860.0,3.18,,
250628,2024-01-19 22:00:00+00:00,0.0,2024-01-19 21:56,8.0,-3.0,,1005.4,320.0,10.35,29.59,60.06,9.0,-6.33,,17.0,M,,,GNR,1070545,2024-01-19 22:00:00+00:00,5690.0,5.12,,
250629,2024-01-19 23:00:00+00:00,0.0,2024-01-19 22:56,7.0,-3.0,,1004.9,320.0,13.8,29.57,62.84,12.0,-9.82,,17.0,M,,,GNR,1070549,2024-01-19 23:00:00+00:00,8700.0,6.34,,
250630,2024-01-20 00:00:00+00:00,0.0,2024-01-19 23:56,5.0,-4.0,,1005.1,330.0,16.1,29.58,65.62,14.0,-13.64,,24.0,M,28.0,,GNR,1070553,2024-01-20 00:00:00+00:00,8780.0,6.37,,
250631,2024-01-20 01:00:00+00:00,0.0,2024-01-20 00:56,3.0,-5.0,,1005.0,330.0,13.8,29.57,68.58,12.0,-14.91,,24.0,M,28.0,,GNR,1070557,2024-01-20 01:00:00+00:00,8780.0,6.37,,
250632,2024-01-20 02:00:00+00:00,0.0,2024-01-20 01:56,2.0,-5.0,,1004.7,350.0,9.2,29.56,71.83,8.0,-12.84,,21.0,M,29.0,,GNR,1070561,2024-01-20 02:00:00+00:00,8780.0,6.37,,
250633,2024-01-20 03:00:00+00:00,0.0,2024-01-20 02:56,1.0,-5.0,,1004.1,340.0,10.35,29.54,75.25,9.0,-15.03,,16.0,M,,,GNR,1070565,2024-01-20 03:00:00+00:00,8810.0,6.38,,
250634,2024-01-20 04:00:00+00:00,0.0,2024-01-20 03:56,0.0,-6.0,,1004.1,330.0,12.65,29.55,75.15,11.0,-17.97,,,M,,,GNR,1070569,2024-01-20 04:00:00+00:00,4300.0,4.49,,
250635,2024-01-20 05:00:00+00:00,0.0,2024-01-20 04:56,1.0,-5.0,,1003.9,330.0,13.8,29.54,75.25,12.0,-17.45,,21.0,M,28.0,,GNR,1070573,2024-01-20 05:00:00+00:00,2070.0,3.32,,
250636,2024-01-20 06:00:00+00:00,0.0,2024-01-20 05:56,1.0,-5.0,,1004.1,330.0,20.7,29.55,75.25,18.0,-21.06,,26.0,M,26.0,,GNR,1070577,2024-01-20 06:00:00+00:00,1890.0,3.2,,
250637,2024-01-20 07:00:00+00:00,0.0,2024-01-20 06:56,2.0,-4.0,,1004.1,330.0,18.4,29.55,75.36,16.0,-18.68,,30.0,M,31.0,,GNR,1070581,2024-01-20 07:00:00+00:00,1870.0,3.19,,
250638,2024-01-20 08:00:00+00:00,0.0,2024-01-20 07:56,2.0,-4.0,,1003.8,320.0,21.85,29.55,75.36,19.0,-20.24,,30.0,M,32.0,,GNR,1070585,2024-01-20 08:00:00+00:00,1890.0,3.2,,
250639,2024-01-20 09:00:00+00:00,0.0,2024-01-20 08:56,2.0,-4.0,,1004.4,330.0,13.8,29.56,75.36,12.0,-16.18,,22.0,M,32.0,,GNR,1070589,2024-01-20 09:00:00+00:00,1900.0,3.21,,
250640,2024-01-20 10:00:00+00:00,0.0,2024-01-20 09:56,1.0,-5.0,,1004.4,330.0,17.25,29.56,75.25,15.0,-19.41,,28.0,M,28.0,,GNR,1070593,2024-01-20 10:00:00+00:00,1920.0,3.22,,
250641,2024-01-20 11:00:00+00:00,0.0,2024-01-20 10:56,1.0,-5.0,,1005.0,340.0,16.1,29.57,75.25,14.0,-18.8,,27.0,M,27.0,,GNR,1070597,2024-01-20 11:00:00+00:00,1950.0,3.24,,
250642,2024-01-20 12:00:00+00:00,0.0,2024-01-20 11:56,1.0,-5.0,,1005.8,330.0,14.95,29.6,75.25,13.0,-18.15,,24.0,M,,,GNR,1070601,2024-01-20 12:00:00+00:00,1960.0,3.25,,
250643,2024-01-20 13:00:00+00:00,0.0,2024-01-20 12:56,1.0,-6.0,,1006.6,330.0,13.8,29.61,71.71,12.0,-17.45,,21.0,M,,,GNR,1070605,2024-01-20 13:00:00+00:00,1990.0,3.27,,
250644,2024-01-20 14:00:00+00:00,0.0,2024-01-20 13:56,2.0,-5.0,,1006.9,320.0,13.8,29.62,71.83,12.0,-16.18,,24.0,M,,,GNR,1070609,2024-01-20 14:00:00+00:00,2030.0,3.29,,
250645,2024-01-20 15:00:00+00:00,0.0,2024-01-20 14:56,4.0,-4.0,,1007.3,330.0,19.55,29.64,68.7,17.0,-16.61,,24.0,M,27.0,,GNR,1070613,2024-01-20 15:00:00+00:00,6390.0,5.41,,
250646,2024-01-20 16:00:00+00:00,0.0,2024-01-20 15:56,5.0,-2.0,,1007.1,320.0,16.1,29.63,72.18,14.0,-13.64,,21.0,M,,,GNR,1070617,2024-01-20 16:00:00+00:00,9040.0,6.47,,
250647,2024-01-20 17:00:00+00:00,0.0,2024-01-20 16:56,8.0,0.0,,1006.7,330.0,16.1,29.63,69.21,14.0,-9.77,,24.0,M,,,GNR,1070621,2024-01-20 17:00:00+00:00,8750.0,6.36,,
250648,2024-01-20 18:00:00+00:00,0.0,2024-01-20 17:56,9.0,1.0,,1006.8,320.0,16.1,29.63,69.33,14.0,-8.48,,20.0,M,,,GNR,1070625,2024-01-20 18:00:00+00:00,4320.0,4.5,,
250649,2024-01-20 19:00:00+00:00,0.0,2024-01-20 18:56,10.0,1.0,,1006.8,340.0,13.8,29.63,66.29,12.0,-6.0,,19.0,M,,,GNR,1070629,2024-01-20 19:00:00+00:00,2060.0,3.31,,
250650,2024-01-20 20:00:00+00:00,0.0,2024-01-20 19:56,10.0,1.0,,1007.4,340.0,18.4,29.65,66.29,16.0,-8.26,,25.0,M,,,GNR,1070633,2024-01-20 20:00:00+00:00,1860.0,3.18,,
250651,2024-01-20 21:00:00+00:00,0.0,2024-01-20 20:56,10.0,2.0,,1007.7,330.0,19.55,29.66,69.45,17.0,-8.75,,25.0,M,,,GNR,1070637,2024-01-20 21:00:00+00:00,1840.0,3.17,,
250652,2024-01-20 22:00:00+00:00,0.0,2024-01-20 21:56,9.0,3.0,,1008.8,330.0,14.95,29.69,76.08,13.0,-7.9,,20.0,M,27.0,,GNR,1070641,2024-01-20 22:00:00+00:00,4530.0,4.6,,
250653,2024-01-20 23:00:00+00:00,0.0,2024-01-20 22:56,9.0,3.0,,1009.7,330.0,13.8,29.71,76.08,12.0,-7.27,,,M,,,GNR,1070645,2024-01-20 23:00:00+00:00,8730.0,6.35,,
250654,2024-01-21 00:00:00+00:00,0.0,2024-01-20 23:56,9.0,4.0,,1010.3,330.0,9.2,29.73,79.67,8.0,-4.22,,16.0,M,,,GNR,1070649,2024-01-21 00:00:00+00:00,8750.0,6.36,,
250655,2024-01-21 01:00:00+00:00,0.0,2024-01-21 00:56,9.0,4.0,,1010.6,330.0,13.8,29.74,79.67,12.0,-7.27,,22.0,M,,,GNR,1070653,2024-01-21 01:00:00+00:00,8810.0,6.38,,
250656,2024-01-21 02:00:00+00:00,0.0,2024-01-21 01:56,9.0,4.0,,1011.1,330.0,11.5,29.75,79.67,10.0,-5.87,,19.0,M,,,GNR,1070657,2024-01-21 02:00:00+00:00,8810.0,6.38,,
250657,2024-01-21 03:00:00+00:00,0.0,2024-01-21 02:56,9.0,5.0,,1011.1,330.0,13.8,29.76,83.41,12.0,-7.27,,22.0,M,,,GNR,1070661,2024-01-21 03:00:00+00:00,8830.0,6.39,,
250658,2024-01-21 04:00:00+00:00,0.25,2024-01-21 03:56,9.0,5.0,,1011.6,300.0,8.05,29.77,83.41,7.0,-3.26,,20.0,M,,,GNR,1070665,2024-01-21 04:00:00+00:00,8860.0,6.4,,
250659,2024-01-21 05:00:00+00:00,0.0,2024-01-21 04:56,9.0,5.0,,1011.9,310.0,8.05,29.79,83.41,7.0,-3.26,,17.0,M,,,GNR,1070669,2024-01-21 05:00:00+00:00,8880.0,6.41,,
250660,2024-01-21 06:00:00+00:00,0.0,2024-01-21 05:56,9.0,5.0,,1012.3,320.0,10.35,29.8,83.41,9.0,-5.09,,18.0,M,,,GNR,1070673,2024-01-21 06:00:00+00:00,4470.0,4.57,,
250661,2024-01-21 07:00:00+00:00,0.0,2024-01-21 06:56,9.0,5.0,,1012.8,320.0,12.65,29.81,83.41,11.0,-6.6,,,M,,,GNR,1070677,2024-01-21 07:00:00+00:00,2070.0,3.32,,
250662,2024-01-21 08:00:00+00:00,0.0,2024-01-21 07:56,9.0,4.0,,1012.8,330.0,13.8,29.81,79.67,12.0,-7.27,,,M,,,GNR,1070681,2024-01-21 08:00:00+00:00,1860.0,3.18,,
250663,2024-01-21 09:00:00+00:00,0.0,2024-01-21 08:56,8.0,4.0,,1013.4,330.0,11.5,29.83,83.34,10.0,-7.13,,18.0,M,,,GNR,1070685,2024-01-21 09:00:00+00:00,1840.0,3.17,,
250664,2024-01-21 10:00:00+00:00,0.0,2024-01-21 09:56,9.0,4.0,,1014.4,320.0,13.8,29.86,79.67,12.0,-7.27,,20.0,M,,,GNR,1070689,2024-01-21 10:00:00+00:00,1840.0,3.17,,
250665,2024-01-21 11:00:00+00:00,0.0,2024-01-21 10:56,9.0,5.0,,1015.2,310.0,6.9,29.88,83.41,6.0,-2.17,,17.0,M,,,GNR,1070693,2024-01-21 11:00:00+00:00,1840.0,3.17,,
250666,2024-01-21 12:00:00+00:00,0.0,2024-01-21 11:56,10.0,5.0,,1016.0,330.0,13.8,29.91,79.76,12.0,-6.0,,,M,,,GNR,1070697,2024-01-21 12:00:00+00:00,6310.0,5.38,,
250667,2024-01-21 13:00:00+00:00,0.0,2024-01-21 12:56,9.0,4.0,,1016.8,320.0,18.4,29.93,79.67,16.0,-9.56,,28.0,M,32.0,,GNR,1070701,2024-01-21 13:00:00+00:00,8910.0,6.42,,
250668,2024-01-21 14:00:00+00:00,0.0,2024-01-21 13:56,9.0,2.0,,1018.1,330.0,17.25,29.97,72.64,15.0,-9.04,,21.0,M,29.0,,GNR,1070705,2024-01-21 14:00:00+00:00,4420.0,4.55,,
250669,2024-01-21 15:00:00+00:00,0.0,2024-01-21 14:56,9.0,2.0,,1018.7,340.0,18.4,29.98,72.64,16.0,-9.56,,23.0,M,27.0,,GNR,1070709,2024-01-21 15:00:00+00:00,2070.0,3.32,,
250670,2024-01-21 16:00:00+00:00,0.0,2024-01-21 15:56,10.0,1.0,,1018.6,320.0,14.95,29.98,66.29,13.0,-6.62,,23.0,M,26.0,,GNR,1070713,2024-01-21 16:00:00+00:00,1840.0,3.17,,
250671,2024-01-21 17:00:00+00:00,0.0,2024-01-21 16:56,10.0,0.0,,1018.4,330.0,17.25,29.98,63.26,15.0,-7.74,,23.0,M,26.0,,GNR,1070717,2024-01-21 17:00:00+00:00,1830.0,3.16,,
250672,2024-01-21 18:00:00+00:00,0.0,2024-01-21 17:56,10.0,0.0,,1018.5,330.0,14.95,29.98,63.26,13.0,-6.62,,21.0,M,26.0,,GNR,1070721,2024-01-21 18:00:00+00:00,1830.0,3.16,,
250673,2024-01-21 19:00:00+00:00,0.0,2024-01-21 18:56,11.0,0.0,,1018.8,330.0,12.65,29.99,60.5,11.0,-4.07,,21.0,M,,,GNR,1070725,2024-01-21 19:00:00+00:00,1830.0,3.16,,
250674,2024-01-21 20:00:00+00:00,0.0,2024-01-21 19:56,11.0,0.0,,1019.3,320.0,14.95,30.0,60.5,13.0,-5.34,,20.0,M,,,GNR,1070729,2024-01-21 20:00:00+00:00,1810.0,3.15,,
250675,2024-01-21 21:00:00+00:00,0.0,2024-01-21 20:56,9.0,-1.0,,1020.0,320.0,9.2,30.02,63.12,8.0,-4.22,,17.0,M,,,GNR,1070733,2024-01-21 21:00:00+00:00,1810.0,3.15,,
250676,2024-01-21 22:00:00+00:00,0.0,2024-01-21 21:56,7.0,-1.0,,1020.9,320.0,13.8,30.05,69.08,12.0,-9.82,,22.0,M,,,GNR,1070737,2024-01-21 22:00:00+00:00,1840.0,3.17,,
250677,2024-01-21 23:00:00+00:00,0.0,2024-01-21 22:56,6.0,-2.0,,1021.5,320.0,19.55,30.06,68.96,17.0,-13.99,,29.0,M,31.0,,GNR,1070741,2024-01-21 23:00:00+00:00,4260.0,4.47,,
250678,2024-01-22 00:00:00+00:00,0.0,2024-01-21 23:56,4.0,-3.0,,1022.8,320.0,19.55,30.1,72.06,17.0,-16.61,,29.0,M,32.0,,GNR,1070745,2024-01-22 00:00:00+00:00,8990.0,6.45,,
250679,2024-01-22 01:00:00+00:00,0.0,2024-01-22 00:56,4.0,-3.0,,1023.3,320.0,16.1,30.11,72.06,14.0,-14.93,,27.0,M,27.0,,GNR,1070749,2024-01-22 01:00:00+00:00,8780.0,6.37,,
250680,2024-01-22 02:00:00+00:00,0.0,2024-01-22 01:56,3.0,-2.0,,1023.6,330.0,17.25,30.12,79.14,15.0,-16.82,,26.0,M,29.0,,GNR,1070753,2024-01-22 02:00:00+00:00,8830.0,6.39,,
250681,2024-01-22 03:00:00+00:00,0.0,2024-01-22 02:56,4.0,-2.0,,1024.4,350.0,11.5,30.14,75.57,10.0,-12.14,,19.0,M,26.0,,GNR,1070757,2024-01-22 03:00:00+00:00,8810.0,6.38,,
250682,2024-01-22 04:00:00+00:00,0.0,2024-01-22 03:56,5.0,-2.0,,1024.7,330.0,17.25,30.16,72.18,15.0,-14.22,,22.0,M,,,GNR,1070761,2024-01-22 04:00:00+00:00,8860.0,6.4,,
250683,2024-01-22 05:00:00+00:00,0.0,2024-01-22 04:56,6.0,-1.0,,1025.1,330.0,18.4,30.17,72.29,16.0,-13.47,,23.0,M,30.0,,GNR,1070765,2024-01-22 05:00:00+00:00,4300.0,4.49,,
250684,2024-01-22 06:00:00+00:00,0.0,2024-01-22 05:56,6.0,-1.0,,1025.2,320.0,18.4,30.17,72.29,16.0,-13.47,,26.0,M,28.0,,GNR,1070769,2024-01-22 06:00:00+00:00,2040.0,3.3,,
250685,2024-01-22 07:00:00+00:00,0.0,2024-01-22 06:56,8.0,0.0,,1025.4,310.0,16.1,30.18,69.21,14.0,-9.77,,29.0,M,32.0,,GNR,1070773,2024-01-22 07:00:00+00:00,1840.0,3.17,,
250686,2024-01-22 08:00:00+00:00,0.0,2024-01-22 07:56,9.0,-1.0,,1025.7,320.0,13.8,30.19,63.12,12.0,-7.27,,26.0,M,31.0,,GNR,1070777,2024-01-22 08:00:00+00:00,1830.0,3.16,,
250687,2024-01-22 09:00:00+00:00,0.0,2024-01-22 08:56,10.0,-1.0,,1026.4,360.0,8.05,30.21,60.36,7.0,-2.04,,,M,,,GNR,1070781,2024-01-22 09:00:00+00:00,1840.0,3.17,,
250688,2024-01-22 10:00:00+00:00,0.0,2024-01-22 09:56,9.0,0.0,,1026.3,10.0,8.05,30.2,66.16,7.0,-3.26,,,M,,,GNR,1070785,2024-01-22 10:00:00+00:00,1840.0,3.17,,
250689,2024-01-22 11:00:00+00:00,0.0,2024-01-22 10:56,15.0,4.0,,1026.0,330.0,9.2,30.2,61.09,8.0,3.17,,,M,,,GNR,1070789,2024-01-22 11:00:00+00:00,1860.0,3.18,,
250690,2024-01-22 12:00:00+00:00,0.0,2024-01-22 11:56,17.0,8.0,,1025.9,340.0,12.65,30.2,67.2,11.0,3.51,,,M,,,GNR,1070793,2024-01-22 12:00:00+00:00,1870.0,3.19,,
250691,2024-01-22 13:00:00+00:00,0.0,2024-01-22 12:56,19.0,11.0,,1025.8,340.0,4.6,30.2,70.53,4.0,12.24,,,M,,,GNR,1070797,2024-01-22 13:00:00+00:00,6100.0,5.29,,
250692,2024-01-22 14:00:00+00:00,0.0,2024-01-22 13:56,20.0,11.0,,1025.9,240.0,4.6,30.2,67.58,4.0,13.41,,,M,,,GNR,1070801,2024-01-22 14:00:00+00:00,9140.0,6.51,,
250693,2024-01-22 15:00:00+00:00,0.0,2024-01-22 14:56,20.0,11.0,,1025.7,,,30.19,67.58,,,,,M,,,GNR,1070805,2024-01-22 15:00:00+00:00,8880.0,6.41,,
250694,2024-01-22 16:00:00+00:00,0.0,2024-01-22 15:56,23.0,11.0,,1024.8,,3.45,30.17,59.52,3.0,18.4,,,M,,,GNR,1070809,2024-01-22 16:00:00+00:00,4400.0,4.54,,
250695,2024-01-22 17:00:00+00:00,0.0,2024-01-22 16:56,25.0,11.0,,1023.5,,,30.14,54.75,,,,,M,,,GNR,1070813,2024-01-22 17:00:00+00:00,2060.0,3.31,,
250696,2024-01-22 18:00:00+00:00,0.0,2024-01-22 17:56,28.0,11.0,,1023.0,,4.6,30.12,48.36,4.0,22.75,,,M,,,GNR,1070817,2024-01-22 18:00:00+00:00,1830.0,3.16,,
250697,2024-01-22 19:00:00+00:00,0.0,2024-01-22 18:56,30.0,11.0,,1022.0,0.0,0.0,30.1,44.57,0.0,30.0,,,M,,,GNR,1070821,2024-01-22 19:00:00+00:00,1830.0,3.16,,
250698,2024-01-22 20:00:00+00:00,0.0,2024-01-22 19:56,30.0,10.0,,1021.7,,4.6,30.1,42.62,4.0,25.08,,,M,,,GNR,1070825,2024-01-22 20:00:00+00:00,1810.0,3.15,,
250699,2024-01-22 21:00:00+00:00,0.0,2024-01-22 20:56,30.0,11.0,,1021.5,,3.45,30.09,44.57,3.0,26.4,,,M,,,GNR,1070829,2024-01-22 21:00:00+00:00,1810.0,3.15,,
250700,2024-01-22 22:00:00+00:00,0.0,2024-01-22 21:56,30.0,11.0,,1021.0,,5.75,30.07,44.57,5.0,24.02,,,M,,,GNR,1070833,2024-01-22 22:00:00+00:00,1810.0,3.15,,
250701,2024-01-22 23:00:00+00:00,0.0,2024-01-22 22:56,29.0,11.0,,1020.7,,5.75,30.07,46.42,5.0,22.83,,,M,,,GNR,1070837,2024-01-22 23:00:00+00:00,6410.0,5.42,,
250702,2024-01-23 00:00:00+00:00,0.0,2024-01-22 23:56,29.0,10.0,,1019.9,,5.75,30.05,44.4,5.0,22.83,,,M,,,GNR,1070841,2024-01-23 00:00:00+00:00,8810.0,6.38,,
250703,2024-01-23 01:00:00+00:00,0.0,2024-01-23 00:56,30.0,10.0,,1019.2,,,30.03,42.62,,,,,M,,,GNR,1070845,2024-01-23 01:00:00+00:00,8860.0,6.4,,
250704,2024-01-23 02:00:00+00:00,0.0,2024-01-23 01:56,30.0,14.0,,1018.8,,5.75,30.02,50.88,5.0,24.02,,,M,,,GNR,1070849,2024-01-23 02:00:00+00:00,8860.0,6.4,,
250705,2024-01-23 03:00:00+00:00,0.0,2024-01-23 02:56,29.0,14.0,,1018.6,,3.45,30.01,53.0,3.0,25.26,,,M,,,GNR,1070853,2024-01-23 03:00:00+00:00,4420.0,4.55,,
250706,2024-01-23 04:00:00+00:00,0.0,2024-01-23 03:56,30.0,16.0,,1018.7,,6.9,30.02,55.52,6.0,23.12,,,M,,,GNR,1070857,2024-01-23 04:00:00+00:00,2060.0,3.31,,
250707,2024-01-23 05:00:00+00:00,0.0,2024-01-23 04:56,29.0,19.0,,1018.9,280.0,12.65,30.03,65.81,11.0,18.68,,25.0,M,,,GNR,1070861,2024-01-23 05:00:00+00:00,1830.0,3.16,,
250708,2024-01-23 06:00:00+00:00,0.0,2024-01-23 05:56,28.0,19.0,,1019.1,300.0,9.2,30.03,68.57,8.0,19.19,,17.0,M,26.0,,GNR,1070865,2024-01-23 06:00:00+00:00,1810.0,3.15,,
250709,2024-01-23 07:00:00+00:00,0.0,2024-01-23 06:56,27.0,20.0,,1019.5,290.0,8.05,30.05,74.57,7.0,18.68,,22.0,M,,,GNR,1070869,2024-01-23 07:00:00+00:00,1810.0,3.15,,
250710,2024-01-23 08:00:00+00:00,0.0,2024-01-23 07:56,27.0,20.0,,1019.7,290.0,10.35,30.05,74.57,9.0,17.3,,19.0,M,,,GNR,1070873,2024-01-23 08:00:00+00:00,1800.0,3.14,,
250711,2024-01-23 09:00:00+00:00,0.0,2024-01-23 08:56,27.0,20.0,,1020.3,310.0,11.5,30.07,74.57,10.0,16.7,,19.0,M,,,GNR,1070877,2024-01-23 09:00:00+00:00,1800.0,3.14,,
250712,2024-01-23 10:00:00+00:00,0.0,2024-01-23 09:56,27.0,20.0,,1020.5,310.0,12.65,30.08,74.57,11.0,16.15,,25.0,M,28.0,,GNR,1070881,2024-01-23 10:00:00+00:00,1800.0,3.14,,
250713,2024-01-23 11:00:00+00:00,0.0,2024-01-23 10:56,27.0,20.0,,1021.8,300.0,11.5,30.11,74.57,10.0,16.7,,22.0,M,27.0,,GNR,1070885,2024-01-23 11:00:00+00:00,1800.0,3.14,,
250714,2024-01-23 12:00:00+00:00,0.0,2024-01-23 11:56,27.0,19.0,,1022.1,310.0,20.7,30.12,71.45,18.0,13.17,,30.0,M,30.0,,GNR,1070889,2024-01-23 12:00:00+00:00,3580.0,4.15,,
250715,2024-01-23 13:00:00+00:00,0.0,2024-01-23 12:56,26.0,18.0,,1023.6,310.0,13.8,30.16,71.33,12.0,14.37,,22.0,M,32.0,,GNR,1070893,2024-01-23 13:00:00+00:00,8810.0,6.38,,
250716,2024-01-23 14:00:00+00:00,0.0,2024-01-23 13:56,25.0,19.0,,1025.0,310.0,16.1,30.2,77.62,14.0,12.14,,28.0,M,28.0,,GNR,1070897,2024-01-23 14:00:00+00:00,4340.0,4.51,,
250717,2024-01-23 15:00:00+00:00,0.0,2024-01-23 14:56,26.0,19.0,,1026.1,330.0,12.65,30.24,74.46,11.0,14.88,,20.0,M,27.0,,GNR,1070901,2024-01-23 15:00:00+00:00,2030.0,3.29,,
250718,2024-01-23 16:00:00+00:00,0.0,2024-01-23 15:56,27.0,17.0,,1026.7,330.0,16.1,30.26,65.56,14.0,14.72,,24.0,M,30.0,,GNR,1070905,2024-01-23 16:00:00+00:00,1810.0,3.15,,
250719,2024-01-23 17:00:00+00:00,0.0,2024-01-23 16:56,27.0,13.0,,1027.4,320.0,20.7,30.28,55.06,18.0,13.17,,28.0,M,29.0,,GNR,1070909,2024-01-23 17:00:00+00:00,1800.0,3.14,,
250720,2024-01-23 18:00:00+00:00,0.0,2024-01-23 17:56,25.0,9.0,,1028.9,330.0,14.95,30.32,50.07,13.0,12.6,,21.0,M,32.0,,GNR,1070913,2024-01-23 18:00:00+00:00,1800.0,3.14,,
250721,2024-01-23 19:00:00+00:00,0.0,2024-01-23 18:56,25.0,8.0,,1029.4,330.0,12.65,30.33,47.86,11.0,13.62,,21.0,M,,,GNR,1070917,2024-01-23 19:00:00+00:00,1800.0,3.14,,
250722,2024-01-23 20:00:00+00:00,0.0,2024-01-23 19:56,24.0,8.0,,1030.5,330.0,13.8,30.36,49.9,12.0,11.82,,18.0,M,,,GNR,1070921,2024-01-23 20:00:00+00:00,1800.0,3.14,,
250723,2024-01-23 21:00:00+00:00,0.0,2024-01-23 20:56,22.0,7.0,,1031.5,350.0,10.35,30.39,51.88,9.0,11.08,,,M,,,GNR,1070925,2024-01-23 21:00:00+00:00,1780.0,3.13,,
250724,2024-01-23 22:00:00+00:00,0.0,2024-01-23 21:56,19.0,1.0,,1032.8,10.0,6.9,30.42,44.72,6.0,9.87,,,M,,,GNR,1070929,2024-01-23 22:00:00+00:00,1780.0,3.13,,
250725,2024-01-23 23:00:00+00:00,0.0,2024-01-23 22:56,17.0,-4.0,,1033.9,360.0,10.35,30.45,38.48,9.0,4.86,,,M,,,GNR,1070933,2024-01-23 23:00:00+00:00,1780.0,3.13,,
250726,2024-01-24 00:00:00+00:00,0.0,2024-01-23 23:56,15.0,-3.0,,1034.7,350.0,10.35,30.47,44.02,9.0,2.38,,,M,,,GNR,1070937,2024-01-24 00:00:00+00:00,6340.0,5.39,,
250727,2024-01-24 01:00:00+00:00,0.0,2024-01-24 00:56,14.0,-2.0,,1035.4,,3.45,30.49,48.23,3.0,8.11,,,M,,,GNR,1070941,2024-01-24 01:00:00+00:00,8860.0,6.4,,
250728,2024-01-24 02:00:00+00:00,0.0,2024-01-24 01:56,12.0,-6.0,,1036.0,350.0,8.05,30.51,43.49,7.0,0.4,,,M,,,GNR,1070945,2024-01-24 02:00:00+00:00,8880.0,6.41,,
250729,2024-01-24 03:00:00+00:00,0.0,2024-01-24 02:56,11.0,-7.0,,1036.6,360.0,4.6,30.52,43.32,4.0,2.9,,,M,,,GNR,1070949,2024-01-24 03:00:00+00:00,4170.0,4.43,,
250730,2024-01-24 04:00:00+00:00,0.0,2024-01-24 03:56,12.0,-9.0,,1036.5,10.0,5.75,30.53,37.58,5.0,2.64,,,M,,,GNR,1070953,2024-01-24 04:00:00+00:00,1990.0,3.27,,
250731,2024-01-24 05:00:00+00:00,0.0,2024-01-24 04:56,9.0,-6.0,,1036.8,0.0,0.0,30.53,49.72,0.0,9.0,,,M,,,GNR,1070957,2024-01-24 05:00:00+00:00,1800.0,3.14,,
250732,2024-01-24 06:00:00+00:00,0.0,2024-01-24 05:56,7.0,-7.0,,1036.5,360.0,4.6,30.52,51.84,4.0,-1.77,,,M,,,GNR,1070961,2024-01-24 06:00:00+00:00,1800.0,3.14,,
250733,2024-01-24 07:00:00+00:00,0.0,2024-01-24 06:56,8.0,-6.0,,1036.5,0.0,0.0,30.52,52.01,0.0,8.0,,,M,,,GNR,1070965,2024-01-24 07:00:00+00:00,1800.0,3.14,,
250734,2024-01-24 08:00:00+00:00,0.0,2024-01-24 07:56,8.0,-5.0,,1036.4,0.0,0.0,30.51,54.58,0.0,8.0,,,M,,,GNR,1070969,2024-01-24 08:00:00+00:00,1800.0,3.14,,
250735,2024-01-24 09:00:00+00:00,0.0,2024-01-24 08:56,8.0,-4.0,,1036.5,150.0,4.6,30.51,57.26,4.0,-0.61,,,M,,,GNR,1070973,2024-01-24 09:00:00+00:00,1810.0,3.15,,
250736,2024-01-24 10:00:00+00:00,0.0,2024-01-24 09:56,8.0,-3.0,,1036.7,180.0,3.45,30.52,60.06,3.0,1.25,,,M,,,GNR,1070977,2024-01-24 10:00:00+00:00,1840.0,3.17,,
250737,2024-01-24 11:00:00+00:00,0.0,2024-01-24 10:56,7.0,-3.0,,1037.1,140.0,5.75,30.53,62.84,5.0,-3.29,,,M,,,GNR,1070981,2024-01-24 11:00:00+00:00,1860.0,3.18,,
250738,2024-01-24 12:00:00+00:00,0.0,2024-01-24 11:56,7.0,-3.0,,1036.9,160.0,3.45,30.52,62.84,3.0,0.11,,,M,,,GNR,1070985,2024-01-24 12:00:00+00:00,1870.0,3.19,,
250739,2024-01-24 13:00:00+00:00,0.0,2024-01-24 12:56,7.0,-3.0,,1036.2,150.0,5.75,30.5,62.84,5.0,-3.29,,,M,,,GNR,1070989,2024-01-24 13:00:00+00:00,1900.0,3.21,,
250740,2024-01-24 14:00:00+00:00,0.0,2024-01-24 13:56,8.0,-3.0,,1036.0,140.0,9.2,30.49,60.06,8.0,-5.45,,,M,,,GNR,1070993,2024-01-24 14:00:00+00:00,1920.0,3.22,,
250741,2024-01-24 15:00:00+00:00,0.0,2024-01-24 14:56,11.0,-3.0,,1035.6,140.0,9.2,30.48,52.51,8.0,-1.76,,,M,,,GNR,1070997,2024-01-24 15:00:00+00:00,1920.0,3.22,,
250742,2024-01-24 16:00:00+00:00,0.0,2024-01-24 15:56,13.0,0.0,,1035.2,160.0,3.45,30.47,55.38,3.0,6.97,,,M,,,GNR,1071001,2024-01-24 16:00:00+00:00,1920.0,3.22,,
250743,2024-01-24 17:00:00+00:00,0.0,2024-01-24 16:56,13.0,1.0,,1034.3,160.0,5.75,30.44,58.03,5.0,3.83,,,M,,,GNR,1071005,2024-01-24 17:00:00+00:00,6680.0,5.53,,
250744,2024-01-24 18:00:00+00:00,0.0,2024-01-24 17:56,14.0,6.0,,1033.2,140.0,9.2,30.41,69.94,8.0,1.94,,,M,,,GNR,1071009,2024-01-24 18:00:00+00:00,8880.0,6.41,,
250745,2024-01-24 19:00:00+00:00,0.0,2024-01-24 18:56,14.0,7.0,,1032.2,140.0,6.9,30.38,73.19,6.0,3.85,,,M,,,GNR,1071013,2024-01-24 19:00:00+00:00,4170.0,4.43,,
250746,2024-01-24 20:00:00+00:00,0.0,2024-01-24 19:56,14.0,8.0,,1031.7,160.0,3.45,30.37,76.58,3.0,8.11,,,M,,,GNR,1071017,2024-01-24 20:00:00+00:00,1990.0,3.27,,
250747,2024-01-24 21:00:00+00:00,0.0,2024-01-24 20:56,14.0,8.0,,1031.2,140.0,5.75,30.35,76.58,5.0,5.02,,,M,,,GNR,1071021,2024-01-24 21:00:00+00:00,1800.0,3.14,,
250748,2024-01-24 22:00:00+00:00,0.0,2024-01-24 21:56,15.0,11.0,,1030.2,150.0,6.9,30.32,83.84,6.0,5.06,,,M,,,GNR,1071025,2024-01-24 22:00:00+00:00,1780.0,3.13,,
250749,2024-01-24 23:00:00+00:00,0.0,2024-01-24 22:56,15.0,12.0,,1029.5,130.0,6.9,30.3,87.65,6.0,5.06,,,M,,,GNR,1071029,2024-01-24 23:00:00+00:00,4880.0,4.76,,
250750,2024-01-25 00:00:00+00:00,0.25,2024-01-24 23:56,16.0,13.0,,1028.5,140.0,8.05,30.28,87.7,7.0,5.28,,,M,,,GNR,1071033,2024-01-25 00:00:00+00:00,8830.0,6.39,,
250751,2024-01-25 01:00:00+00:00,0.0,2024-01-25 00:56,16.0,14.0,,1027.6,140.0,8.05,30.25,91.64,7.0,5.28,,,M,,,GNR,1071037,2024-01-25 01:00:00+00:00,8860.0,6.4,,
250752,2024-01-25 02:00:00+00:00,0.25,2024-01-25 01:56,17.0,15.0,,1026.1,110.0,6.9,30.21,91.68,6.0,7.46,,,M,,,GNR,1071041,2024-01-25 02:00:00+00:00,8940.0,6.43,,
250753,2024-01-25 03:00:00+00:00,0.0,2024-01-25 02:56,18.0,16.0,,1024.8,130.0,6.9,30.17,91.72,6.0,8.67,,,M,,,GNR,1071045,2024-01-25 03:00:00+00:00,4530.0,4.6,,
250754,2024-01-25 04:00:00+00:00,0.25,2024-01-25 03:56,19.0,17.0,,1023.6,130.0,5.75,30.14,91.76,5.0,10.96,,,M,,,GNR,1071049,2024-01-25 04:00:00+00:00,2060.0,3.31,,
250755,2024-01-25 05:00:00+00:00,1.02,2024-01-25 04:56,19.0,17.0,,1022.3,130.0,6.9,30.1,91.76,6.0,9.87,,,M,,,GNR,1071053,2024-01-25 05:00:00+00:00,1810.0,3.15,,
250756,2024-01-25 06:00:00+00:00,1.27,2024-01-25 05:56,20.0,18.0,,1021.5,0.0,0.0,30.08,91.79,0.0,20.0,,,M,,,GNR,1071057,2024-01-25 06:00:00+00:00,1800.0,3.14,,
250757,2024-01-25 07:00:00+00:00,1.52,2024-01-25 06:56,24.0,21.0,,1020.1,0.0,0.0,30.05,88.13,0.0,24.0,,,M,,,GNR,1071061,2024-01-25 07:00:00+00:00,1800.0,3.14,,
250758,2024-01-25 08:00:00+00:00,0.76,2024-01-25 07:56,27.0,25.0,,1019.0,0.0,0.0,30.02,92.05,0.0,27.0,,,M,,,GNR,1071065,2024-01-25 08:00:00+00:00,1800.0,3.14,,
250759,2024-01-25 09:00:00+00:00,0.51,2024-01-25 08:56,28.0,25.0,,1017.9,0.0,0.0,29.98,88.33,0.0,28.0,,,M,,,GNR,1071069,2024-01-25 09:00:00+00:00,1780.0,3.13,,
250760,2024-01-25 10:00:00+00:00,0.51,2024-01-25 09:56,25.0,23.0,,1017.2,310.0,3.45,29.96,91.97,3.0,20.69,,,M,,,GNR,1071073,2024-01-25 10:00:00+00:00,1780.0,3.13,,
250761,2024-01-25 11:00:00+00:00,0.0,2024-01-25 10:56,24.0,23.0,,1017.0,330.0,3.45,29.96,95.89,3.0,19.54,,,M,,,GNR,1071077,2024-01-25 11:00:00+00:00,1780.0,3.13,,
250762,2024-01-25 12:00:00+00:00,0.0,2024-01-25 11:56,25.0,23.0,,1018.0,290.0,3.45,29.99,91.97,3.0,20.69,,,M,,,GNR,1071081,2024-01-25 12:00:00+00:00,1770.0,3.12,,
250763,2024-01-25 13:00:00+00:00,0.0,2024-01-25 12:56,26.0,23.0,,1018.2,0.0,0.0,29.99,88.23,0.0,26.0,,,M,,,GNR,1071085,2024-01-25 13:00:00+00:00,1770.0,3.12,,
250764,2024-01-25 14:00:00+00:00,0.0,2024-01-25 13:56,29.0,26.0,,1018.8,330.0,9.2,30.02,88.38,8.0,20.42,,,M,,,GNR,1071089,2024-01-25 14:00:00+00:00,1780.0,3.13,,
250765,2024-01-25 15:00:00+00:00,0.0,2024-01-25 14:56,30.0,28.0,,1019.6,320.0,10.35,30.04,92.15,9.0,21.03,,17.0,M,,,GNR,1071093,2024-01-25 15:00:00+00:00,1770.0,3.12,,
250766,2024-01-25 16:00:00+00:00,0.0,2024-01-25 15:56,32.0,30.0,,1019.6,310.0,10.35,30.04,92.22,9.0,23.51,,,M,,,GNR,1071097,2024-01-25 16:00:00+00:00,1770.0,3.12,,
250767,2024-01-25 17:00:00+00:00,0.0,2024-01-25 16:56,33.0,30.0,,1019.6,310.0,9.2,30.04,88.58,8.0,25.34,,16.0,M,,,GNR,1071101,2024-01-25 17:00:00+00:00,1770.0,3.12,,
250768,2024-01-25 18:00:00+00:00,0.0,2024-01-25 17:56,34.0,30.0,,1020.1,,4.6,30.06,85.11,4.0,29.76,,,M,,,GNR,1071105,2024-01-25 18:00:00+00:00,1780.0,3.13,,
250769,2024-01-25 19:00:00+00:00,0.0,2024-01-25 18:56,34.0,29.0,,1020.2,330.0,11.5,30.07,81.71,10.0,25.48,,,M,,,GNR,1071109,2024-01-25 19:00:00+00:00,1770.0,3.12,,
250770,2024-01-25 20:00:00+00:00,0.0,2024-01-25 19:56,34.0,27.0,,1020.8,340.0,12.65,30.09,75.26,11.0,24.99,,,M,,,GNR,1071113,2024-01-25 20:00:00+00:00,1780.0,3.13,,
250771,2024-01-25 21:00:00+00:00,0.0,2024-01-25 20:56,32.0,28.0,,1022.0,340.0,10.35,30.12,84.98,9.0,23.51,,,M,,,GNR,1071117,2024-01-25 21:00:00+00:00,1770.0,3.12,,
250772,2024-01-25 22:00:00+00:00,0.0,2024-01-25 21:56,32.0,28.0,,1023.1,340.0,8.05,30.15,84.98,7.0,24.78,,,M,,,GNR,1071121,2024-01-25 22:00:00+00:00,1770.0,3.12,,
250773,2024-01-25 23:00:00+00:00,0.25,2024-01-25 22:56,32.0,28.0,,1024.3,350.0,4.6,30.18,84.98,4.0,27.42,,,M,,,GNR,1071125,2024-01-25 23:00:00+00:00,6630.0,5.51,,
250774,2024-01-26 00:00:00+00:00,0.0,2024-01-25 23:56,32.0,28.0,,1025.3,20.0,5.75,30.22,84.98,5.0,26.4,,,M,,,GNR,1071129,2024-01-26 00:00:00+00:00,8700.0,6.34,,
250775,2024-01-26 01:00:00+00:00,0.0,2024-01-26 00:56,31.0,27.0,,1025.6,10.0,4.6,30.23,84.92,4.0,26.25,,,M,,,GNR,1071133,2024-01-26 01:00:00+00:00,8730.0,6.35,,
250776,2024-01-26 02:00:00+00:00,0.0,2024-01-26 01:56,31.0,25.0,,1025.8,0.0,0.0,30.23,78.16,0.0,31.0,,,M,,,GNR,1071137,2024-01-26 02:00:00+00:00,8750.0,6.36,,
250777,2024-01-26 03:00:00+00:00,0.0,2024-01-26 02:56,30.0,25.0,,1025.8,0.0,0.0,30.23,81.4,0.0,30.0,,,M,,,GNR,1071141,2024-01-26 03:00:00+00:00,4150.0,4.42,,
250778,2024-01-26 04:00:00+00:00,0.0,2024-01-26 03:56,30.0,27.0,,1026.6,160.0,4.6,30.26,88.44,4.0,25.08,,,M,,,GNR,1071145,2024-01-26 04:00:00+00:00,2010.0,3.28,,
250779,2024-01-26 05:00:00+00:00,0.0,2024-01-26 04:56,29.0,25.0,,1026.3,150.0,4.6,30.25,84.79,4.0,23.92,,,M,,,GNR,1071149,2024-01-26 05:00:00+00:00,1800.0,3.14,,
250780,2024-01-26 06:00:00+00:00,0.0,2024-01-26 05:56,28.0,23.0,,1026.3,160.0,5.75,30.25,81.25,5.0,21.64,,,M,,,GNR,1071153,2024-01-26 06:00:00+00:00,1800.0,3.14,,
250781,2024-01-26 07:00:00+00:00,0.0,2024-01-26 06:56,27.0,23.0,,1026.0,150.0,4.6,30.24,84.66,4.0,21.58,,,M,,,GNR,1071157,2024-01-26 07:00:00+00:00,1780.0,3.13,,
250782,2024-01-26 08:00:00+00:00,0.0,2024-01-26 07:56,26.0,22.0,,1025.8,140.0,4.6,30.23,84.59,4.0,20.41,,,M,,,GNR,1071161,2024-01-26 08:00:00+00:00,1780.0,3.13,,
250783,2024-01-26 09:00:00+00:00,0.0,2024-01-26 08:56,26.0,22.0,,1025.1,140.0,5.75,30.21,84.59,5.0,19.27,,,M,,,GNR,1071165,2024-01-26 09:00:00+00:00,1780.0,3.13,,
250784,2024-01-26 10:00:00+00:00,0.0,2024-01-26 09:56,26.0,22.0,,1024.3,150.0,5.75,30.19,84.59,5.0,19.27,,,M,,,GNR,1071169,2024-01-26 10:00:00+00:00,1770.0,3.12,,
250785,2024-01-26 11:00:00+00:00,0.0,2024-01-26 10:56,26.0,23.0,,1023.8,130.0,8.05,30.17,88.23,7.0,17.47,,,M,,,GNR,1071173,2024-01-26 11:00:00+00:00,1770.0,3.12,,
250786,2024-01-26 12:00:00+00:00,0.0,2024-01-26 11:56,26.0,24.0,,1023.4,150.0,4.6,30.16,92.01,4.0,20.41,,,M,,,GNR,1071177,2024-01-26 12:00:00+00:00,1770.0,3.12,,
250787,2024-01-26 13:00:00+00:00,0.0,2024-01-26 12:56,26.0,25.0,,1023.6,140.0,11.5,30.17,95.93,10.0,15.44,,17.0,M,,,GNR,1071181,2024-01-26 13:00:00+00:00,1770.0,3.12,,
250788,2024-01-26 14:00:00+00:00,0.0,2024-01-26 13:56,26.0,24.0,,1023.1,130.0,9.2,30.15,92.01,8.0,16.72,,21.0,M,,,GNR,1071185,2024-01-26 14:00:00+00:00,1770.0,3.12,,
250789,2024-01-26 15:00:00+00:00,0.0,2024-01-26 14:56,26.0,25.0,,1023.8,140.0,9.2,30.17,95.93,8.0,16.72,,,M,,,GNR,1071189,2024-01-26 15:00:00+00:00,1770.0,3.12,,
250790,2024-01-26 16:00:00+00:00,1.02,2024-01-26 15:56,26.0,25.0,,1022.4,130.0,10.35,30.13,95.93,9.0,16.05,,,M,,,GNR,1071193,2024-01-26 16:00:00+00:00,1770.0,3.12,,
250791,2024-01-26 17:00:00+00:00,0.76,2024-01-26 16:56,27.0,25.0,,1021.2,130.0,6.9,30.1,92.05,6.0,19.51,,,M,,,GNR,1071197,2024-01-26 17:00:00+00:00,1780.0,3.13,,
250792,2024-01-26 18:00:00+00:00,1.02,2024-01-26 17:56,27.0,25.0,,1019.6,130.0,10.35,30.05,92.05,9.0,17.3,,,M,,,GNR,1071201,2024-01-26 18:00:00+00:00,1780.0,3.13,,
250793,2024-01-26 19:00:00+00:00,1.02,2024-01-26 18:56,27.0,25.0,,1019.2,120.0,6.9,30.03,92.05,6.0,19.51,,,M,,,GNR,1071205,2024-01-26 19:00:00+00:00,1780.0,3.13,,
250794,2024-01-26 20:00:00+00:00,1.02,2024-01-26 19:56,27.0,25.0,,1019.0,120.0,8.05,30.03,92.05,7.0,18.68,,,M,,,GNR,1071209,2024-01-26 20:00:00+00:00,1780.0,3.13,,
250795,2024-01-26 21:00:00+00:00,1.02,2024-01-26 20:56,27.0,25.0,,1019.5,120.0,5.75,30.04,92.05,5.0,20.46,,,M,,,GNR,1071213,2024-01-26 21:00:00+00:00,1780.0,3.13,,
250796,2024-01-26 22:00:00+00:00,1.52,2024-01-26 21:56,27.0,25.0,,1019.6,110.0,6.9,30.04,92.05,6.0,19.51,,,M,,,GNR,1071217,2024-01-26 22:00:00+00:00,1770.0,3.12,,
250797,2024-01-26 23:00:00+00:00,0.76,2024-01-26 22:56,26.0,24.0,,1019.4,110.0,6.9,30.04,92.01,6.0,18.3,,,M,,,GNR,1071221,2024-01-26 23:00:00+00:00,3580.0,4.15,,
250798,2024-01-27 00:00:00+00:00,0.0,2024-01-26 23:56,27.0,24.0,,1019.8,0.0,0.0,30.05,88.28,0.0,27.0,,,M,,,GNR,1071225,2024-01-27 00:00:00+00:00,8630.0,6.31,,
250799,2024-01-27 01:00:00+00:00,0.0,2024-01-27 00:56,26.0,25.0,,1019.8,0.0,0.0,30.05,95.93,0.0,26.0,,,M,,,GNR,1071229,2024-01-27 01:00:00+00:00,8700.0,6.34,,
250800,2024-01-27 02:00:00+00:00,0.0,2024-01-27 01:56,27.0,25.0,,1019.9,0.0,0.0,30.05,92.05,0.0,27.0,,,M,,,GNR,1071233,2024-01-27 02:00:00+00:00,8700.0,6.34,,
250801,2024-01-27 03:00:00+00:00,0.0,2024-01-27 02:56,27.0,26.0,,1020.5,0.0,0.0,30.07,95.95,0.0,27.0,,,M,,,GNR,1071237,2024-01-27 03:00:00+00:00,4340.0,4.51,,
250802,2024-01-27 04:00:00+00:00,0.0,2024-01-27 03:56,27.0,25.0,,1021.0,0.0,0.0,30.09,92.05,0.0,27.0,,,M,,,GNR,1071241,2024-01-27 04:00:00+00:00,2030.0,3.29,,
250803,2024-01-27 05:00:00+00:00,0.0,2024-01-27 04:56,27.0,26.0,,1021.3,0.0,0.0,30.09,95.95,0.0,27.0,,,M,,,GNR,1071245,2024-01-27 05:00:00+00:00,1800.0,3.14,,
250804,2024-01-27 06:00:00+00:00,0.0,2024-01-27 05:56,26.0,25.0,,1021.2,330.0,5.75,30.09,95.93,5.0,19.27,,,M,,,GNR,1071249,2024-01-27 06:00:00+00:00,1780.0,3.13,,
250805,2024-01-27 07:00:00+00:00,0.0,2024-01-27 06:56,27.0,25.0,,1020.4,360.0,5.75,30.07,92.05,5.0,20.46,,,M,,,GNR,1071253,2024-01-27 07:00:00+00:00,1780.0,3.13,,
250806,2024-01-27 08:00:00+00:00,0.0,2024-01-27 07:56,25.0,24.0,,1020.2,300.0,4.6,30.06,95.91,4.0,19.25,,,M,,,GNR,1071257,2024-01-27 08:00:00+00:00,1780.0,3.13,,
250807,2024-01-27 09:00:00+00:00,0.0,2024-01-27 08:56,25.0,23.0,,1020.3,350.0,4.6,30.07,91.97,4.0,19.25,,,M,,,GNR,1071261,2024-01-27 09:00:00+00:00,1780.0,3.13,,
250808,2024-01-27 10:00:00+00:00,0.0,2024-01-27 09:56,25.0,23.0,,1021.0,300.0,4.6,30.09,91.97,4.0,19.25,,,M,,,GNR,1071265,2024-01-27 10:00:00+00:00,1770.0,3.12,,
250809,2024-01-27 11:00:00+00:00,0.0,2024-01-27 10:56,24.0,23.0,,1022.0,300.0,4.6,30.11,95.89,4.0,18.08,,,M,,,GNR,1071269,2024-01-27 11:00:00+00:00,1770.0,3.12,,
250810,2024-01-27 12:00:00+00:00,0.0,2024-01-27 11:56,24.0,23.0,,1022.0,320.0,4.6,30.12,95.89,4.0,18.08,,,M,,,GNR,1071273,2024-01-27 12:00:00+00:00,1770.0,3.12,,
250811,2024-01-27 13:00:00+00:00,0.0,2024-01-27 12:56,25.0,23.0,,1022.5,320.0,3.45,30.13,91.97,3.0,20.69,,,M,,,GNR,1071277,2024-01-27 13:00:00+00:00,1770.0,3.12,,
250812,2024-01-27 14:00:00+00:00,0.0,2024-01-27 13:56,25.0,23.0,,1023.2,320.0,4.6,30.15,91.97,4.0,19.25,,,M,,,GNR,1071281,2024-01-27 14:00:00+00:00,1770.0,3.12,,
250813,2024-01-27 15:00:00+00:00,0.0,2024-01-27 14:56,26.0,23.0,,1023.2,330.0,5.75,30.15,88.23,5.0,19.27,,,M,,,GNR,1071285,2024-01-27 15:00:00+00:00,1770.0,3.12,,
250814,2024-01-27 16:00:00+00:00,0.0,2024-01-27 15:56,27.0,24.0,,1022.8,,3.45,30.14,88.28,3.0,22.97,,,M,,,GNR,1071289,2024-01-27 16:00:00+00:00,1770.0,3.12,,
250815,2024-01-27 17:00:00+00:00,0.0,2024-01-27 16:56,28.0,25.0,,1022.4,,3.45,30.13,88.33,3.0,24.12,,,M,,,GNR,1071293,2024-01-27 17:00:00+00:00,1770.0,3.12,,
250816,2024-01-27 18:00:00+00:00,0.0,2024-01-27 17:56,28.0,25.0,,1022.3,310.0,4.6,30.12,88.33,4.0,22.75,,,M,,,GNR,1071297,2024-01-27 18:00:00+00:00,1770.0,3.12,,
250817,2024-01-27 19:00:00+00:00,0.0,2024-01-27 18:56,28.0,24.0,,1022.0,330.0,6.9,30.12,84.72,6.0,20.71,,,M,,,GNR,1071301,2024-01-27 19:00:00+00:00,1770.0,3.12,,
250818,2024-01-27 20:00:00+00:00,0.0,2024-01-27 19:56,28.0,24.0,,1021.0,340.0,5.75,30.09,84.72,5.0,21.64,,,M,,,GNR,1071305,2024-01-27 20:00:00+00:00,1770.0,3.12,,
250819,2024-01-27 21:00:00+00:00,0.0,2024-01-27 20:56,28.0,25.0,,1020.8,340.0,4.6,30.08,88.33,4.0,22.75,,,M,,,GNR,1071309,2024-01-27 21:00:00+00:00,1750.0,3.11,,
250820,2024-01-27 22:00:00+00:00,0.0,2024-01-27 21:56,28.0,25.0,,1021.7,0.0,0.0,30.11,88.33,0.0,28.0,,,M,,,GNR,1071313,2024-01-27 22:00:00+00:00,1770.0,3.12,,
250821,2024-01-27 23:00:00+00:00,0.0,2024-01-27 22:56,28.0,25.0,,1021.5,310.0,3.45,30.1,88.33,3.0,24.12,,,M,,,GNR,1071317,2024-01-27 23:00:00+00:00,1770.0,3.12,,
250822,2024-01-28 00:00:00+00:00,0.0,2024-01-27 23:56,28.0,25.0,,1021.6,310.0,4.6,30.1,88.33,4.0,22.75,,,M,,,GNR,1071321,2024-01-28 00:00:00+00:00,5370.0,4.98,,
250823,2024-01-28 01:00:00+00:00,0.0,2024-01-28 00:56,28.0,25.0,,1021.0,,5.75,30.09,88.33,5.0,21.64,,,M,,,GNR,1071325,2024-01-28 01:00:00+00:00,8630.0,6.31,,
250824,2024-01-28 02:00:00+00:00,0.0,2024-01-28 01:56,28.0,25.0,,1021.0,310.0,4.6,30.09,88.33,4.0,22.75,,,M,,,GNR,1071329,2024-01-28 02:00:00+00:00,8650.0,6.32,,
250825,2024-01-28 03:00:00+00:00,0.0,2024-01-28 02:56,29.0,25.0,,1020.4,310.0,5.75,30.07,84.79,5.0,22.83,,,M,,,GNR,1071333,2024-01-28 03:00:00+00:00,8600.0,6.3,,
250826,2024-01-28 04:00:00+00:00,0.0,2024-01-28 03:56,29.0,26.0,,1020.4,0.0,0.0,30.07,88.38,0.0,29.0,,,M,,,GNR,1071337,2024-01-28 04:00:00+00:00,4040.0,4.37,,
250827,2024-01-28 05:00:00+00:00,0.0,2024-01-28 04:56,29.0,26.0,,1020.1,0.0,0.0,30.07,88.38,0.0,29.0,,,M,,,GNR,1071341,2024-01-28 05:00:00+00:00,1980.0,3.26,,
250828,2024-01-28 06:00:00+00:00,0.0,2024-01-28 05:56,29.0,26.0,,1019.1,320.0,5.75,30.04,88.38,5.0,22.83,,,M,,,GNR,1071345,2024-01-28 06:00:00+00:00,1780.0,3.13,,
250829,2024-01-28 07:00:00+00:00,0.0,2024-01-28 06:56,29.0,26.0,,1018.7,310.0,4.6,30.02,88.38,4.0,23.92,,,M,,,GNR,1071349,2024-01-28 07:00:00+00:00,1780.0,3.13,,
250830,2024-01-28 08:00:00+00:00,0.0,2024-01-28 07:56,29.0,25.0,,1017.9,320.0,10.35,30.0,84.79,9.0,19.78,,18.0,M,,,GNR,1071353,2024-01-28 08:00:00+00:00,1770.0,3.12,,
250831,2024-01-28 09:00:00+00:00,0.0,2024-01-28 08:56,29.0,25.0,,1017.3,310.0,8.05,29.98,84.79,7.0,21.12,,,M,,,GNR,1071357,2024-01-28 09:00:00+00:00,1770.0,3.12,,
250832,2024-01-28 10:00:00+00:00,0.0,2024-01-28 09:56,29.0,25.0,,1017.6,300.0,5.75,29.99,84.79,5.0,22.83,,,M,,,GNR,1071361,2024-01-28 10:00:00+00:00,1770.0,3.12,,
250833,2024-01-28 11:00:00+00:00,0.0,2024-01-28 10:56,28.0,25.0,,1017.6,,3.45,29.99,88.33,3.0,24.12,,,M,,,GNR,1071365,2024-01-28 11:00:00+00:00,1770.0,3.12,,
250834,2024-01-28 12:00:00+00:00,0.0,2024-01-28 11:56,28.0,25.0,,1017.8,300.0,4.6,30.0,88.33,4.0,22.75,,,M,,,GNR,1071369,2024-01-28 12:00:00+00:00,1770.0,3.12,,
250835,2024-01-28 13:00:00+00:00,0.0,2024-01-28 12:56,29.0,25.0,,1017.0,0.0,0.0,29.98,84.79,0.0,29.0,,,M,,,GNR,1071373,2024-01-28 13:00:00+00:00,1770.0,3.12,,
250836,2024-01-28 14:00:00+00:00,0.0,2024-01-28 13:56,29.0,25.0,,1017.1,0.0,0.0,29.98,84.79,0.0,29.0,,,M,,,GNR,1071377,2024-01-28 14:00:00+00:00,1750.0,3.11,,
250837,2024-01-28 15:00:00+00:00,0.0,2024-01-28 14:56,30.0,25.0,,1016.4,300.0,4.6,29.96,81.4,4.0,25.08,,,M,,,GNR,1071381,2024-01-28 15:00:00+00:00,1770.0,3.12,,
250838,2024-01-28 16:00:00+00:00,0.0,2024-01-28 15:56,30.0,25.0,,1015.7,0.0,0.0,29.94,81.4,0.0,30.0,,,M,,,GNR,1071385,2024-01-28 16:00:00+00:00,1770.0,3.12,,
250839,2024-01-28 17:00:00+00:00,0.0,2024-01-28 16:56,30.0,25.0,,1014.9,320.0,4.6,29.91,81.4,4.0,25.08,,,M,,,GNR,1071389,2024-01-28 17:00:00+00:00,1750.0,3.11,,
250840,2024-01-28 18:00:00+00:00,0.0,2024-01-28 17:56,30.0,25.0,,1014.0,320.0,4.6,29.89,81.4,4.0,25.08,,,M,,,GNR,1071393,2024-01-28 18:00:00+00:00,1750.0,3.11,,
250841,2024-01-28 19:00:00+00:00,0.0,2024-01-28 18:56,29.0,25.0,,1012.9,320.0,4.6,29.85,84.79,4.0,23.92,,,M,,,GNR,1071397,2024-01-28 19:00:00+00:00,1750.0,3.11,,
250842,2024-01-28 20:00:00+00:00,0.0,2024-01-28 19:56,29.0,24.0,,1012.5,340.0,3.45,29.84,81.32,3.0,25.26,,,M,,,GNR,1071401,2024-01-28 20:00:00+00:00,1750.0,3.11,,
250843,2024-01-28 21:00:00+00:00,0.0,2024-01-28 20:56,29.0,25.0,,1012.1,0.0,0.0,29.83,84.79,0.0,29.0,,,M,,,GNR,1071405,2024-01-28 21:00:00+00:00,1750.0,3.11,,
250844,2024-01-28 22:00:00+00:00,0.0,2024-01-28 21:56,29.0,25.0,,1011.7,0.0,0.0,29.82,84.79,0.0,29.0,,,M,,,GNR,1071409,2024-01-28 22:00:00+00:00,5300.0,4.95,,
250845,2024-01-28 23:00:00+00:00,0.0,2024-01-28 22:56,28.0,25.0,,1011.6,350.0,3.45,29.81,88.33,3.0,24.12,,,M,,,GNR,1071413,2024-01-28 23:00:00+00:00,8780.0,6.37,,
250846,2024-01-29 00:00:00+00:00,0.0,2024-01-28 23:56,28.0,25.0,,1011.2,20.0,5.75,29.8,88.33,5.0,21.64,,,M,,,GNR,1071417,2024-01-29 00:00:00+00:00,8810.0,6.38,,
250847,2024-01-29 01:00:00+00:00,0.0,2024-01-29 00:56,28.0,25.0,,1010.9,30.0,3.45,29.8,88.33,3.0,24.12,,,M,,,GNR,1071421,2024-01-29 01:00:00+00:00,8830.0,6.39,,
250848,2024-01-29 02:00:00+00:00,0.0,2024-01-29 01:56,28.0,25.0,,1009.8,10.0,3.45,29.76,88.33,3.0,24.12,,,M,,,GNR,1071425,2024-01-29 02:00:00+00:00,8860.0,6.4,,
250849,2024-01-29 03:00:00+00:00,0.0,2024-01-29 02:56,28.0,24.0,,1009.0,10.0,4.6,29.74,84.72,4.0,22.75,,,M,,,GNR,1071429,2024-01-29 03:00:00+00:00,8830.0,6.39,,
250850,2024-01-29 04:00:00+00:00,0.0,2024-01-29 03:56,27.0,24.0,,1009.0,350.0,9.2,29.74,88.28,8.0,17.95,,,M,,,GNR,1071433,2024-01-29 04:00:00+00:00,8860.0,6.4,,
250851,2024-01-29 05:00:00+00:00,0.0,2024-01-29 04:56,26.0,24.0,,1008.4,360.0,8.05,29.72,92.01,7.0,17.47,,,M,,,GNR,1071437,2024-01-29 05:00:00+00:00,4170.0,4.43,,
250852,2024-01-29 06:00:00+00:00,0.0,2024-01-29 05:56,26.0,24.0,,1008.4,10.0,9.2,29.72,92.01,8.0,16.72,,,M,,,GNR,1071441,2024-01-29 06:00:00+00:00,1990.0,3.27,,
250853,2024-01-29 07:00:00+00:00,0.0,2024-01-29 06:56,26.0,23.0,,1007.2,10.0,8.05,29.69,88.23,7.0,17.47,,,M,,,GNR,1071445,2024-01-29 07:00:00+00:00,1800.0,3.14,,
250854,2024-01-29 08:00:00+00:00,0.0,2024-01-29 07:56,26.0,23.0,,1006.4,350.0,5.75,29.66,88.23,5.0,19.27,,,M,,,GNR,1071449,2024-01-29 08:00:00+00:00,1780.0,3.13,,
250855,2024-01-29 09:00:00+00:00,0.0,2024-01-29 08:56,26.0,23.0,,1006.1,10.0,16.1,29.65,88.23,14.0,13.43,,28.0,M,28.0,,GNR,1071453,2024-01-29 09:00:00+00:00,1780.0,3.13,,
250856,2024-01-29 10:00:00+00:00,0.0,2024-01-29 09:56,26.0,22.0,,1006.4,360.0,12.65,29.66,84.59,11.0,14.88,,19.0,M,,,GNR,1071457,2024-01-29 10:00:00+00:00,1770.0,3.12,,
250857,2024-01-29 11:00:00+00:00,0.0,2024-01-29 10:56,26.0,21.0,,1007.1,350.0,12.65,29.68,81.09,11.0,14.88,,,M,,,GNR,1071461,2024-01-29 11:00:00+00:00,1770.0,3.12,,
250858,2024-01-29 12:00:00+00:00,0.0,2024-01-29 11:56,26.0,21.0,,1007.9,360.0,10.35,29.7,81.09,9.0,16.05,,17.0,M,,,GNR,1071465,2024-01-29 12:00:00+00:00,1770.0,3.12,,
250859,2024-01-29 13:00:00+00:00,0.0,2024-01-29 12:56,26.0,21.0,,1008.4,360.0,11.5,29.72,81.09,10.0,15.44,,19.0,M,,,GNR,1071469,2024-01-29 13:00:00+00:00,1770.0,3.12,,
250860,2024-01-29 14:00:00+00:00,0.0,2024-01-29 13:56,26.0,22.0,,1008.7,360.0,12.65,29.73,84.59,11.0,14.88,,20.0,M,,,GNR,1071473,2024-01-29 14:00:00+00:00,5880.0,5.2,,
250861,2024-01-29 15:00:00+00:00,0.0,2024-01-29 14:56,26.0,22.0,,1009.3,360.0,11.5,29.74,84.59,10.0,15.44,,19.0,M,,,GNR,1071477,2024-01-29 15:00:00+00:00,8680.0,6.33,,
250862,2024-01-29 16:00:00+00:00,0.0,2024-01-29 15:56,27.0,22.0,,1009.6,10.0,10.35,29.75,81.17,9.0,17.3,,19.0,M,,,GNR,1071481,2024-01-29 16:00:00+00:00,4210.0,4.45,,
250863,2024-01-29 17:00:00+00:00,0.0,2024-01-29 16:56,27.0,21.0,,1010.0,10.0,12.65,29.77,77.8,11.0,16.15,,,M,,,GNR,1071485,2024-01-29 17:00:00+00:00,1990.0,3.27,,
250864,2024-01-29 18:00:00+00:00,0.0,2024-01-29 17:56,27.0,21.0,,1010.4,10.0,13.8,29.78,77.8,12.0,15.64,,,M,,,GNR,1071489,2024-01-29 18:00:00+00:00,1780.0,3.13,,
250865,2024-01-29 19:00:00+00:00,0.0,2024-01-29 18:56,27.0,20.0,,1011.3,360.0,14.95,29.8,74.57,13.0,15.16,,24.0,M,,,GNR,1071493,2024-01-29 19:00:00+00:00,1770.0,3.12,,
250866,2024-01-29 20:00:00+00:00,0.0,2024-01-29 19:56,26.0,20.0,,1012.2,20.0,12.65,29.83,77.71,11.0,14.88,,21.0,M,,,GNR,1071497,2024-01-29 20:00:00+00:00,1770.0,3.12,,
250867,2024-01-29 21:00:00+00:00,0.0,2024-01-29 20:56,26.0,19.0,,1013.2,10.0,13.8,29.86,74.46,12.0,14.37,,20.0,M,,,GNR,1071501,2024-01-29 21:00:00+00:00,1770.0,3.12,,
250868,2024-01-29 22:00:00+00:00,0.0,2024-01-29 21:56,25.0,18.0,,1014.4,360.0,11.5,29.89,74.36,10.0,14.19,,,M,,,GNR,1071505,2024-01-29 22:00:00+00:00,1750.0,3.11,,
250869,2024-01-29 23:00:00+00:00,0.0,2024-01-29 22:56,23.0,19.0,,1015.5,350.0,12.65,29.92,84.39,11.0,11.09,,,M,,,GNR,1071509,2024-01-29 23:00:00+00:00,6220.0,5.34,,
250870,2024-01-30 00:00:00+00:00,0.0,2024-01-29 23:56,22.0,17.0,,1016.8,360.0,13.8,29.96,80.77,12.0,9.27,,18.0,M,,,GNR,1071513,2024-01-30 00:00:00+00:00,8700.0,6.34,,
250871,2024-01-30 01:00:00+00:00,0.0,2024-01-30 00:56,21.0,16.0,,1017.6,350.0,10.35,29.98,80.69,9.0,9.84,,,M,,,GNR,1071517,2024-01-30 01:00:00+00:00,8700.0,6.34,,
250872,2024-01-30 02:00:00+00:00,0.0,2024-01-30 01:56,19.0,14.0,,1018.3,350.0,11.5,30.0,80.52,10.0,6.67,,,M,,,GNR,1071521,2024-01-30 02:00:00+00:00,8750.0,6.36,,
250873,2024-01-30 03:00:00+00:00,0.0,2024-01-30 02:56,17.0,12.0,,1019.0,360.0,8.05,30.02,80.36,7.0,6.5,,,M,,,GNR,1071525,2024-01-30 03:00:00+00:00,8810.0,6.38,,
250874,2024-01-30 04:00:00+00:00,0.0,2024-01-30 03:56,15.0,10.0,,1019.7,360.0,10.35,30.04,80.19,9.0,2.38,,,M,,,GNR,1071529,2024-01-30 04:00:00+00:00,8810.0,6.38,,
250875,2024-01-30 05:00:00+00:00,0.0,2024-01-30 04:56,14.0,9.0,,1020.4,350.0,5.75,30.06,80.1,5.0,5.02,,,M,,,GNR,1071533,2024-01-30 05:00:00+00:00,4400.0,4.54,,
250876,2024-01-30 06:00:00+00:00,0.0,2024-01-30 05:56,13.0,7.0,,1021.0,10.0,6.9,30.08,76.48,6.0,2.65,,,M,,,GNR,1071537,2024-01-30 06:00:00+00:00,2030.0,3.29,,
250877,2024-01-30 07:00:00+00:00,0.0,2024-01-30 06:56,12.0,7.0,,1021.7,10.0,5.75,30.09,79.93,5.0,2.64,,,M,,,GNR,1071541,2024-01-30 07:00:00+00:00,1780.0,3.13,,
250878,2024-01-30 08:00:00+00:00,0.0,2024-01-30 07:56,10.0,6.0,,1022.1,340.0,5.75,30.1,83.49,5.0,0.27,,,M,,,GNR,1071545,2024-01-30 08:00:00+00:00,1770.0,3.12,,
250879,2024-01-30 09:00:00+00:00,0.0,2024-01-30 08:56,7.0,4.0,,1022.9,310.0,5.75,30.12,87.2,5.0,-3.29,,,M,,,GNR,1071549,2024-01-30 09:00:00+00:00,1770.0,3.12,,
250880,2024-01-30 10:00:00+00:00,0.0,2024-01-30 09:56,3.0,0.0,,1023.5,320.0,9.2,30.13,86.96,8.0,-11.61,,,M,,,GNR,1071553,2024-01-30 10:00:00+00:00,1770.0,3.12,,
250881,2024-01-30 11:00:00+00:00,0.0,2024-01-30 10:56,1.0,-3.0,,1024.1,310.0,6.9,30.15,82.81,6.0,-11.81,,,M,,,GNR,1071557,2024-01-30 11:00:00+00:00,1770.0,3.12,,
250882,2024-01-30 12:00:00+00:00,0.0,2024-01-30 11:56,-1.0,-4.0,,1024.8,320.0,4.6,30.17,86.72,4.0,-11.12,,,M,,,GNR,1071561,2024-01-30 12:00:00+00:00,3810.0,4.26,,
250883,2024-01-30 13:00:00+00:00,0.0,2024-01-30 12:56,0.0,-5.0,,1025.6,340.0,4.6,30.19,78.86,4.0,-9.95,,,M,,,GNR,1071565,2024-01-30 13:00:00+00:00,8830.0,6.39,,
250884,2024-01-30 14:00:00+00:00,0.0,2024-01-30 13:56,5.0,1.0,,1025.8,0.0,0.0,30.2,83.12,0.0,5.0,,,M,,,GNR,1071569,2024-01-30 14:00:00+00:00,4040.0,4.37,,
250885,2024-01-30 15:00:00+00:00,0.0,2024-01-30 14:56,5.0,2.0,,1026.4,0.0,0.0,30.21,87.08,0.0,5.0,,,M,,,GNR,1071573,2024-01-30 15:00:00+00:00,1960.0,3.25,,
250886,2024-01-30 16:00:00+00:00,0.0,2024-01-30 15:56,9.0,4.0,,1026.1,0.0,0.0,30.21,79.67,0.0,9.0,,,M,,,GNR,1071577,2024-01-30 16:00:00+00:00,1770.0,3.12,,
250887,2024-01-30 17:00:00+00:00,0.0,2024-01-30 16:56,13.0,3.0,,1025.5,0.0,0.0,30.19,63.68,0.0,13.0,,,M,,,GNR,1071581,2024-01-30 17:00:00+00:00,1770.0,3.12,,
250888,2024-01-30 18:00:00+00:00,0.0,2024-01-30 17:56,15.0,4.0,,1024.9,20.0,3.45,30.17,61.09,3.0,9.25,,,M,,,GNR,1071585,2024-01-30 18:00:00+00:00,1770.0,3.12,,
250889,2024-01-30 19:00:00+00:00,0.0,2024-01-30 18:56,18.0,4.0,,1024.0,0.0,0.0,30.15,53.64,0.0,18.0,,,M,,,GNR,1071589,2024-01-30 19:00:00+00:00,1770.0,3.12,,
250890,2024-01-30 20:00:00+00:00,0.0,2024-01-30 19:56,18.0,3.0,,1024.1,0.0,0.0,30.15,51.23,0.0,18.0,,,M,,,GNR,1071593,2024-01-30 20:00:00+00:00,1750.0,3.11,,
250891,2024-01-30 21:00:00+00:00,0.0,2024-01-30 20:56,17.0,3.0,,1023.9,,3.45,30.14,53.48,3.0,11.54,,,M,,,GNR,1071597,2024-01-30 21:00:00+00:00,1750.0,3.11,,
250892,2024-01-30 22:00:00+00:00,0.0,2024-01-30 21:56,12.0,2.0,,1024.0,0.0,0.0,30.14,63.54,0.0,12.0,,,M,,,GNR,1071601,2024-01-30 22:00:00+00:00,1750.0,3.11,,
250893,2024-01-30 23:00:00+00:00,0.0,2024-01-30 22:56,9.0,-1.0,,1024.1,130.0,4.6,30.13,63.12,4.0,0.56,,,M,,,GNR,1071605,2024-01-30 23:00:00+00:00,1750.0,3.11,,
250894,2024-01-31 00:00:00+00:00,0.0,2024-01-30 23:56,8.0,0.0,,1024.1,0.0,0.0,30.13,69.21,0.0,8.0,,,M,,,GNR,1071609,2024-01-31 00:00:00+00:00,5930.0,5.22,,
250895,2024-01-31 01:00:00+00:00,0.0,2024-01-31 00:56,8.0,-2.0,,1024.0,140.0,3.45,30.13,62.98,3.0,1.25,,,M,,,GNR,1071613,2024-01-31 01:00:00+00:00,8780.0,6.37,,
250896,2024-01-31 02:00:00+00:00,0.0,2024-01-31 01:56,9.0,-3.0,,1023.6,140.0,4.6,30.12,57.41,4.0,0.56,,,M,,,GNR,1071617,2024-01-31 02:00:00+00:00,8780.0,6.37,,
250897,2024-01-31 03:00:00+00:00,0.0,2024-01-31 02:56,8.0,-4.0,,1023.0,120.0,6.9,30.1,57.26,6.0,-3.37,,,M,,,GNR,1071621,2024-01-31 03:00:00+00:00,4380.0,4.53,,
250898,2024-01-31 04:00:00+00:00,0.0,2024-01-31 03:56,8.0,-3.0,,1022.6,150.0,4.6,30.1,60.06,4.0,-0.61,,,M,,,GNR,1071625,2024-01-31 04:00:00+00:00,2030.0,3.29,,
250899,2024-01-31 05:00:00+00:00,0.0,2024-01-31 04:56,6.0,-3.0,,1022.6,170.0,3.45,30.1,65.76,3.0,-1.03,,,M,,,GNR,1071629,2024-01-31 05:00:00+00:00,1770.0,3.12,,
250900,2024-01-31 06:00:00+00:00,0.0,2024-01-31 05:56,6.0,-4.0,,1022.0,130.0,3.45,30.08,62.69,3.0,-1.03,,,M,,,GNR,1071633,2024-01-31 06:00:00+00:00,1770.0,3.12,,
250901,2024-01-31 07:00:00+00:00,0.0,2024-01-31 06:56,5.0,-5.0,,1021.7,0.0,0.0,30.08,62.55,0.0,5.0,,,M,,,GNR,1071637,2024-01-31 07:00:00+00:00,1770.0,3.12,,
250902,2024-01-31 08:00:00+00:00,0.0,2024-01-31 07:56,8.0,-3.0,,1021.1,0.0,0.0,30.06,60.06,0.0,8.0,,,M,,,GNR,1071641,2024-01-31 08:00:00+00:00,1780.0,3.13,,
250903,2024-01-31 09:00:00+00:00,0.0,2024-01-31 08:56,4.0,-4.0,,1020.3,0.0,0.0,30.03,68.7,0.0,4.0,,,M,,,GNR,1071645,2024-01-31 09:00:00+00:00,1800.0,3.14,,
250904,2024-01-31 10:00:00+00:00,0.0,2024-01-31 09:56,5.0,-3.0,,1019.7,0.0,0.0,30.01,68.83,0.0,5.0,,,M,,,GNR,1071649,2024-01-31 10:00:00+00:00,1810.0,3.15,,
250905,2024-01-31 11:00:00+00:00,0.0,2024-01-31 10:56,11.0,1.0,,1019.2,0.0,0.0,30.0,63.4,0.0,11.0,,,M,,,GNR,1071653,2024-01-31 11:00:00+00:00,1830.0,3.16,,
250906,2024-01-31 12:00:00+00:00,0.0,2024-01-31 11:56,12.0,1.0,,1019.4,0.0,0.0,30.0,60.65,0.0,12.0,,,M,,,GNR,1071657,2024-01-31 12:00:00+00:00,1830.0,3.16,,
250907,2024-01-31 13:00:00+00:00,0.0,2024-01-31 12:56,13.0,3.0,,1019.2,0.0,0.0,30.0,63.68,0.0,13.0,,,M,,,GNR,1071661,2024-01-31 13:00:00+00:00,1860.0,3.18,,
250908,2024-01-31 14:00:00+00:00,0.0,2024-01-31 13:56,16.0,6.0,,1018.6,0.0,0.0,29.99,64.09,0.0,16.0,,,M,,,GNR,1071665,2024-01-31 14:00:00+00:00,1870.0,3.19,,
250909,2024-01-31 15:00:00+00:00,0.0,2024-01-31 14:56,17.0,9.0,,1018.3,0.0,0.0,29.98,70.3,0.0,17.0,,,M,,,GNR,1071669,2024-01-31 15:00:00+00:00,1890.0,3.2,,
250910,2024-01-31 16:00:00+00:00,0.0,2024-01-31 15:56,20.0,14.0,,1017.5,0.0,0.0,29.96,77.16,0.0,20.0,,,M,,,GNR,1071673,2024-01-31 16:00:00+00:00,1900.0,3.21,,
250911,2024-01-31 17:00:00+00:00,0.0,2024-01-31 16:56,23.0,16.0,,1016.7,250.0,3.45,29.94,74.15,3.0,18.4,,,M,,,GNR,1071677,2024-01-31 17:00:00+00:00,1920.0,3.22,,
250912,2024-01-31 18:00:00+00:00,0.0,2024-01-31 17:56,25.0,17.0,,1016.0,0.0,0.0,29.92,71.22,0.0,25.0,,,M,,,GNR,1071681,2024-01-31 18:00:00+00:00,1900.0,3.21,,
250913,2024-01-31 19:00:00+00:00,0.0,2024-01-31 18:56,26.0,19.0,,1015.4,,3.45,29.9,74.46,3.0,21.83,,,M,,,GNR,1071685,2024-01-31 19:00:00+00:00,1830.0,3.16,,
250914,2024-01-31 20:00:00+00:00,0.0,2024-01-31 19:56,26.0,20.0,,1015.3,0.0,0.0,29.9,77.71,0.0,26.0,,,M,,,GNR,1071689,2024-01-31 20:00:00+00:00,1770.0,3.12,,
250915,2024-01-31 21:00:00+00:00,0.0,2024-01-31 20:56,27.0,20.0,,1015.1,,3.45,29.89,74.57,3.0,22.97,,,M,,,GNR,1071693,2024-01-31 21:00:00+00:00,1750.0,3.11,,
250916,2024-01-31 22:00:00+00:00,0.0,2024-01-31 21:56,26.0,20.0,,1014.8,200.0,3.45,29.88,77.71,3.0,21.83,,,M,,,GNR,1071697,2024-01-31 22:00:00+00:00,1750.0,3.11,,
250917,2024-01-31 23:00:00+00:00,0.0,2024-01-31 22:56,23.0,17.0,,1015.3,0.0,0.0,29.9,77.44,0.0,23.0,,,M,,,GNR,1071701,2024-01-31 23:00:00+00:00,5720.0,5.13,,
250918,2024-02-01 00:00:00+00:00,0.0,2024-01-31 23:56,23.0,17.0,,1015.2,0.0,0.0,29.9,77.44,0.0,23.0,,,M,,,GNR,1071705,2024-02-01 00:00:00+00:00,8680.0,6.33,,
250919,2024-02-01 01:00:00+00:00,0.0,2024-02-01 00:56,23.0,17.0,,1015.0,0.0,0.0,29.89,77.44,0.0,23.0,,,M,,,GNR,1071709,2024-02-01 01:00:00+00:00,8750.0,6.36,,
250920,2024-02-01 02:00:00+00:00,0.0,2024-02-01 01:56,23.0,17.0,,1014.6,0.0,0.0,29.89,77.44,0.0,23.0,,,M,,,GNR,1071713,2024-02-01 02:00:00+00:00,8750.0,6.36,,
250921,2024-02-01 03:00:00+00:00,0.0,2024-02-01 02:56,23.0,17.0,,1014.2,0.0,0.0,29.88,77.44,0.0,23.0,,,M,,,GNR,1071717,2024-02-01 03:00:00+00:00,8780.0,6.37,,
250922,2024-02-01 04:00:00+00:00,0.0,2024-02-01 03:56,23.0,18.0,,1013.9,0.0,0.0,29.87,80.85,0.0,23.0,,,M,,,GNR,1071721,2024-02-01 04:00:00+00:00,4080.0,4.39,,
250923,2024-02-01 05:00:00+00:00,0.0,2024-02-01 04:56,24.0,19.0,,1013.5,0.0,0.0,29.86,80.93,0.0,24.0,,,M,,,GNR,1071725,2024-02-01 05:00:00+00:00,1960.0,3.25,,
250924,2024-02-01 06:00:00+00:00,0.0,2024-02-01 05:56,24.0,19.0,,1012.9,0.0,0.0,29.85,80.93,0.0,24.0,,,M,,,GNR,1071729,2024-02-01 06:00:00+00:00,1770.0,3.12,,
250925,2024-02-01 07:00:00+00:00,0.0,2024-02-01 06:56,25.0,20.0,,1013.3,0.0,0.0,29.86,81.01,0.0,25.0,,,M,,,GNR,1071733,2024-02-01 07:00:00+00:00,1770.0,3.12,,
250926,2024-02-01 08:00:00+00:00,0.0,2024-02-01 07:56,25.0,21.0,,1013.1,0.0,0.0,29.85,84.53,0.0,25.0,,,M,,,GNR,1071737,2024-02-01 08:00:00+00:00,1750.0,3.11,,
250927,2024-02-01 09:00:00+00:00,0.0,2024-02-01 08:56,25.0,21.0,,1013.2,0.0,0.0,29.86,84.53,0.0,25.0,,,M,,,GNR,1071741,2024-02-01 09:00:00+00:00,1750.0,3.11,,
250928,2024-02-01 10:00:00+00:00,0.0,2024-02-01 09:56,26.0,21.0,,1012.9,0.0,0.0,29.85,81.09,0.0,26.0,,,M,,,GNR,1071745,2024-02-01 10:00:00+00:00,1750.0,3.11,,
250929,2024-02-01 11:00:00+00:00,0.0,2024-02-01 10:56,26.0,22.0,,1013.1,0.0,0.0,29.85,84.59,0.0,26.0,,,M,,,GNR,1071749,2024-02-01 11:00:00+00:00,1740.0,3.1,,
250930,2024-02-01 12:00:00+00:00,0.0,2024-02-01 11:56,25.0,21.0,,1013.4,130.0,5.75,29.86,84.53,5.0,18.08,,,M,,,GNR,1071753,2024-02-01 12:00:00+00:00,1740.0,3.1,,
250931,2024-02-01 13:00:00+00:00,0.0,2024-02-01 12:56,25.0,22.0,,1013.5,110.0,5.75,29.86,88.18,5.0,18.08,,,M,,,GNR,1071757,2024-02-01 13:00:00+00:00,1740.0,3.1,,
250932,2024-02-01 14:00:00+00:00,0.0,2024-02-01 13:56,25.0,21.0,,1013.5,130.0,6.9,29.86,84.53,6.0,17.1,,,M,,,GNR,1071761,2024-02-01 14:00:00+00:00,1740.0,3.1,,
250933,2024-02-01 15:00:00+00:00,0.0,2024-02-01 14:56,25.0,22.0,,1013.8,140.0,5.75,29.87,88.18,5.0,18.08,,,M,,,GNR,1071765,2024-02-01 15:00:00+00:00,1740.0,3.1,,
250934,2024-02-01 16:00:00+00:00,0.0,2024-02-01 15:56,27.0,23.0,,1012.8,150.0,8.05,29.84,84.66,7.0,18.68,,,M,,,GNR,1071769,2024-02-01 16:00:00+00:00,1740.0,3.1,,
250935,2024-02-01 17:00:00+00:00,0.0,2024-02-01 16:56,27.0,23.0,,1012.3,140.0,4.6,29.83,84.66,4.0,21.58,,,M,,,GNR,1071773,2024-02-01 17:00:00+00:00,1740.0,3.1,,
250936,2024-02-01 18:00:00+00:00,0.0,2024-02-01 17:56,28.0,24.0,,1011.6,130.0,8.05,29.81,84.72,7.0,19.9,,,M,,,GNR,1071777,2024-02-01 18:00:00+00:00,1740.0,3.1,,
250937,2024-02-01 19:00:00+00:00,0.0,2024-02-01 18:56,28.0,24.0,,1011.4,130.0,8.05,29.81,84.72,7.0,19.9,,,M,,,GNR,1071781,2024-02-01 19:00:00+00:00,1740.0,3.1,,
250938,2024-02-01 20:00:00+00:00,0.0,2024-02-01 19:56,28.0,25.0,,1010.9,150.0,8.05,29.79,88.33,7.0,19.9,,,M,,,GNR,1071785,2024-02-01 20:00:00+00:00,1740.0,3.1,,
250939,2024-02-01 21:00:00+00:00,0.51,2024-02-01 20:56,28.0,27.0,,1010.6,150.0,6.9,29.78,95.97,6.0,20.71,,,M,,,GNR,1071789,2024-02-01 21:00:00+00:00,1740.0,3.1,,
250940,2024-02-01 22:00:00+00:00,0.25,2024-02-01 21:56,28.0,27.0,,1010.2,140.0,4.6,29.77,95.97,4.0,22.75,,,M,,,GNR,1071793,2024-02-01 22:00:00+00:00,1740.0,3.1,,
250941,2024-02-01 23:00:00+00:00,0.51,2024-02-01 22:56,28.0,27.0,,1010.1,150.0,4.6,29.77,95.97,4.0,22.75,,,M,,,GNR,1071797,2024-02-01 23:00:00+00:00,5950.0,5.23,,
250942,2024-02-02 00:00:00+00:00,0.51,2024-02-01 23:56,28.0,27.0,,1010.3,140.0,4.6,29.77,95.97,4.0,22.75,,,M,,,GNR,1071801,2024-02-02 00:00:00+00:00,8680.0,6.33,,
250943,2024-02-02 01:00:00+00:00,0.51,2024-02-02 00:56,28.0,27.0,,1010.4,140.0,5.75,29.78,95.97,5.0,21.64,,,M,,,GNR,1071805,2024-02-02 01:00:00+00:00,8750.0,6.36,,
250944,2024-02-02 02:00:00+00:00,0.0,2024-02-02 01:56,28.0,27.0,,1010.5,140.0,5.75,29.78,95.97,5.0,21.64,,,M,,,GNR,1071809,2024-02-02 02:00:00+00:00,8810.0,6.38,,
250945,2024-02-02 03:00:00+00:00,0.0,2024-02-02 02:56,28.0,27.0,,1010.2,130.0,4.6,29.77,95.97,4.0,22.75,,,M,,,GNR,1071813,2024-02-02 03:00:00+00:00,4420.0,4.55,,
250946,2024-02-02 04:00:00+00:00,0.0,2024-02-02 03:56,28.0,27.0,,1010.0,130.0,4.6,29.77,95.97,4.0,22.75,,,M,,,GNR,1071817,2024-02-02 04:00:00+00:00,2010.0,3.28,,
250947,2024-02-02 05:00:00+00:00,0.0,2024-02-02 04:56,28.0,27.0,,1009.7,130.0,4.6,29.76,95.97,4.0,22.75,,,M,,,GNR,1071821,2024-02-02 05:00:00+00:00,1770.0,3.12,,
250948,2024-02-02 06:00:00+00:00,0.25,2024-02-02 05:56,28.0,27.0,,1009.6,130.0,3.45,29.76,95.97,3.0,24.12,,,M,,,GNR,1071825,2024-02-02 06:00:00+00:00,1750.0,3.11,,
250949,2024-02-02 07:00:00+00:00,0.0,2024-02-02 06:56,28.0,27.0,,1009.8,0.0,0.0,29.76,95.97,0.0,28.0,,,M,,,GNR,1071829,2024-02-02 07:00:00+00:00,1750.0,3.11,,
250950,2024-02-02 08:00:00+00:00,0.0,2024-02-02 07:56,26.0,25.0,,1009.4,0.0,0.0,29.75,95.93,0.0,26.0,,,M,,,GNR,1071833,2024-02-02 08:00:00+00:00,1740.0,3.1,,
250951,2024-02-02 09:00:00+00:00,0.0,2024-02-02 08:56,27.0,25.0,,1009.6,320.0,3.45,29.76,92.05,3.0,22.97,,,M,,,GNR,1071837,2024-02-02 09:00:00+00:00,1740.0,3.1,,
250952,2024-02-02 10:00:00+00:00,0.0,2024-02-02 09:56,27.0,25.0,,1009.8,0.0,0.0,29.76,92.05,0.0,27.0,,,M,,,GNR,1071841,2024-02-02 10:00:00+00:00,1740.0,3.1,,
250953,2024-02-02 11:00:00+00:00,0.0,2024-02-02 10:56,28.0,26.0,,1010.3,0.0,0.0,29.78,92.08,0.0,28.0,,,M,,,GNR,1071845,2024-02-02 11:00:00+00:00,1740.0,3.1,,
250954,2024-02-02 12:00:00+00:00,0.0,2024-02-02 11:56,27.0,25.0,,1010.9,320.0,3.45,29.79,92.05,3.0,22.97,,,M,,,GNR,1071849,2024-02-02 12:00:00+00:00,1740.0,3.1,,
250955,2024-02-02 13:00:00+00:00,0.0,2024-02-02 12:56,28.0,26.0,,1011.5,330.0,4.6,29.81,92.08,4.0,22.75,,,M,,,GNR,1071853,2024-02-02 13:00:00+00:00,1740.0,3.1,,
250956,2024-02-02 14:00:00+00:00,0.0,2024-02-02 13:56,28.0,26.0,,1011.8,340.0,3.45,29.82,92.08,3.0,24.12,,,M,,,GNR,1071857,2024-02-02 14:00:00+00:00,1740.0,3.1,,
250957,2024-02-02 15:00:00+00:00,0.0,2024-02-02 14:56,29.0,27.0,,1011.9,330.0,9.2,29.83,92.12,8.0,20.42,,,M,,,GNR,1071861,2024-02-02 15:00:00+00:00,1740.0,3.1,,
250958,2024-02-02 16:00:00+00:00,0.0,2024-02-02 15:56,28.0,26.0,,1012.5,340.0,8.05,29.84,92.08,7.0,19.9,,16.0,M,,,GNR,1071865,2024-02-02 16:00:00+00:00,1740.0,3.1,,
250959,2024-02-02 17:00:00+00:00,0.0,2024-02-02 16:56,27.0,25.0,,1012.6,350.0,11.5,29.84,92.05,10.0,16.7,,16.0,M,,,GNR,1071869,2024-02-02 17:00:00+00:00,1740.0,3.1,,
250960,2024-02-02 18:00:00+00:00,0.0,2024-02-02 17:56,27.0,24.0,,1012.5,330.0,12.65,29.84,88.28,11.0,16.15,,18.0,M,,,GNR,1071873,2024-02-02 18:00:00+00:00,1720.0,3.09,,
250961,2024-02-02 19:00:00+00:00,0.0,2024-02-02 18:56,26.0,23.0,,1013.0,340.0,13.8,29.85,88.23,12.0,14.37,,18.0,M,,,GNR,1071877,2024-02-02 19:00:00+00:00,1720.0,3.09,,
250962,2024-02-02 20:00:00+00:00,0.0,2024-02-02 19:56,25.0,22.0,,1013.5,340.0,10.35,29.87,88.18,9.0,14.81,,17.0,M,,,GNR,1071881,2024-02-02 20:00:00+00:00,1720.0,3.09,,
250963,2024-02-02 21:00:00+00:00,0.0,2024-02-02 20:56,25.0,21.0,,1014.0,340.0,12.65,29.88,84.53,11.0,13.62,,21.0,M,,,GNR,1071885,2024-02-02 21:00:00+00:00,1720.0,3.09,,
250964,2024-02-02 22:00:00+00:00,0.0,2024-02-02 21:56,23.0,20.0,,1014.7,340.0,10.35,29.9,88.08,9.0,12.32,,20.0,M,,,GNR,1071889,2024-02-02 22:00:00+00:00,1720.0,3.09,,
250965,2024-02-02 23:00:00+00:00,0.0,2024-02-02 22:56,23.0,20.0,,1014.9,330.0,13.8,29.91,88.08,12.0,10.55,,22.0,M,,,GNR,1071893,2024-02-02 23:00:00+00:00,1720.0,3.09,,
250966,2024-02-03 00:00:00+00:00,0.0,2024-02-02 23:56,23.0,19.0,,1015.7,350.0,13.8,29.93,84.39,12.0,10.55,,21.0,M,26.0,,GNR,1071897,2024-02-03 00:00:00+00:00,4080.0,4.39,,
250967,2024-02-03 01:00:00+00:00,0.0,2024-02-03 00:56,22.0,18.0,,1015.9,340.0,12.65,29.93,84.33,11.0,9.83,,19.0,M,,,GNR,1071901,2024-02-03 01:00:00+00:00,8700.0,6.34,,
250968,2024-02-03 02:00:00+00:00,0.0,2024-02-03 01:56,21.0,18.0,,1016.3,350.0,11.5,29.95,87.97,10.0,9.17,,20.0,M,,,GNR,1071905,2024-02-03 02:00:00+00:00,8730.0,6.35,,
250969,2024-02-03 03:00:00+00:00,0.0,2024-02-03 02:56,20.0,18.0,,1016.5,350.0,8.05,29.95,91.79,7.0,10.15,,,M,,,GNR,1071909,2024-02-03 03:00:00+00:00,4170.0,4.43,,
250970,2024-02-03 04:00:00+00:00,0.0,2024-02-03 03:56,20.0,16.0,,1016.7,350.0,14.95,29.95,84.19,13.0,6.19,,21.0,M,,,GNR,1071913,2024-02-03 04:00:00+00:00,1960.0,3.25,,
250971,2024-02-03 05:00:00+00:00,0.0,2024-02-03 04:56,19.0,15.0,,1016.5,340.0,12.65,29.95,84.12,11.0,6.04,,20.0,M,,,GNR,1071917,2024-02-03 05:00:00+00:00,1750.0,3.11,,
250972,2024-02-03 06:00:00+00:00,0.0,2024-02-03 05:56,18.0,15.0,,1016.4,340.0,9.2,29.95,87.81,8.0,6.87,,16.0,M,,,GNR,1071921,2024-02-03 06:00:00+00:00,1740.0,3.1,,
250973,2024-02-03 07:00:00+00:00,0.0,2024-02-03 06:56,17.0,14.0,,1017.0,350.0,14.95,29.96,87.76,13.0,2.35,,21.0,M,,,GNR,1071925,2024-02-03 07:00:00+00:00,1740.0,3.1,,
250974,2024-02-03 08:00:00+00:00,0.0,2024-02-03 07:56,17.0,14.0,,1016.7,350.0,10.35,29.95,87.76,9.0,4.86,,16.0,M,,,GNR,1071929,2024-02-03 08:00:00+00:00,1740.0,3.1,,
250975,2024-02-03 09:00:00+00:00,0.0,2024-02-03 08:56,16.0,13.0,,1017.0,330.0,13.8,29.96,87.7,12.0,1.64,,,M,,,GNR,1071933,2024-02-03 09:00:00+00:00,1720.0,3.09,,
250976,2024-02-03 10:00:00+00:00,0.0,2024-02-03 09:56,15.0,12.0,,1017.1,340.0,17.25,29.96,87.65,15.0,-1.26,,23.0,M,,,GNR,1071937,2024-02-03 10:00:00+00:00,1740.0,3.1,,
250977,2024-02-03 11:00:00+00:00,0.0,2024-02-03 10:56,14.0,11.0,,1017.4,340.0,14.95,29.97,87.59,13.0,-1.49,,20.0,M,,,GNR,1071941,2024-02-03 11:00:00+00:00,1720.0,3.09,,
250978,2024-02-03 12:00:00+00:00,0.0,2024-02-03 11:56,14.0,10.0,,1017.8,350.0,16.1,29.98,83.77,14.0,-2.04,,23.0,M,26.0,,GNR,1071945,2024-02-03 12:00:00+00:00,1720.0,3.09,,
250979,2024-02-03 13:00:00+00:00,0.0,2024-02-03 12:56,14.0,10.0,,1018.5,360.0,6.9,30.0,83.77,6.0,3.85,,,M,,,GNR,1071949,2024-02-03 13:00:00+00:00,1720.0,3.09,,
250980,2024-02-03 14:00:00+00:00,0.0,2024-02-03 13:56,15.0,10.0,,1018.4,340.0,10.35,29.99,80.19,9.0,2.38,,18.0,M,,,GNR,1071953,2024-02-03 14:00:00+00:00,1720.0,3.09,,
250981,2024-02-03 15:00:00+00:00,0.0,2024-02-03 14:56,17.0,10.0,,1018.1,360.0,5.75,29.99,73.52,5.0,8.58,,,M,,,GNR,1071957,2024-02-03 15:00:00+00:00,1720.0,3.09,,
250982,2024-02-03 16:00:00+00:00,0.0,2024-02-03 15:56,19.0,9.0,,1017.8,,5.75,29.98,64.5,5.0,10.96,,15.0,M,,,GNR,1071961,2024-02-03 16:00:00+00:00,1720.0,3.09,,
250983,2024-02-03 17:00:00+00:00,0.0,2024-02-03 16:56,20.0,7.0,,1017.4,350.0,13.8,29.97,56.47,12.0,6.73,,19.0,M,,,GNR,1071965,2024-02-03 17:00:00+00:00,1720.0,3.09,,
250984,2024-02-03 18:00:00+00:00,0.0,2024-02-03 17:56,22.0,7.0,,1016.6,350.0,13.8,29.95,51.88,12.0,9.27,,22.0,M,,,GNR,1071969,2024-02-03 18:00:00+00:00,1720.0,3.09,,
250985,2024-02-03 19:00:00+00:00,0.0,2024-02-03 18:56,23.0,8.0,,1016.0,350.0,14.95,29.93,52.04,13.0,10.04,,21.0,M,,,GNR,1071973,2024-02-03 19:00:00+00:00,1720.0,3.09,,
250986,2024-02-03 20:00:00+00:00,0.0,2024-02-03 19:56,23.0,8.0,,1015.9,350.0,14.95,29.93,52.04,13.0,10.04,,22.0,M,,,GNR,1071977,2024-02-03 20:00:00+00:00,1720.0,3.09,,
250987,2024-02-03 21:00:00+00:00,0.0,2024-02-03 20:56,22.0,8.0,,1015.7,340.0,12.65,29.92,54.28,11.0,9.83,,23.0,M,,,GNR,1071981,2024-02-03 21:00:00+00:00,1720.0,3.09,,
250988,2024-02-03 22:00:00+00:00,0.0,2024-02-03 21:56,20.0,9.0,,1015.9,350.0,9.2,29.92,61.8,8.0,9.33,,,M,,,GNR,1071985,2024-02-03 22:00:00+00:00,1720.0,3.09,,
250989,2024-02-03 23:00:00+00:00,0.0,2024-02-03 22:56,20.0,10.0,,1016.0,340.0,17.25,29.92,64.64,15.0,5.22,,26.0,M,26.0,,GNR,1071989,2024-02-03 23:00:00+00:00,1720.0,3.09,,
250990,2024-02-04 00:00:00+00:00,0.0,2024-02-03 23:56,18.0,10.0,,1016.6,340.0,11.5,29.94,70.41,10.0,5.41,,19.0,M,28.0,,GNR,1071993,2024-02-04 00:00:00+00:00,4360.0,4.52,,
250991,2024-02-04 01:00:00+00:00,0.0,2024-02-04 00:56,17.0,8.0,,1016.7,350.0,6.9,29.94,67.2,6.0,7.46,,18.0,M,,,GNR,1071997,2024-02-04 01:00:00+00:00,8650.0,6.32,,
250992,2024-02-04 02:00:00+00:00,0.0,2024-02-04 01:56,15.0,4.0,,1016.8,350.0,9.2,29.94,61.09,8.0,3.17,,17.0,M,,,GNR,1072001,2024-02-04 02:00:00+00:00,4850.0,4.75,,
250993,2024-02-04 03:00:00+00:00,0.0,2024-02-04 02:56,14.0,2.0,,1016.7,340.0,9.2,29.94,58.18,8.0,1.94,,18.0,M,,,GNR,1072005,2024-02-04 03:00:00+00:00,2060.0,3.31,,
250994,2024-02-04 04:00:00+00:00,0.0,2024-02-04 03:56,12.0,3.0,,1016.5,340.0,8.05,29.94,66.56,7.0,0.4,,16.0,M,,,GNR,1072009,2024-02-04 04:00:00+00:00,1750.0,3.11,,
250995,2024-02-04 05:00:00+00:00,0.0,2024-02-04 04:56,12.0,2.0,,1016.2,330.0,10.35,29.93,63.54,9.0,-1.35,,,M,,,GNR,1072013,2024-02-04 05:00:00+00:00,1750.0,3.11,,
250996,2024-02-04 06:00:00+00:00,0.0,2024-02-04 05:56,11.0,3.0,,1015.5,330.0,8.05,29.9,69.58,7.0,-0.82,,,M,,,GNR,1072017,2024-02-04 06:00:00+00:00,1750.0,3.11,,
250997,2024-02-04 07:00:00+00:00,0.0,2024-02-04 06:56,10.0,4.0,,1015.4,330.0,8.05,29.9,76.18,7.0,-2.04,,,M,,,GNR,1072021,2024-02-04 07:00:00+00:00,1770.0,3.12,,
250998,2024-02-04 08:00:00+00:00,0.0,2024-02-04 07:56,9.0,4.0,,1015.2,,5.75,29.9,79.67,5.0,-0.92,,,M,,,GNR,1072025,2024-02-04 08:00:00+00:00,1780.0,3.13,,
250999,2024-02-04 09:00:00+00:00,0.0,2024-02-04 08:56,8.0,4.0,,1015.7,,,29.91,83.34,,,,,M,,,GNR,1072029,2024-02-04 09:00:00+00:00,1810.0,3.15,,
251000,2024-02-04 10:00:00+00:00,0.0,2024-02-04 09:56,7.0,4.0,,1015.9,,6.9,29.91,87.2,6.0,-4.58,,,M,,,GNR,1072033,2024-02-04 10:00:00+00:00,1840.0,3.17,,
251001,2024-02-04 11:00:00+00:00,0.0,2024-02-04 10:56,7.0,4.0,,1015.7,0.0,0.0,29.91,87.2,0.0,7.0,,,M,,,GNR,1072037,2024-02-04 11:00:00+00:00,1870.0,3.19,,
251002,2024-02-04 12:00:00+00:00,0.0,2024-02-04 11:56,7.0,4.0,,1015.1,330.0,9.2,29.89,87.2,8.0,-6.68,,18.0,M,,,GNR,1072041,2024-02-04 12:00:00+00:00,1890.0,3.2,,
251003,2024-02-04 13:00:00+00:00,0.0,2024-02-04 12:56,9.0,5.0,,1015.0,330.0,12.65,29.89,83.41,11.0,-6.6,,22.0,M,,,GNR,1072045,2024-02-04 13:00:00+00:00,1900.0,3.21,,
251004,2024-02-04 14:00:00+00:00,0.0,2024-02-04 13:56,12.0,6.0,,1014.6,340.0,13.8,29.87,76.38,12.0,-3.45,,23.0,M,27.0,,GNR,1072049,2024-02-04 14:00:00+00:00,1920.0,3.22,,
251005,2024-02-04 15:00:00+00:00,0.0,2024-02-04 14:56,16.0,5.0,,1014.4,330.0,13.8,29.87,61.23,12.0,1.64,,22.0,M,28.0,,GNR,1072053,2024-02-04 15:00:00+00:00,1950.0,3.24,,
251006,2024-02-04 16:00:00+00:00,0.0,2024-02-04 15:56,19.0,6.0,,1014.2,330.0,14.95,29.87,56.32,13.0,4.91,,23.0,M,,,GNR,1072057,2024-02-04 16:00:00+00:00,1930.0,3.23,,
251007,2024-02-04 17:00:00+00:00,0.0,2024-02-04 16:56,21.0,6.0,,1013.6,320.0,10.35,29.85,51.72,9.0,9.84,,22.0,M,26.0,,GNR,1072061,2024-02-04 17:00:00+00:00,1890.0,3.2,,
251008,2024-02-04 18:00:00+00:00,0.0,2024-02-04 17:56,22.0,7.0,,1013.0,320.0,21.85,29.83,51.88,19.0,6.21,,26.0,M,26.0,,GNR,1072065,2024-02-04 18:00:00+00:00,1830.0,3.16,,
251009,2024-02-04 19:00:00+00:00,0.0,2024-02-04 18:56,23.0,8.0,,1012.4,330.0,13.8,29.82,52.04,12.0,10.55,,26.0,M,27.0,,GNR,1072069,2024-02-04 19:00:00+00:00,1740.0,3.1,,
251010,2024-02-04 20:00:00+00:00,0.0,2024-02-04 19:56,24.0,8.0,,1012.3,330.0,18.4,29.81,49.9,16.0,9.99,,24.0,M,28.0,,GNR,1072073,2024-02-04 20:00:00+00:00,1720.0,3.09,,
251011,2024-02-04 21:00:00+00:00,0.0,2024-02-04 20:56,23.0,8.0,,1012.4,330.0,16.1,29.82,52.04,14.0,9.56,,25.0,M,27.0,,GNR,1072077,2024-02-04 21:00:00+00:00,1720.0,3.09,,
251012,2024-02-04 22:00:00+00:00,0.0,2024-02-04 21:56,21.0,8.0,,1012.6,330.0,18.4,29.82,56.62,16.0,6.08,,31.0,M,31.0,,GNR,1072081,2024-02-04 22:00:00+00:00,1710.0,3.08,,
251013,2024-02-04 23:00:00+00:00,0.0,2024-02-04 22:56,20.0,8.0,,1012.9,340.0,17.25,29.82,59.08,15.0,5.22,,27.0,M,30.0,,GNR,1072085,2024-02-04 23:00:00+00:00,1720.0,3.09,,
251014,2024-02-05 00:00:00+00:00,0.0,2024-02-04 23:56,18.0,6.0,,1013.0,340.0,19.55,29.83,58.79,17.0,1.73,,23.0,M,28.0,,GNR,1072089,2024-02-05 00:00:00+00:00,6490.0,5.45,,
251015,2024-02-05 01:00:00+00:00,0.0,2024-02-05 00:56,16.0,3.0,,1013.5,350.0,12.65,29.84,55.85,11.0,2.25,,23.0,M,26.0,,GNR,1072093,2024-02-05 01:00:00+00:00,8650.0,6.32,,
251016,2024-02-05 02:00:00+00:00,0.0,2024-02-05 01:56,15.0,0.0,,1013.1,340.0,12.65,29.83,50.73,11.0,0.98,,21.0,M,,,GNR,1072097,2024-02-05 02:00:00+00:00,4170.0,4.43,,
251017,2024-02-05 03:00:00+00:00,0.0,2024-02-05 02:56,14.0,-4.0,,1013.1,350.0,10.35,29.83,43.85,9.0,1.13,,20.0,M,,,GNR,1072101,2024-02-05 03:00:00+00:00,1950.0,3.24,,
251018,2024-02-05 04:00:00+00:00,0.0,2024-02-05 03:56,12.0,-2.0,,1012.9,320.0,10.35,29.83,52.67,9.0,-1.35,,17.0,M,,,GNR,1072105,2024-02-05 04:00:00+00:00,1720.0,3.09,,
251019,2024-02-05 05:00:00+00:00,0.0,2024-02-05 04:56,11.0,-1.0,,1012.4,320.0,10.35,29.82,57.72,9.0,-2.6,,,M,,,GNR,1072109,2024-02-05 05:00:00+00:00,1740.0,3.1,,
251020,2024-02-05 06:00:00+00:00,0.0,2024-02-05 05:56,11.0,2.0,,1011.6,330.0,14.95,29.79,66.43,13.0,-5.34,,,M,,,GNR,1072113,2024-02-05 06:00:00+00:00,1740.0,3.1,,
251021,2024-02-05 07:00:00+00:00,0.0,2024-02-05 06:56,12.0,3.0,,1011.6,330.0,11.5,29.79,66.56,10.0,-2.11,,19.0,M,26.0,,GNR,1072117,2024-02-05 07:00:00+00:00,1750.0,3.11,,
251022,2024-02-05 08:00:00+00:00,0.0,2024-02-05 07:56,11.0,3.0,,1011.2,330.0,13.8,29.78,69.58,12.0,-4.73,,22.0,M,,,GNR,1072121,2024-02-05 08:00:00+00:00,1770.0,3.12,,
251023,2024-02-05 09:00:00+00:00,0.0,2024-02-05 08:56,11.0,3.0,,1011.9,340.0,12.65,29.8,69.58,11.0,-4.07,,,M,,,GNR,1072125,2024-02-05 09:00:00+00:00,1780.0,3.13,,
251024,2024-02-05 10:00:00+00:00,0.0,2024-02-05 09:56,12.0,4.0,,1011.6,330.0,16.1,29.79,69.7,14.0,-4.62,,27.0,M,27.0,,GNR,1072129,2024-02-05 10:00:00+00:00,1800.0,3.14,,
251025,2024-02-05 11:00:00+00:00,0.0,2024-02-05 10:56,11.0,4.0,,1011.7,330.0,18.4,29.79,72.86,16.0,-6.95,,26.0,M,28.0,,GNR,1072133,2024-02-05 11:00:00+00:00,1810.0,3.15,,
251026,2024-02-05 12:00:00+00:00,0.0,2024-02-05 11:56,11.0,4.0,,1012.6,330.0,9.2,29.82,72.86,8.0,-1.76,,19.0,M,26.0,,GNR,1072137,2024-02-05 12:00:00+00:00,1830.0,3.16,,
251027,2024-02-05 13:00:00+00:00,0.0,2024-02-05 12:56,11.0,4.0,,1012.9,330.0,18.4,29.82,72.86,16.0,-6.95,,24.0,M,,,GNR,1072141,2024-02-05 13:00:00+00:00,1840.0,3.17,,
251028,2024-02-05 14:00:00+00:00,0.0,2024-02-05 13:56,14.0,4.0,,1013.2,340.0,14.95,29.83,63.82,13.0,-1.49,,21.0,M,,,GNR,1072145,2024-02-05 14:00:00+00:00,5600.0,5.08,,
251029,2024-02-05 15:00:00+00:00,0.0,2024-02-05 14:56,17.0,5.0,,1012.6,330.0,21.85,29.82,58.64,19.0,-0.4,,31.0,M,31.0,,GNR,1072149,2024-02-05 15:00:00+00:00,9060.0,6.48,,
251030,2024-02-05 16:00:00+00:00,0.0,2024-02-05 15:56,20.0,8.0,,1012.9,360.0,17.25,29.83,59.08,15.0,5.22,,26.0,M,29.0,,GNR,1072153,2024-02-05 16:00:00+00:00,4660.0,4.66,,
251031,2024-02-05 17:00:00+00:00,0.0,2024-02-05 16:56,21.0,9.0,,1012.3,350.0,19.55,29.81,59.23,17.0,5.66,,28.0,M,28.0,,GNR,1072157,2024-02-05 17:00:00+00:00,1980.0,3.26,,
251032,2024-02-05 18:00:00+00:00,0.0,2024-02-05 17:56,23.0,11.0,,1012.8,340.0,17.25,29.83,59.52,15.0,9.11,,25.0,M,28.0,,GNR,1072161,2024-02-05 18:00:00+00:00,1740.0,3.1,,
251033,2024-02-05 19:00:00+00:00,0.0,2024-02-05 18:56,24.0,11.0,,1013.1,350.0,19.55,29.84,57.08,17.0,9.59,,26.0,M,26.0,,GNR,1072165,2024-02-05 19:00:00+00:00,1740.0,3.1,,
251034,2024-02-05 20:00:00+00:00,0.0,2024-02-05 19:56,24.0,12.0,,1013.7,350.0,18.4,29.86,59.67,16.0,9.99,,28.0,M,28.0,,GNR,1072169,2024-02-05 20:00:00+00:00,1740.0,3.1,,
251035,2024-02-05 21:00:00+00:00,0.0,2024-02-05 20:56,23.0,13.0,,1014.4,360.0,16.1,29.87,65.03,14.0,9.56,,24.0,M,26.0,,GNR,1072173,2024-02-05 21:00:00+00:00,1720.0,3.09,,
251036,2024-02-05 22:00:00+00:00,0.0,2024-02-05 21:56,22.0,15.0,,1015.4,350.0,13.8,29.9,74.05,12.0,9.27,,23.0,M,,,GNR,1072177,2024-02-05 22:00:00+00:00,1720.0,3.09,,
251037,2024-02-05 23:00:00+00:00,0.0,2024-02-05 22:56,22.0,14.0,,1016.4,350.0,10.35,29.93,70.88,9.0,11.08,,,M,,,GNR,1072181,2024-02-05 23:00:00+00:00,1710.0,3.08,,
251038,2024-02-06 00:00:00+00:00,0.0,2024-02-05 23:56,22.0,15.0,,1017.0,330.0,12.65,29.95,74.05,11.0,9.83,,,M,,,GNR,1072185,2024-02-06 00:00:00+00:00,5720.0,5.13,,
251039,2024-02-06 01:00:00+00:00,0.0,2024-02-06 00:56,21.0,15.0,,1017.5,330.0,12.65,29.96,77.25,11.0,8.57,,,M,,,GNR,1072189,2024-02-06 01:00:00+00:00,8700.0,6.34,,
251040,2024-02-06 02:00:00+00:00,0.0,2024-02-06 01:56,22.0,15.0,,1018.0,310.0,9.2,29.98,74.05,8.0,11.79,,18.0,M,,,GNR,1072193,2024-02-06 02:00:00+00:00,8730.0,6.35,,
251041,2024-02-06 03:00:00+00:00,0.0,2024-02-06 02:56,22.0,16.0,,1018.2,330.0,8.05,29.99,77.34,7.0,12.59,,,M,,,GNR,1072197,2024-02-06 03:00:00+00:00,8730.0,6.35,,
251042,2024-02-06 04:00:00+00:00,0.0,2024-02-06 03:56,21.0,15.0,,1018.2,350.0,13.8,29.99,77.25,12.0,8.0,,23.0,M,,,GNR,1072201,2024-02-06 04:00:00+00:00,4280.0,4.48,,
251043,2024-02-06 05:00:00+00:00,0.0,2024-02-06 04:56,21.0,15.0,,1018.2,360.0,14.95,29.99,77.25,13.0,7.48,,27.0,M,27.0,,GNR,1072205,2024-02-06 05:00:00+00:00,1960.0,3.25,,
251044,2024-02-06 06:00:00+00:00,0.0,2024-02-06 05:56,20.0,14.0,,1018.5,330.0,11.5,30.0,77.16,10.0,7.92,,20.0,M,,,GNR,1072209,2024-02-06 06:00:00+00:00,1740.0,3.1,,
251045,2024-02-06 07:00:00+00:00,0.0,2024-02-06 06:56,19.0,14.0,,1019.4,330.0,12.65,30.03,80.52,11.0,6.04,,,M,,,GNR,1072213,2024-02-06 07:00:00+00:00,1720.0,3.09,,
251046,2024-02-06 08:00:00+00:00,0.0,2024-02-06 07:56,19.0,13.0,,1019.4,330.0,8.05,30.03,77.06,7.0,8.93,,,M,,,GNR,1072217,2024-02-06 08:00:00+00:00,1500.0,2.93,,
251047,2024-02-06 09:00:00+00:00,0.0,2024-02-06 08:56,16.0,12.0,,1019.9,320.0,13.8,30.04,83.91,12.0,1.64,,,M,,,GNR,1072221,2024-02-06 09:00:00+00:00,1370.0,2.83,,
251048,2024-02-06 10:00:00+00:00,0.0,2024-02-06 09:56,15.0,11.0,,1020.5,320.0,11.5,30.06,83.84,10.0,1.65,,,M,,,GNR,1072225,2024-02-06 10:00:00+00:00,1370.0,2.83,,
251049,2024-02-06 11:00:00+00:00,0.0,2024-02-06 10:56,15.0,11.0,,1020.9,330.0,10.35,30.07,83.84,9.0,2.38,,,M,,,GNR,1072229,2024-02-06 11:00:00+00:00,1390.0,2.85,,
251050,2024-02-06 12:00:00+00:00,0.0,2024-02-06 11:56,14.0,10.0,,1021.9,330.0,10.35,30.09,83.77,9.0,1.13,,,M,,,GNR,1072233,2024-02-06 12:00:00+00:00,1410.0,2.86,,
251051,2024-02-06 13:00:00+00:00,0.0,2024-02-06 12:56,16.0,11.0,,1022.2,340.0,13.8,30.11,80.27,12.0,1.64,,20.0,M,,,GNR,1072237,2024-02-06 13:00:00+00:00,1420.0,2.87,,
251052,2024-02-06 14:00:00+00:00,0.0,2024-02-06 13:56,18.0,12.0,,1022.8,320.0,10.35,30.13,76.97,9.0,6.11,,,M,,,GNR,1072241,2024-02-06 14:00:00+00:00,4000.0,4.35,,
251053,2024-02-06 15:00:00+00:00,0.0,2024-02-06 14:56,19.0,13.0,,1023.2,330.0,12.65,30.14,77.06,11.0,6.04,,,M,,,GNR,1072245,2024-02-06 15:00:00+00:00,8170.0,6.13,,
251054,2024-02-06 16:00:00+00:00,0.0,2024-02-06 15:56,22.0,15.0,,1023.5,310.0,12.65,30.15,74.05,11.0,9.83,,17.0,M,,,GNR,1072249,2024-02-06 16:00:00+00:00,4360.0,4.52,,
251055,2024-02-06 17:00:00+00:00,0.0,2024-02-06 16:56,24.0,16.0,,1022.9,310.0,11.5,30.14,71.11,10.0,12.94,,17.0,M,,,GNR,1072253,2024-02-06 17:00:00+00:00,1780.0,3.13,,
251056,2024-02-06 18:00:00+00:00,0.0,2024-02-06 17:56,27.0,17.0,,1022.4,320.0,9.2,30.12,65.56,8.0,17.95,,15.0,M,,,GNR,1072257,2024-02-06 18:00:00+00:00,1270.0,2.75,,
251057,2024-02-06 19:00:00+00:00,0.0,2024-02-06 18:56,29.0,18.0,,1022.2,310.0,11.5,30.12,63.05,10.0,19.21,,17.0,M,,,GNR,1072261,2024-02-06 19:00:00+00:00,1230.0,2.72,,
251058,2024-02-06 20:00:00+00:00,0.0,2024-02-06 19:56,29.0,18.0,,1022.7,320.0,10.35,30.13,63.05,9.0,19.78,,,M,,,GNR,1072265,2024-02-06 20:00:00+00:00,1230.0,2.72,,
251059,2024-02-06 21:00:00+00:00,0.0,2024-02-06 20:56,29.0,18.0,,1023.0,320.0,6.9,30.14,63.05,6.0,21.92,,,M,,,GNR,1072269,2024-02-06 21:00:00+00:00,1350.0,2.82,,
251060,2024-02-06 22:00:00+00:00,0.0,2024-02-06 21:56,28.0,18.0,,1023.4,360.0,8.05,30.15,65.69,7.0,19.9,,,M,,,GNR,1072273,2024-02-06 22:00:00+00:00,1350.0,2.82,,
251061,2024-02-06 23:00:00+00:00,0.0,2024-02-06 22:56,27.0,18.0,,1023.8,0.0,0.0,30.16,68.45,0.0,27.0,,,M,,,GNR,1072277,2024-02-06 23:00:00+00:00,1350.0,2.82,,
251062,2024-02-07 00:00:00+00:00,0.0,2024-02-06 23:56,26.0,18.0,,1024.1,350.0,8.05,30.17,71.33,7.0,17.47,,,M,,,GNR,1072281,2024-02-07 00:00:00+00:00,3870.0,4.29,,
251063,2024-02-07 01:00:00+00:00,0.0,2024-02-07 00:56,26.0,18.0,,1024.6,20.0,6.9,30.18,71.33,6.0,18.3,,,M,,,GNR,1072285,2024-02-07 01:00:00+00:00,8290.0,6.18,,
251064,2024-02-07 02:00:00+00:00,0.0,2024-02-07 01:56,22.0,17.0,,1024.9,310.0,5.75,30.19,80.77,5.0,14.52,,,M,,,GNR,1072289,2024-02-07 02:00:00+00:00,8370.0,6.21,,
251065,2024-02-07 03:00:00+00:00,0.0,2024-02-07 02:56,23.0,17.0,,1025.1,330.0,6.9,30.19,77.44,6.0,14.69,,,M,,,GNR,1072293,2024-02-07 03:00:00+00:00,8340.0,6.2,,
251066,2024-02-07 04:00:00+00:00,0.0,2024-02-07 03:56,21.0,16.0,,1025.1,0.0,0.0,30.2,80.69,0.0,21.0,,,M,,,GNR,1072297,2024-02-07 04:00:00+00:00,4420.0,4.55,,
251067,2024-02-07 05:00:00+00:00,0.0,2024-02-07 04:56,20.0,17.0,,1025.2,340.0,5.75,30.2,87.92,5.0,12.14,,,M,,,GNR,1072301,2024-02-07 05:00:00+00:00,1860.0,3.18,,
251068,2024-02-07 06:00:00+00:00,0.0,2024-02-07 05:56,20.0,16.0,,1024.9,10.0,5.75,30.2,84.19,5.0,12.14,,,M,,,GNR,1072305,2024-02-07 06:00:00+00:00,1390.0,2.85,,
251069,2024-02-07 07:00:00+00:00,0.0,2024-02-07 06:56,18.0,15.0,,1024.9,30.0,4.6,30.19,87.81,4.0,11.07,,,M,,,GNR,1072309,2024-02-07 07:00:00+00:00,1380.0,2.84,,
251070,2024-02-07 08:00:00+00:00,0.0,2024-02-07 07:56,17.0,15.0,,1024.4,20.0,3.45,30.18,91.68,3.0,11.54,,,M,,,GNR,1072313,2024-02-07 08:00:00+00:00,1580.0,2.99,,
251071,2024-02-07 09:00:00+00:00,0.0,2024-02-07 08:56,17.0,14.0,,1024.7,340.0,5.75,30.19,87.76,5.0,8.58,,,M,,,GNR,1072317,2024-02-07 09:00:00+00:00,1740.0,3.1,,
251072,2024-02-07 10:00:00+00:00,0.0,2024-02-07 09:56,16.0,13.0,,1025.3,30.0,4.6,30.2,87.7,4.0,8.74,,,M,,,GNR,1072321,2024-02-07 10:00:00+00:00,1750.0,3.11,,
251073,2024-02-07 11:00:00+00:00,0.0,2024-02-07 10:56,17.0,14.0,,1025.8,310.0,4.6,30.22,87.76,4.0,9.9,,,M,,,GNR,1072325,2024-02-07 11:00:00+00:00,1770.0,3.12,,
251074,2024-02-07 12:00:00+00:00,0.0,2024-02-07 11:56,14.0,12.0,,1026.2,30.0,5.75,30.23,91.57,5.0,5.02,,,M,,,GNR,1072329,2024-02-07 12:00:00+00:00,1780.0,3.13,,
251075,2024-02-07 13:00:00+00:00,0.0,2024-02-07 12:56,18.0,15.0,,1026.6,320.0,3.45,30.24,87.81,3.0,12.68,,,M,,,GNR,1072333,2024-02-07 13:00:00+00:00,1800.0,3.14,,
251076,2024-02-07 14:00:00+00:00,0.0,2024-02-07 13:56,21.0,16.0,,1026.9,40.0,3.45,30.25,80.69,3.0,16.11,,,M,,,GNR,1072337,2024-02-07 14:00:00+00:00,1810.0,3.15,,
251077,2024-02-07 15:00:00+00:00,0.0,2024-02-07 14:56,27.0,20.0,,1026.6,320.0,6.9,30.25,74.57,6.0,19.51,,,M,,,GNR,1072341,2024-02-07 15:00:00+00:00,1830.0,3.16,,
251078,2024-02-07 16:00:00+00:00,0.0,2024-02-07 15:56,27.0,19.0,,1026.2,70.0,4.6,30.23,71.45,4.0,21.58,,,M,,,GNR,1072345,2024-02-07 16:00:00+00:00,1840.0,3.17,,
251079,2024-02-07 17:00:00+00:00,0.0,2024-02-07 16:56,31.0,21.0,,1025.3,0.0,0.0,30.21,66.07,0.0,31.0,,,M,,,GNR,1072349,2024-02-07 17:00:00+00:00,1800.0,3.14,,
251080,2024-02-07 18:00:00+00:00,0.0,2024-02-07 17:56,34.0,20.0,,1024.4,,4.6,30.19,56.12,4.0,29.76,,,M,,,GNR,1072353,2024-02-07 18:00:00+00:00,1740.0,3.1,,
251081,2024-02-07 19:00:00+00:00,0.0,2024-02-07 18:56,34.0,20.0,,1024.0,330.0,8.05,30.17,56.12,7.0,27.22,,,M,,,GNR,1072357,2024-02-07 19:00:00+00:00,1710.0,3.08,,
251082,2024-02-07 20:00:00+00:00,0.0,2024-02-07 19:56,35.0,20.0,,1024.3,310.0,5.75,30.18,53.93,5.0,29.96,,,M,,,GNR,1072361,2024-02-07 20:00:00+00:00,1710.0,3.08,,
251083,2024-02-07 21:00:00+00:00,0.0,2024-02-07 20:56,34.0,19.0,,1024.5,320.0,5.75,30.19,53.77,5.0,28.77,,,M,,,GNR,1072365,2024-02-07 21:00:00+00:00,1710.0,3.08,,
251084,2024-02-07 22:00:00+00:00,0.0,2024-02-07 21:56,31.0,19.0,,1024.8,0.0,0.0,30.19,60.67,0.0,31.0,,,M,,,GNR,1072369,2024-02-07 22:00:00+00:00,1710.0,3.08,,
251085,2024-02-07 23:00:00+00:00,0.0,2024-02-07 22:56,28.0,18.0,,1024.8,0.0,0.0,30.19,65.69,0.0,28.0,,,M,,,GNR,1072373,2024-02-07 23:00:00+00:00,1710.0,3.08,,
251086,2024-02-08 00:00:00+00:00,0.0,2024-02-07 23:56,26.0,18.0,,1025.5,0.0,0.0,30.21,71.33,0.0,26.0,,,M,,,GNR,1072377,2024-02-08 00:00:00+00:00,6270.0,5.36,,
251087,2024-02-08 01:00:00+00:00,0.0,2024-02-08 00:56,29.0,18.0,,1025.5,350.0,4.6,30.21,63.05,4.0,23.92,,,M,,,GNR,1072381,2024-02-08 01:00:00+00:00,8830.0,6.39,,
251088,2024-02-08 02:00:00+00:00,0.0,2024-02-08 01:56,29.0,19.0,,1025.4,360.0,5.75,30.21,65.81,5.0,22.83,,,M,,,GNR,1072385,2024-02-08 02:00:00+00:00,4360.0,4.52,,
251089,2024-02-08 03:00:00+00:00,0.0,2024-02-08 02:56,27.0,19.0,,1025.1,0.0,0.0,30.21,71.45,0.0,27.0,,,M,,,GNR,1072389,2024-02-08 03:00:00+00:00,1980.0,3.26,,
251090,2024-02-08 04:00:00+00:00,0.0,2024-02-08 03:56,27.0,19.0,,1025.1,310.0,4.6,30.21,71.45,4.0,21.58,,,M,,,GNR,1072393,2024-02-08 04:00:00+00:00,1720.0,3.09,,
251091,2024-02-08 05:00:00+00:00,0.0,2024-02-08 04:56,25.0,18.0,,1025.2,40.0,5.75,30.21,74.36,5.0,18.08,,,M,,,GNR,1072397,2024-02-08 05:00:00+00:00,1720.0,3.09,,
251092,2024-02-08 06:00:00+00:00,0.0,2024-02-08 05:56,26.0,19.0,,1024.9,320.0,5.75,30.21,74.46,5.0,19.27,,,M,,,GNR,1072401,2024-02-08 06:00:00+00:00,1710.0,3.08,,
251093,2024-02-08 07:00:00+00:00,0.0,2024-02-08 06:56,27.0,19.0,,1025.2,350.0,5.75,30.22,71.45,5.0,20.46,,,M,,,GNR,1072405,2024-02-08 07:00:00+00:00,1710.0,3.08,,
251094,2024-02-08 08:00:00+00:00,0.0,2024-02-08 07:56,28.0,20.0,,1025.0,360.0,4.6,30.21,71.56,4.0,22.75,,,M,,,GNR,1072409,2024-02-08 08:00:00+00:00,1710.0,3.08,,
251095,2024-02-08 09:00:00+00:00,0.0,2024-02-08 08:56,25.0,19.0,,1025.4,30.0,4.6,30.22,77.62,4.0,19.25,,,M,,,GNR,1072413,2024-02-08 09:00:00+00:00,1710.0,3.08,,
251096,2024-02-08 10:00:00+00:00,0.0,2024-02-08 09:56,26.0,19.0,,1025.7,310.0,3.45,30.23,74.46,3.0,21.83,,,M,,,GNR,1072417,2024-02-08 10:00:00+00:00,1710.0,3.08,,
251097,2024-02-08 11:00:00+00:00,0.0,2024-02-08 10:56,26.0,19.0,,1025.9,330.0,3.45,30.23,74.46,3.0,21.83,,,M,,,GNR,1072421,2024-02-08 11:00:00+00:00,1710.0,3.08,,
251098,2024-02-08 12:00:00+00:00,0.0,2024-02-08 11:56,24.0,17.0,,1026.3,350.0,4.6,30.24,74.26,4.0,18.08,,,M,,,GNR,1072425,2024-02-08 12:00:00+00:00,1710.0,3.08,,
251099,2024-02-08 13:00:00+00:00,0.0,2024-02-08 12:56,25.0,18.0,,1026.6,40.0,4.6,30.25,74.36,4.0,19.25,,,M,,,GNR,1072429,2024-02-08 13:00:00+00:00,1710.0,3.08,,
251100,2024-02-08 14:00:00+00:00,0.0,2024-02-08 13:56,29.0,19.0,,1026.3,40.0,4.6,30.25,65.81,4.0,23.92,,,M,,,GNR,1072433,2024-02-08 14:00:00+00:00,1690.0,3.07,,
251101,2024-02-08 15:00:00+00:00,0.0,2024-02-08 14:56,32.0,20.0,,1026.2,0.0,0.0,30.24,60.81,0.0,32.0,,,M,,,GNR,1072437,2024-02-08 15:00:00+00:00,1690.0,3.07,,
251102,2024-02-08 16:00:00+00:00,0.0,2024-02-08 15:56,34.0,19.0,,1026.4,340.0,5.75,30.25,53.77,5.0,28.77,,,M,,,GNR,1072441,2024-02-08 16:00:00+00:00,1690.0,3.07,,
251103,2024-02-08 17:00:00+00:00,0.0,2024-02-08 16:56,37.0,19.0,,1025.4,0.0,0.0,30.22,47.74,0.0,37.0,,,M,,,GNR,1072445,2024-02-08 17:00:00+00:00,1690.0,3.07,,
251104,2024-02-08 18:00:00+00:00,0.0,2024-02-08 17:56,37.0,18.0,,1024.6,,3.45,30.2,45.73,3.0,34.4,,,M,,,GNR,1072449,2024-02-08 18:00:00+00:00,1690.0,3.07,,
251105,2024-02-08 19:00:00+00:00,0.0,2024-02-08 18:56,38.0,18.0,,1023.9,,3.45,30.18,43.97,3.0,35.55,,,M,,,GNR,1072453,2024-02-08 19:00:00+00:00,1690.0,3.07,,
251106,2024-02-08 20:00:00+00:00,0.0,2024-02-08 19:56,39.0,17.0,,1023.7,290.0,4.6,30.18,40.5,4.0,35.59,,,M,,,GNR,1072457,2024-02-08 20:00:00+00:00,1690.0,3.07,,
251107,2024-02-08 21:00:00+00:00,0.0,2024-02-08 20:56,38.0,18.0,,1023.8,320.0,3.45,30.18,43.97,3.0,35.55,,,M,,,GNR,1072461,2024-02-08 21:00:00+00:00,1690.0,3.07,,
251108,2024-02-08 22:00:00+00:00,0.0,2024-02-08 21:56,35.0,19.0,,1024.3,0.0,0.0,30.19,51.67,0.0,35.0,,,M,,,GNR,1072465,2024-02-08 22:00:00+00:00,1690.0,3.07,,
251109,2024-02-08 23:00:00+00:00,0.0,2024-02-08 22:56,30.0,19.0,,1024.5,0.0,0.0,30.19,63.18,0.0,30.0,,,M,,,GNR,1072469,2024-02-08 23:00:00+00:00,1690.0,3.07,,
251110,2024-02-09 00:00:00+00:00,0.0,2024-02-08 23:56,27.0,18.0,,1024.7,80.0,3.45,30.19,68.45,3.0,22.97,,,M,,,GNR,1072473,2024-02-09 00:00:00+00:00,6590.0,5.49,,
251111,2024-02-09 01:00:00+00:00,0.0,2024-02-09 00:56,28.0,18.0,,1024.7,130.0,4.6,30.19,65.69,4.0,22.75,,,M,,,GNR,1072477,2024-02-09 01:00:00+00:00,8810.0,6.38,,
251112,2024-02-09 02:00:00+00:00,0.0,2024-02-09 01:56,29.0,19.0,,1023.8,120.0,6.9,30.17,65.81,6.0,21.92,,,M,,,GNR,1072481,2024-02-09 02:00:00+00:00,4400.0,4.54,,
251113,2024-02-09 03:00:00+00:00,0.0,2024-02-09 02:56,30.0,20.0,,1023.4,120.0,6.9,30.17,65.94,6.0,23.12,,,M,,,GNR,1072485,2024-02-09 03:00:00+00:00,1960.0,3.25,,
251114,2024-02-09 04:00:00+00:00,0.0,2024-02-09 03:56,29.0,19.0,,1022.5,120.0,8.05,30.14,65.81,7.0,21.12,,,M,,,GNR,1072489,2024-02-09 04:00:00+00:00,1720.0,3.09,,
251115,2024-02-09 05:00:00+00:00,0.0,2024-02-09 04:56,29.0,19.0,,1022.4,130.0,6.9,30.14,65.81,6.0,21.92,,,M,,,GNR,1072493,2024-02-09 05:00:00+00:00,1710.0,3.08,,
251116,2024-02-09 06:00:00+00:00,0.0,2024-02-09 05:56,27.0,19.0,,1022.5,130.0,5.75,30.14,71.45,5.0,20.46,,,M,,,GNR,1072497,2024-02-09 06:00:00+00:00,1710.0,3.08,,
251117,2024-02-09 07:00:00+00:00,0.0,2024-02-09 06:56,26.0,18.0,,1022.6,130.0,4.6,30.14,71.33,4.0,20.41,,,M,,,GNR,1072501,2024-02-09 07:00:00+00:00,1710.0,3.08,,
251118,2024-02-09 08:00:00+00:00,0.0,2024-02-09 07:56,26.0,18.0,,1021.6,130.0,8.05,30.12,71.33,7.0,17.47,,,M,,,GNR,1072505,2024-02-09 08:00:00+00:00,1710.0,3.08,,
251119,2024-02-09 09:00:00+00:00,0.0,2024-02-09 08:56,27.0,19.0,,1020.9,130.0,5.75,30.09,71.45,5.0,20.46,,,M,,,GNR,1072509,2024-02-09 09:00:00+00:00,1710.0,3.08,,
251120,2024-02-09 10:00:00+00:00,0.0,2024-02-09 09:56,26.0,19.0,,1020.8,140.0,6.9,30.09,74.46,6.0,18.3,,,M,,,GNR,1072513,2024-02-09 10:00:00+00:00,1740.0,3.1,,
251121,2024-02-09 11:00:00+00:00,0.0,2024-02-09 10:56,28.0,20.0,,1020.8,150.0,8.05,30.09,71.56,7.0,19.9,,,M,,,GNR,1072517,2024-02-09 11:00:00+00:00,1750.0,3.11,,
251122,2024-02-09 12:00:00+00:00,0.0,2024-02-09 11:56,27.0,20.0,,1020.5,130.0,8.05,30.07,74.57,7.0,18.68,,,M,,,GNR,1072521,2024-02-09 12:00:00+00:00,1770.0,3.12,,
251123,2024-02-09 13:00:00+00:00,0.0,2024-02-09 12:56,28.0,20.0,,1020.1,140.0,9.2,30.06,71.56,8.0,19.19,,,M,,,GNR,1072525,2024-02-09 13:00:00+00:00,1780.0,3.13,,
251124,2024-02-09 14:00:00+00:00,0.0,2024-02-09 13:56,29.0,21.0,,1019.4,140.0,10.35,30.04,71.67,9.0,19.78,,17.0,M,,,GNR,1072529,2024-02-09 14:00:00+00:00,1800.0,3.14,,
251125,2024-02-09 15:00:00+00:00,0.0,2024-02-09 14:56,29.0,22.0,,1018.9,140.0,9.2,30.03,74.77,8.0,20.42,,,M,,,GNR,1072533,2024-02-09 15:00:00+00:00,1800.0,3.14,,
251126,2024-02-09 16:00:00+00:00,0.0,2024-02-09 15:56,29.0,22.0,,1018.1,150.0,8.05,30.01,74.77,7.0,21.12,,16.0,M,,,GNR,1072537,2024-02-09 16:00:00+00:00,1710.0,3.08,,
251127,2024-02-09 17:00:00+00:00,0.0,2024-02-09 16:56,30.0,23.0,,1017.0,150.0,8.05,29.98,74.87,7.0,22.34,,,M,,,GNR,1072541,2024-02-09 17:00:00+00:00,1690.0,3.07,,
251128,2024-02-09 18:00:00+00:00,0.0,2024-02-09 17:56,32.0,26.0,,1016.3,150.0,9.2,29.96,78.25,8.0,24.11,,17.0,M,,,GNR,1072545,2024-02-09 18:00:00+00:00,1690.0,3.07,,
251129,2024-02-09 19:00:00+00:00,0.0,2024-02-09 18:56,33.0,27.0,,1015.4,160.0,9.2,29.93,78.34,8.0,25.34,,,M,,,GNR,1072549,2024-02-09 19:00:00+00:00,1690.0,3.07,,
251130,2024-02-09 20:00:00+00:00,0.0,2024-02-09 19:56,34.0,27.0,,1014.6,150.0,9.2,29.9,75.26,8.0,26.58,,15.0,M,,,GNR,1072553,2024-02-09 20:00:00+00:00,1690.0,3.07,,
251131,2024-02-09 21:00:00+00:00,0.0,2024-02-09 20:56,35.0,27.0,,1014.4,,5.75,29.9,72.32,5.0,29.96,,,M,,,GNR,1072557,2024-02-09 21:00:00+00:00,1690.0,3.07,,
251132,2024-02-09 22:00:00+00:00,0.0,2024-02-09 21:56,34.0,28.0,,1014.6,,6.9,29.91,78.43,6.0,27.94,,,M,,,GNR,1072561,2024-02-09 22:00:00+00:00,1690.0,3.07,,
251133,2024-02-09 23:00:00+00:00,0.0,2024-02-09 22:56,34.0,29.0,,1014.8,,5.75,29.91,81.71,5.0,28.77,,,M,,,GNR,1072565,2024-02-09 23:00:00+00:00,1690.0,3.07,,
251134,2024-02-10 00:00:00+00:00,0.0,2024-02-09 23:56,34.0,30.0,,1014.5,170.0,4.6,29.91,85.11,4.0,29.76,,,M,,,GNR,1072569,2024-02-10 00:00:00+00:00,1890.0,3.2,,
251135,2024-02-10 01:00:00+00:00,0.0,2024-02-10 00:56,33.0,29.0,,1013.8,140.0,6.9,29.88,85.04,6.0,26.73,,,M,,,GNR,1072573,2024-02-10 01:00:00+00:00,8730.0,6.35,,
251136,2024-02-10 02:00:00+00:00,0.0,2024-02-10 01:56,32.0,29.0,,1013.3,140.0,8.05,29.87,88.53,7.0,24.78,,,M,,,GNR,1072577,2024-02-10 02:00:00+00:00,5050.0,4.84,,
251137,2024-02-10 03:00:00+00:00,0.0,2024-02-10 02:56,32.0,28.0,,1013.0,140.0,6.9,29.86,84.98,6.0,25.53,,,M,,,GNR,1072581,2024-02-10 03:00:00+00:00,2200.0,3.4,,
251138,2024-02-10 04:00:00+00:00,0.0,2024-02-10 03:56,31.0,28.0,,1012.3,140.0,6.9,29.84,88.48,6.0,24.33,,,M,,,GNR,1072585,2024-02-10 04:00:00+00:00,1720.0,3.09,,
251139,2024-02-10 05:00:00+00:00,0.0,2024-02-10 04:56,31.0,29.0,,1011.1,130.0,8.05,29.8,92.19,7.0,23.56,,,M,,,GNR,1072589,2024-02-10 05:00:00+00:00,1710.0,3.08,,
251140,2024-02-10 06:00:00+00:00,0.0,2024-02-10 05:56,31.0,30.0,,1011.1,160.0,4.6,29.81,96.02,4.0,26.25,,,M,,,GNR,1072593,2024-02-10 06:00:00+00:00,1710.0,3.08,,
251141,2024-02-10 07:00:00+00:00,0.0,2024-02-10 06:56,30.0,30.0,,1010.2,140.0,4.6,29.78,100.0,4.0,25.08,,,M,,,GNR,1072597,2024-02-10 07:00:00+00:00,1690.0,3.07,,
251142,2024-02-10 08:00:00+00:00,0.0,2024-02-10 07:56,30.0,30.0,,1009.4,130.0,5.75,29.76,100.0,5.0,24.02,,,M,,,GNR,1072601,2024-02-10 08:00:00+00:00,1690.0,3.07,,
251143,2024-02-10 09:00:00+00:00,0.0,2024-02-10 08:56,30.0,29.0,,1008.7,130.0,8.05,29.74,96.0,7.0,22.34,,,M,,,GNR,1072605,2024-02-10 09:00:00+00:00,1690.0,3.07,,
251144,2024-02-10 10:00:00+00:00,0.0,2024-02-10 09:56,30.0,30.0,,1008.8,120.0,5.75,29.74,100.0,5.0,24.02,,,M,,,GNR,1072609,2024-02-10 10:00:00+00:00,1690.0,3.07,,
251145,2024-02-10 11:00:00+00:00,0.51,2024-02-10 10:56,31.0,30.0,,1008.5,140.0,8.05,29.73,96.02,7.0,23.56,,,M,,,GNR,1072613,2024-02-10 11:00:00+00:00,1690.0,3.07,,
251146,2024-02-10 12:00:00+00:00,0.0,2024-02-10 11:56,31.0,30.0,,1008.1,140.0,8.05,29.72,96.02,7.0,23.56,,,M,,,GNR,1072617,2024-02-10 12:00:00+00:00,1690.0,3.07,,
251147,2024-02-10 13:00:00+00:00,0.0,2024-02-10 12:56,30.0,30.0,,1007.9,130.0,6.9,29.71,100.0,6.0,23.12,,,M,,,GNR,1072621,2024-02-10 13:00:00+00:00,1690.0,3.07,,
251148,2024-02-10 14:00:00+00:00,0.0,2024-02-10 13:56,31.0,30.0,,1007.7,130.0,5.75,29.71,96.02,5.0,25.21,,,M,,,GNR,1072625,2024-02-10 14:00:00+00:00,1690.0,3.07,,
251149,2024-02-10 15:00:00+00:00,0.0,2024-02-10 14:56,32.0,31.0,,1007.2,150.0,4.6,29.7,96.04,4.0,27.42,,,M,,,GNR,1072629,2024-02-10 15:00:00+00:00,1690.0,3.07,,
251150,2024-02-10 16:00:00+00:00,0.0,2024-02-10 15:56,32.0,31.0,,1006.2,130.0,6.9,29.66,96.04,6.0,25.53,,,M,,,GNR,1072633,2024-02-10 16:00:00+00:00,1690.0,3.07,,
251151,2024-02-10 17:00:00+00:00,0.0,2024-02-10 16:56,32.0,32.0,,1004.9,120.0,6.9,29.63,100.0,6.0,25.53,,,M,,,GNR,1072637,2024-02-10 17:00:00+00:00,1690.0,3.07,,
251152,2024-02-10 18:00:00+00:00,0.0,2024-02-10 17:56,33.0,33.0,,1004.1,100.0,9.2,29.6,100.0,8.0,25.34,,,M,,,GNR,1072641,2024-02-10 18:00:00+00:00,1690.0,3.07,,
251153,2024-02-10 19:00:00+00:00,0.0,2024-02-10 18:56,34.0,34.0,,1003.9,120.0,8.05,29.6,100.0,7.0,27.22,,,M,,,GNR,1072645,2024-02-10 19:00:00+00:00,1690.0,3.07,,
251154,2024-02-10 20:00:00+00:00,0.0,2024-02-10 19:56,36.0,35.0,,1003.9,120.0,8.05,29.6,96.11,7.0,29.65,,,M,,,GNR,1072649,2024-02-10 20:00:00+00:00,1690.0,3.07,,
251155,2024-02-10 21:00:00+00:00,0.25,2024-02-10 20:56,37.0,35.0,,1003.7,150.0,5.75,29.6,92.39,5.0,32.33,,,M,,,GNR,1072653,2024-02-10 21:00:00+00:00,1690.0,3.07,,
251156,2024-02-10 22:00:00+00:00,0.0,2024-02-10 21:56,37.0,35.0,,1003.6,50.0,4.6,29.59,92.39,4.0,33.26,,,M,,,GNR,1072657,2024-02-10 22:00:00+00:00,1690.0,3.07,,
251157,2024-02-10 23:00:00+00:00,0.0,2024-02-10 22:56,40.0,37.0,,1003.3,0.0,0.0,29.59,88.92,0.0,40.0,,,M,,,GNR,1072661,2024-02-10 23:00:00+00:00,1690.0,3.07,,
251158,2024-02-11 00:00:00+00:00,0.0,2024-02-10 23:56,39.0,37.0,,1003.1,120.0,3.45,29.58,92.45,3.0,36.69,,,M,,,GNR,1072665,2024-02-11 00:00:00+00:00,5650.0,5.1,,
251159,2024-02-11 01:00:00+00:00,0.0,2024-02-11 00:56,37.0,35.0,,1003.0,320.0,3.45,29.57,92.39,3.0,34.4,,,M,,,GNR,1072669,2024-02-11 01:00:00+00:00,8680.0,6.33,,
251160,2024-02-11 02:00:00+00:00,0.25,2024-02-11 01:56,40.0,38.0,,1003.2,310.0,9.2,29.58,92.49,8.0,33.97,,,M,,,GNR,1072673,2024-02-11 02:00:00+00:00,4130.0,4.41,,
251161,2024-02-11 03:00:00+00:00,0.0,2024-02-11 02:56,40.0,36.0,,1003.3,,4.6,29.59,85.48,4.0,36.76,,15.0,M,,,GNR,1072677,2024-02-11 03:00:00+00:00,1930.0,3.23,,
251162,2024-02-11 04:00:00+00:00,0.0,2024-02-11 03:56,38.0,32.0,,1003.4,,6.9,29.59,78.77,6.0,32.76,,,M,,,GNR,1072681,2024-02-11 04:00:00+00:00,1720.0,3.09,,
251163,2024-02-11 05:00:00+00:00,0.0,2024-02-11 04:56,37.0,31.0,,1004.1,300.0,8.05,29.61,78.69,7.0,30.87,,,M,,,GNR,1072685,2024-02-11 05:00:00+00:00,1720.0,3.09,,
251164,2024-02-11 06:00:00+00:00,0.0,2024-02-11 05:56,37.0,31.0,,1004.4,300.0,4.6,29.62,78.69,4.0,33.26,,,M,,,GNR,1072689,2024-02-11 06:00:00+00:00,1710.0,3.08,,
251165,2024-02-11 07:00:00+00:00,0.0,2024-02-11 06:56,36.0,31.0,,1004.4,310.0,9.2,29.62,81.86,8.0,29.04,,,M,,,GNR,1072693,2024-02-11 07:00:00+00:00,1710.0,3.08,,
251166,2024-02-11 08:00:00+00:00,0.0,2024-02-11 07:56,36.0,31.0,,1004.1,310.0,10.35,29.61,81.86,9.0,28.49,,,M,,,GNR,1072697,2024-02-11 08:00:00+00:00,1710.0,3.08,,
251167,2024-02-11 09:00:00+00:00,0.0,2024-02-11 08:56,36.0,31.0,,1004.5,320.0,12.65,29.62,81.86,11.0,27.52,,20.0,M,,,GNR,1072701,2024-02-11 09:00:00+00:00,1710.0,3.08,,
251168,2024-02-11 10:00:00+00:00,0.0,2024-02-11 09:56,36.0,30.0,,1004.5,310.0,12.65,29.62,78.6,11.0,27.52,,20.0,M,,,GNR,1072705,2024-02-11 10:00:00+00:00,1720.0,3.09,,
251169,2024-02-11 11:00:00+00:00,0.0,2024-02-11 10:56,35.0,30.0,,1004.6,290.0,9.2,29.63,81.78,8.0,27.81,,18.0,M,,,GNR,1072709,2024-02-11 11:00:00+00:00,1720.0,3.09,,
251170,2024-02-11 12:00:00+00:00,0.0,2024-02-11 11:56,35.0,30.0,,1004.5,300.0,11.5,29.63,81.78,10.0,26.73,,24.0,M,,,GNR,1072713,2024-02-11 12:00:00+00:00,1720.0,3.09,,
251171,2024-02-11 13:00:00+00:00,0.0,2024-02-11 12:56,36.0,30.0,,1005.6,300.0,12.65,29.66,78.6,11.0,27.52,,21.0,M,,,GNR,1072717,2024-02-11 13:00:00+00:00,1720.0,3.09,,
251172,2024-02-11 14:00:00+00:00,0.0,2024-02-11 13:56,35.0,30.0,,1005.7,310.0,10.35,29.66,81.78,9.0,27.24,,21.0,M,27.0,,GNR,1072721,2024-02-11 14:00:00+00:00,1720.0,3.09,,
251173,2024-02-11 15:00:00+00:00,0.0,2024-02-11 14:56,36.0,30.0,,1006.2,300.0,12.65,29.67,78.6,11.0,27.52,,22.0,M,,,GNR,1072725,2024-02-11 15:00:00+00:00,1720.0,3.09,,
251174,2024-02-11 16:00:00+00:00,0.0,2024-02-11 15:56,37.0,29.0,,1006.2,300.0,10.35,29.68,72.54,9.0,29.73,,21.0,M,,,GNR,1072729,2024-02-11 16:00:00+00:00,1720.0,3.09,,
251175,2024-02-11 17:00:00+00:00,0.0,2024-02-11 16:56,39.0,30.0,,1006.1,310.0,17.25,29.67,69.85,15.0,29.85,,22.0,M,,,GNR,1072733,2024-02-11 17:00:00+00:00,1720.0,3.09,,
251176,2024-02-11 18:00:00+00:00,0.0,2024-02-11 17:56,38.0,29.0,,1005.9,310.0,14.95,29.66,69.74,13.0,29.26,,21.0,M,,,GNR,1072737,2024-02-11 18:00:00+00:00,1720.0,3.09,,
251177,2024-02-11 19:00:00+00:00,0.0,2024-02-11 18:56,38.0,28.0,,1005.7,310.0,10.35,29.66,66.94,9.0,30.97,,21.0,M,,,GNR,1072741,2024-02-11 19:00:00+00:00,1740.0,3.1,,
251178,2024-02-11 20:00:00+00:00,0.0,2024-02-11 19:56,38.0,28.0,,1006.5,300.0,8.05,29.68,66.94,7.0,32.09,,17.0,M,,,GNR,1072745,2024-02-11 20:00:00+00:00,1740.0,3.1,,
251179,2024-02-11 21:00:00+00:00,0.0,2024-02-11 20:56,36.0,28.0,,1007.2,300.0,9.2,29.7,72.43,8.0,29.04,,,M,,,GNR,1072749,2024-02-11 21:00:00+00:00,1740.0,3.1,,
251180,2024-02-11 22:00:00+00:00,0.0,2024-02-11 21:56,34.0,28.0,,1007.5,300.0,8.05,29.71,78.43,7.0,27.22,,14.0,M,,,GNR,1072753,2024-02-11 22:00:00+00:00,1740.0,3.1,,
251181,2024-02-11 23:00:00+00:00,0.0,2024-02-11 22:56,34.0,27.0,,1008.1,310.0,9.2,29.72,75.26,8.0,26.58,,15.0,M,,,GNR,1072757,2024-02-11 23:00:00+00:00,1740.0,3.1,,
251182,2024-02-12 00:00:00+00:00,0.0,2024-02-11 23:56,33.0,27.0,,1007.8,300.0,12.65,29.72,78.34,11.0,23.73,,21.0,M,27.0,,GNR,1072761,2024-02-12 00:00:00+00:00,5650.0,5.1,,
251183,2024-02-12 01:00:00+00:00,0.0,2024-02-12 00:56,33.0,27.0,,1007.7,300.0,10.35,29.71,78.34,9.0,24.76,,18.0,M,27.0,,GNR,1072765,2024-02-12 01:00:00+00:00,8780.0,6.37,,
251184,2024-02-12 02:00:00+00:00,0.0,2024-02-12 01:56,33.0,27.0,,1008.0,300.0,10.35,29.72,78.34,9.0,24.76,,19.0,M,,,GNR,1072769,2024-02-12 02:00:00+00:00,4230.0,4.46,,
251185,2024-02-12 03:00:00+00:00,0.0,2024-02-12 02:56,32.0,27.0,,1007.9,310.0,10.35,29.72,81.55,9.0,23.51,,17.0,M,,,GNR,1072773,2024-02-12 03:00:00+00:00,1980.0,3.26,,
251186,2024-02-12 04:00:00+00:00,0.0,2024-02-12 03:56,32.0,27.0,,1007.7,310.0,13.8,29.71,81.55,12.0,22.0,,21.0,M,,,GNR,1072777,2024-02-12 04:00:00+00:00,1770.0,3.12,,
251187,2024-02-12 05:00:00+00:00,0.0,2024-02-12 04:56,32.0,26.0,,1008.1,310.0,11.5,29.73,78.25,10.0,22.97,,20.0,M,,,GNR,1072781,2024-02-12 05:00:00+00:00,1750.0,3.11,,
251188,2024-02-12 06:00:00+00:00,0.0,2024-02-12 05:56,32.0,24.0,,1008.3,300.0,16.1,29.73,72.0,14.0,21.16,,25.0,M,27.0,,GNR,1072785,2024-02-12 06:00:00+00:00,1750.0,3.11,,
251189,2024-02-12 07:00:00+00:00,0.0,2024-02-12 06:56,32.0,23.0,,1008.5,310.0,9.2,29.74,69.04,8.0,24.11,,20.0,M,27.0,,GNR,1072789,2024-02-12 07:00:00+00:00,1740.0,3.1,,
251190,2024-02-12 08:00:00+00:00,0.0,2024-02-12 07:56,31.0,23.0,,1008.2,300.0,8.05,29.73,71.89,7.0,23.56,,,M,,,GNR,1072793,2024-02-12 08:00:00+00:00,1740.0,3.1,,
251191,2024-02-12 09:00:00+00:00,0.0,2024-02-12 08:56,31.0,23.0,,1008.1,300.0,9.2,29.72,71.89,8.0,22.88,,17.0,M,,,GNR,1072797,2024-02-12 09:00:00+00:00,1740.0,3.1,,
251192,2024-02-12 10:00:00+00:00,0.0,2024-02-12 09:56,31.0,23.0,,1009.0,300.0,11.5,29.75,71.89,10.0,21.71,,20.0,M,,,GNR,1072801,2024-02-12 10:00:00+00:00,1740.0,3.1,,
251193,2024-02-12 11:00:00+00:00,0.0,2024-02-12 10:56,30.0,24.0,,1009.1,300.0,4.6,29.75,78.07,4.0,25.08,,,M,,,GNR,1072805,2024-02-12 11:00:00+00:00,1740.0,3.1,,
251194,2024-02-12 12:00:00+00:00,0.0,2024-02-12 11:56,30.0,23.0,,1009.4,300.0,9.2,29.76,74.87,8.0,21.65,,,M,,,GNR,1072809,2024-02-12 12:00:00+00:00,1740.0,3.1,,
251195,2024-02-12 13:00:00+00:00,0.0,2024-02-12 12:56,30.0,22.0,,1009.9,,6.9,29.77,71.78,6.0,23.12,,15.0,M,,,GNR,1072813,2024-02-12 13:00:00+00:00,1740.0,3.1,,
251196,2024-02-12 14:00:00+00:00,0.0,2024-02-12 13:56,30.0,22.0,,1010.0,310.0,9.2,29.78,71.78,8.0,21.65,,,M,,,GNR,1072817,2024-02-12 14:00:00+00:00,1740.0,3.1,,
251197,2024-02-12 15:00:00+00:00,0.0,2024-02-12 14:56,31.0,22.0,,1009.9,300.0,9.2,29.77,68.92,8.0,22.88,,18.0,M,,,GNR,1072821,2024-02-12 15:00:00+00:00,1740.0,3.1,,
251198,2024-02-12 16:00:00+00:00,0.0,2024-02-12 15:56,32.0,23.0,,1009.7,300.0,9.2,29.77,69.04,8.0,24.11,,18.0,M,,,GNR,1072825,2024-02-12 16:00:00+00:00,1740.0,3.1,,
251199,2024-02-12 17:00:00+00:00,0.0,2024-02-12 16:56,32.0,22.0,,1009.5,290.0,9.2,29.76,66.2,8.0,24.11,,,M,,,GNR,1072829,2024-02-12 17:00:00+00:00,1740.0,3.1,,
251200,2024-02-12 18:00:00+00:00,0.0,2024-02-12 17:56,32.0,22.0,,1008.4,300.0,8.05,29.73,66.2,7.0,24.78,,,M,,,GNR,1072833,2024-02-12 18:00:00+00:00,1740.0,3.1,,
251201,2024-02-12 19:00:00+00:00,0.0,2024-02-12 18:56,32.0,22.0,,1008.1,,5.75,29.72,66.2,5.0,26.4,,,M,,,GNR,1072837,2024-02-12 19:00:00+00:00,1740.0,3.1,,
251202,2024-02-12 20:00:00+00:00,0.0,2024-02-12 19:56,32.0,22.0,,1009.2,,6.9,29.75,66.2,6.0,25.53,,,M,,,GNR,1072841,2024-02-12 20:00:00+00:00,1740.0,3.1,,
251203,2024-02-12 21:00:00+00:00,0.0,2024-02-12 20:56,32.0,22.0,,1008.2,,6.9,29.72,66.2,6.0,25.53,,,M,,,GNR,1072845,2024-02-12 21:00:00+00:00,1740.0,3.1,,
251204,2024-02-12 22:00:00+00:00,0.0,2024-02-12 21:56,31.0,21.0,,1009.1,0.0,0.0,29.75,66.07,0.0,31.0,,,M,,,GNR,1072849,2024-02-12 22:00:00+00:00,1720.0,3.09,,
251205,2024-02-12 23:00:00+00:00,0.0,2024-02-12 22:56,31.0,21.0,,1009.3,,4.6,29.75,66.07,4.0,26.25,,,M,,,GNR,1072853,2024-02-12 23:00:00+00:00,1720.0,3.09,,
251206,2024-02-13 00:00:00+00:00,0.0,2024-02-12 23:56,30.0,22.0,,1009.3,,5.75,29.75,71.78,5.0,24.02,,,M,,,GNR,1072857,2024-02-13 00:00:00+00:00,5140.0,4.88,,
251207,2024-02-13 01:00:00+00:00,0.0,2024-02-13 00:56,29.0,20.0,,1009.5,310.0,5.75,29.76,68.69,5.0,22.83,,,M,,,GNR,1072861,2024-02-13 01:00:00+00:00,8730.0,6.35,,
251208,2024-02-13 02:00:00+00:00,0.0,2024-02-13 01:56,29.0,19.0,,1009.4,290.0,3.45,29.75,65.81,3.0,25.26,,,M,,,GNR,1072865,2024-02-13 02:00:00+00:00,8730.0,6.35,,
251209,2024-02-13 03:00:00+00:00,0.0,2024-02-13 02:56,27.0,17.0,,1010.0,310.0,3.45,29.77,65.56,3.0,22.97,,,M,,,GNR,1072869,2024-02-13 03:00:00+00:00,4450.0,4.56,,
251210,2024-02-13 04:00:00+00:00,0.0,2024-02-13 03:56,25.0,17.0,,1009.0,350.0,4.6,29.74,71.22,4.0,19.25,,,M,,,GNR,1072873,2024-02-13 04:00:00+00:00,2010.0,3.28,,
251211,2024-02-13 05:00:00+00:00,0.0,2024-02-13 04:56,25.0,17.0,,1009.1,310.0,4.6,29.74,71.22,4.0,19.25,,,M,,,GNR,1072877,2024-02-13 05:00:00+00:00,1750.0,3.11,,
251212,2024-02-13 06:00:00+00:00,0.0,2024-02-13 05:56,23.0,17.0,,1008.6,340.0,6.9,29.73,77.44,6.0,14.69,,,M,,,GNR,1072881,2024-02-13 06:00:00+00:00,1750.0,3.11,,
251213,2024-02-13 07:00:00+00:00,0.0,2024-02-13 06:56,22.0,17.0,,1008.2,340.0,3.45,29.71,80.77,3.0,17.26,,,M,,,GNR,1072885,2024-02-13 07:00:00+00:00,1740.0,3.1,,
251214,2024-02-13 08:00:00+00:00,0.0,2024-02-13 07:56,22.0,18.0,,1007.9,330.0,6.9,29.7,84.33,6.0,13.49,,,M,,,GNR,1072889,2024-02-13 08:00:00+00:00,1550.0,2.97,,
251215,2024-02-13 09:00:00+00:00,0.0,2024-02-13 08:56,21.0,18.0,,1008.0,310.0,6.9,29.71,87.97,6.0,12.28,,,M,,,GNR,1072893,2024-02-13 09:00:00+00:00,1390.0,2.85,,
251216,2024-02-13 10:00:00+00:00,0.0,2024-02-13 09:56,20.0,17.0,,1007.7,30.0,3.45,29.7,87.92,3.0,14.97,,,M,,,GNR,1072897,2024-02-13 10:00:00+00:00,1410.0,2.86,,
251217,2024-02-13 11:00:00+00:00,0.0,2024-02-13 10:56,19.0,16.0,,1006.7,10.0,3.45,29.67,87.87,3.0,13.83,,,M,,,GNR,1072901,2024-02-13 11:00:00+00:00,1410.0,2.86,,
251218,2024-02-13 12:00:00+00:00,0.0,2024-02-13 11:56,17.0,15.0,,1007.1,0.0,0.0,29.67,91.68,0.0,17.0,,,M,,,GNR,1072905,2024-02-13 12:00:00+00:00,1420.0,2.87,,
251219,2024-02-13 13:00:00+00:00,0.0,2024-02-13 12:56,21.0,17.0,,1006.7,0.0,0.0,29.67,84.26,0.0,21.0,,,M,,,GNR,1072909,2024-02-13 13:00:00+00:00,1430.0,2.88,,
251220,2024-02-13 14:00:00+00:00,0.0,2024-02-13 13:56,25.0,19.0,,1005.8,0.0,0.0,29.64,77.62,0.0,25.0,,,M,,,GNR,1072913,2024-02-13 14:00:00+00:00,1450.0,2.89,,
251221,2024-02-13 15:00:00+00:00,0.0,2024-02-13 14:56,28.0,17.0,,1005.4,0.0,0.0,29.63,62.91,0.0,28.0,,,M,,,GNR,1072917,2024-02-13 15:00:00+00:00,1450.0,2.89,,
251222,2024-02-13 16:00:00+00:00,0.0,2024-02-13 15:56,30.0,14.0,,1004.3,,3.45,29.6,50.88,3.0,26.4,,,M,,,GNR,1072921,2024-02-13 16:00:00+00:00,1380.0,2.84,,
251223,2024-02-13 17:00:00+00:00,0.0,2024-02-13 16:56,29.0,15.0,,1003.4,,5.75,29.57,55.36,5.0,22.83,,,M,,,GNR,1072925,2024-02-13 17:00:00+00:00,1380.0,2.84,,
251224,2024-02-13 18:00:00+00:00,0.0,2024-02-13 17:56,30.0,15.0,,1001.9,320.0,6.9,29.53,53.15,6.0,23.12,,,M,,,GNR,1072929,2024-02-13 18:00:00+00:00,1380.0,2.84,,
251225,2024-02-13 19:00:00+00:00,0.0,2024-02-13 18:56,29.0,14.0,,1001.5,310.0,5.75,29.52,53.0,5.0,22.83,,,M,,,GNR,1072933,2024-02-13 19:00:00+00:00,1380.0,2.84,,
251226,2024-02-13 20:00:00+00:00,0.0,2024-02-13 19:56,30.0,11.0,,1000.2,20.0,9.2,29.48,44.57,8.0,21.65,,,M,,,GNR,1072937,2024-02-13 20:00:00+00:00,1370.0,2.83,,
251227,2024-02-13 21:00:00+00:00,0.0,2024-02-13 20:56,29.0,11.0,,999.9,30.0,10.35,29.47,46.42,9.0,19.78,,,M,,,GNR,1072941,2024-02-13 21:00:00+00:00,1380.0,2.84,,
251228,2024-02-13 22:00:00+00:00,0.0,2024-02-13 21:56,28.0,12.0,,999.3,20.0,8.05,29.45,50.56,7.0,19.9,,,M,,,GNR,1072945,2024-02-13 22:00:00+00:00,1380.0,2.84,,
251229,2024-02-13 23:00:00+00:00,0.0,2024-02-13 22:56,27.0,12.0,,999.9,350.0,9.2,29.47,52.68,8.0,17.95,,,M,,,GNR,1072949,2024-02-13 23:00:00+00:00,1380.0,2.84,,
251230,2024-02-14 00:00:00+00:00,0.0,2024-02-13 23:56,26.0,12.0,,1000.4,340.0,5.75,29.48,54.9,5.0,19.27,,,M,,,GNR,1072953,2024-02-14 00:00:00+00:00,1370.0,2.83,,
251231,2024-02-14 01:00:00+00:00,0.0,2024-02-14 00:56,27.0,13.0,,1000.5,340.0,8.05,29.48,55.06,7.0,18.68,,,M,,,GNR,1072957,2024-02-14 01:00:00+00:00,5170.0,4.89,,
251232,2024-02-14 02:00:00+00:00,0.0,2024-02-14 01:56,26.0,16.0,,1000.1,320.0,8.05,29.48,65.43,7.0,17.47,,,M,,,GNR,1072961,2024-02-14 02:00:00+00:00,5170.0,4.89,,
251233,2024-02-14 03:00:00+00:00,0.0,2024-02-14 02:56,25.0,16.0,,999.9,330.0,10.35,29.47,68.2,9.0,14.81,,18.0,M,,,GNR,1072965,2024-02-14 03:00:00+00:00,5170.0,4.89,,
251234,2024-02-14 04:00:00+00:00,0.0,2024-02-14 03:56,25.0,17.0,,999.9,320.0,11.5,29.47,71.22,10.0,14.19,,,M,,,GNR,1072969,2024-02-14 04:00:00+00:00,5190.0,4.9,,
251235,2024-02-14 05:00:00+00:00,0.0,2024-02-14 04:56,24.0,18.0,,999.7,320.0,6.9,29.47,77.53,6.0,15.9,,,M,,,GNR,1072973,2024-02-14 05:00:00+00:00,5190.0,4.9,,
251236,2024-02-14 06:00:00+00:00,0.0,2024-02-14 05:56,23.0,16.0,,999.5,330.0,8.05,29.46,74.15,7.0,13.81,,,M,,,GNR,1072977,2024-02-14 06:00:00+00:00,5190.0,4.9,,
251237,2024-02-14 07:00:00+00:00,0.0,2024-02-14 06:56,22.0,16.0,,999.6,330.0,9.2,29.46,77.34,8.0,11.79,,,M,,,GNR,1072981,2024-02-14 07:00:00+00:00,3560.0,4.14,,
251238,2024-02-14 08:00:00+00:00,0.0,2024-02-14 07:56,21.0,14.0,,999.6,330.0,8.05,29.46,73.94,7.0,11.37,,,M,,,GNR,1072985,2024-02-14 08:00:00+00:00,1720.0,3.09,,
251239,2024-02-14 09:00:00+00:00,0.0,2024-02-14 08:56,19.0,15.0,,1000.2,330.0,10.35,29.47,84.12,9.0,7.35,,,M,,,GNR,1072989,2024-02-14 09:00:00+00:00,1410.0,2.86,,
251240,2024-02-14 10:00:00+00:00,0.0,2024-02-14 09:56,15.0,11.0,,1001.5,310.0,14.95,29.51,83.84,13.0,-0.21,,22.0,M,30.0,,GNR,1072993,2024-02-14 10:00:00+00:00,1380.0,2.84,,
251241,2024-02-14 11:00:00+00:00,0.0,2024-02-14 10:56,12.0,6.0,,1002.3,310.0,10.35,29.53,76.38,9.0,-1.35,,22.0,M,26.0,,GNR,1072997,2024-02-14 11:00:00+00:00,1380.0,2.84,,
251242,2024-02-14 12:00:00+00:00,0.0,2024-02-14 11:56,10.0,3.0,,1003.1,300.0,18.4,29.55,72.75,16.0,-8.26,,31.0,M,31.0,,GNR,1073001,2024-02-14 12:00:00+00:00,1380.0,2.84,,
251243,2024-02-14 13:00:00+00:00,0.0,2024-02-14 12:56,10.0,1.0,,1003.0,310.0,16.1,29.55,66.29,14.0,-7.2,,31.0,M,35.0,,GNR,1073005,2024-02-14 13:00:00+00:00,1370.0,2.83,,
251244,2024-02-14 14:00:00+00:00,0.0,2024-02-14 13:56,11.0,0.0,,1003.0,310.0,17.25,29.55,60.5,15.0,-6.44,,30.0,M,37.0,,GNR,1073009,2024-02-14 14:00:00+00:00,1350.0,2.82,,
251245,2024-02-14 15:00:00+00:00,0.0,2024-02-14 14:56,11.0,-1.0,,1003.3,300.0,18.4,29.55,57.72,16.0,-6.95,,34.0,M,36.0,,GNR,1073013,2024-02-14 15:00:00+00:00,5170.0,4.89,,
251246,2024-02-14 16:00:00+00:00,0.0,2024-02-14 15:56,11.0,-1.0,,1003.4,310.0,13.8,29.56,57.72,12.0,-4.73,,28.0,M,35.0,,GNR,1073017,2024-02-14 16:00:00+00:00,3700.0,4.21,,
251247,2024-02-14 17:00:00+00:00,0.0,2024-02-14 16:56,12.0,-2.0,,1002.7,310.0,16.1,29.53,52.67,14.0,-4.62,,31.0,M,40.0,,GNR,1073021,2024-02-14 17:00:00+00:00,1770.0,3.12,,
251248,2024-02-14 18:00:00+00:00,0.0,2024-02-14 17:56,12.0,-1.0,,1002.5,320.0,20.7,29.53,55.22,18.0,-6.58,,35.0,M,35.0,,GNR,1073025,2024-02-14 18:00:00+00:00,1410.0,2.86,,
251249,2024-02-14 19:00:00+00:00,0.0,2024-02-14 18:56,12.0,-2.0,,1002.8,310.0,24.15,29.53,52.67,21.0,-7.82,,37.0,M,40.0,,GNR,1073029,2024-02-14 19:00:00+00:00,1370.0,2.83,,
251250,2024-02-14 20:00:00+00:00,0.0,2024-02-14 19:56,12.0,0.0,,1002.8,300.0,20.7,29.53,57.88,18.0,-6.58,,30.0,M,43.0,,GNR,1073033,2024-02-14 20:00:00+00:00,1380.0,2.84,,
251251,2024-02-14 21:00:00+00:00,0.0,2024-02-14 20:56,11.0,0.0,,1003.8,310.0,18.4,29.56,60.5,16.0,-6.95,,34.0,M,39.0,,GNR,1073037,2024-02-14 21:00:00+00:00,1370.0,2.83,,
251252,2024-02-14 22:00:00+00:00,0.0,2024-02-14 21:56,11.0,0.0,,1004.8,320.0,21.85,29.59,60.5,19.0,-8.33,,30.0,M,34.0,,GNR,1073041,2024-02-14 22:00:00+00:00,1370.0,2.83,,
251253,2024-02-14 23:00:00+00:00,0.0,2024-02-14 22:56,11.0,1.0,,1006.6,310.0,14.95,29.64,63.4,13.0,-5.34,,26.0,M,32.0,,GNR,1073045,2024-02-14 23:00:00+00:00,1370.0,2.83,,
251254,2024-02-15 00:00:00+00:00,0.0,2024-02-14 23:56,11.0,2.0,,1007.2,320.0,13.8,29.65,66.43,12.0,-4.73,,26.0,M,29.0,,GNR,1073049,2024-02-15 00:00:00+00:00,3890.0,4.3,,
251255,2024-02-15 01:00:00+00:00,0.0,2024-02-15 00:56,11.0,2.0,,1007.8,310.0,11.5,29.67,66.43,10.0,-3.37,,23.0,M,,,GNR,1073053,2024-02-15 01:00:00+00:00,8960.0,6.44,,
251256,2024-02-15 02:00:00+00:00,0.0,2024-02-15 01:56,11.0,1.0,,1008.5,330.0,16.1,29.69,63.4,14.0,-5.91,,25.0,M,36.0,,GNR,1073057,2024-02-15 02:00:00+00:00,9010.0,6.46,,
251257,2024-02-15 03:00:00+00:00,0.0,2024-02-15 02:56,11.0,1.0,,1008.4,320.0,16.1,29.69,63.4,14.0,-5.91,,22.0,M,26.0,,GNR,1073061,2024-02-15 03:00:00+00:00,8990.0,6.45,,
251258,2024-02-15 04:00:00+00:00,0.0,2024-02-15 03:56,11.0,2.0,,1008.6,320.0,21.85,29.69,66.43,19.0,-8.33,,30.0,M,30.0,,GNR,1073065,2024-02-15 04:00:00+00:00,4020.0,4.36,,
251259,2024-02-15 05:00:00+00:00,0.0,2024-02-15 04:56,11.0,3.0,,1009.5,310.0,17.25,29.72,69.58,15.0,-6.44,,28.0,M,31.0,,GNR,1073069,2024-02-15 05:00:00+00:00,1750.0,3.11,,
251260,2024-02-15 06:00:00+00:00,0.0,2024-02-15 05:56,11.0,3.0,,1010.2,310.0,19.55,29.74,69.58,17.0,-7.44,,33.0,M,33.0,,GNR,1073073,2024-02-15 06:00:00+00:00,1390.0,2.85,,
251261,2024-02-15 07:00:00+00:00,0.0,2024-02-15 06:56,11.0,3.0,,1010.8,310.0,21.85,29.76,69.58,19.0,-8.33,,32.0,M,35.0,,GNR,1073077,2024-02-15 07:00:00+00:00,1380.0,2.84,,
251262,2024-02-15 08:00:00+00:00,0.0,2024-02-15 07:56,10.0,2.0,,1011.1,310.0,19.55,29.77,69.45,17.0,-8.75,,31.0,M,35.0,,GNR,1073081,2024-02-15 08:00:00+00:00,1390.0,2.85,,
251263,2024-02-15 09:00:00+00:00,0.0,2024-02-15 08:56,10.0,2.0,,1011.4,320.0,20.7,29.78,69.45,18.0,-9.21,,32.0,M,32.0,,GNR,1073085,2024-02-15 09:00:00+00:00,1410.0,2.86,,
251264,2024-02-15 10:00:00+00:00,0.0,2024-02-15 09:56,9.0,1.0,,1011.9,320.0,19.55,29.79,69.33,17.0,-10.06,,28.0,M,34.0,,GNR,1073089,2024-02-15 10:00:00+00:00,1430.0,2.88,,
251265,2024-02-15 11:00:00+00:00,0.0,2024-02-15 10:56,8.0,0.0,,1012.9,320.0,13.8,29.82,69.21,12.0,-8.54,,22.0,M,31.0,,GNR,1073093,2024-02-15 11:00:00+00:00,1450.0,2.89,,
251266,2024-02-15 12:00:00+00:00,0.0,2024-02-15 11:56,8.0,-1.0,,1013.1,320.0,18.4,29.82,66.03,16.0,-10.86,,27.0,M,27.0,,GNR,1073097,2024-02-15 12:00:00+00:00,5880.0,5.2,,
251267,2024-02-15 13:00:00+00:00,0.0,2024-02-15 12:56,9.0,-1.0,,1013.9,320.0,17.25,29.84,63.12,15.0,-9.04,,28.0,M,28.0,,GNR,1073101,2024-02-15 13:00:00+00:00,9310.0,6.58,,
251268,2024-02-15 14:00:00+00:00,0.0,2024-02-15 13:56,11.0,0.0,,1013.7,320.0,17.25,29.84,60.5,15.0,-6.44,,27.0,M,27.0,,GNR,1073105,2024-02-15 14:00:00+00:00,4340.0,4.51,,
251269,2024-02-15 15:00:00+00:00,0.0,2024-02-15 14:56,15.0,0.0,,1013.2,310.0,20.7,29.83,50.73,18.0,-2.63,,30.0,M,30.0,,GNR,1073109,2024-02-15 15:00:00+00:00,1780.0,3.13,,
251270,2024-02-15 16:00:00+00:00,0.0,2024-02-15 15:56,17.0,1.0,,1013.1,330.0,17.25,29.83,48.74,15.0,1.33,,24.0,M,29.0,,GNR,1073113,2024-02-15 16:00:00+00:00,1370.0,2.83,,
251271,2024-02-15 17:00:00+00:00,0.0,2024-02-15 16:56,22.0,1.0,,1012.4,320.0,14.95,29.82,39.36,13.0,8.76,,23.0,M,,,GNR,1073117,2024-02-15 17:00:00+00:00,1350.0,2.82,,
251272,2024-02-15 18:00:00+00:00,0.0,2024-02-15 17:56,24.0,2.0,,1011.6,330.0,11.5,29.8,37.92,10.0,12.94,,20.0,M,,,GNR,1073121,2024-02-15 18:00:00+00:00,1380.0,2.84,,
251273,2024-02-15 19:00:00+00:00,0.0,2024-02-15 18:56,25.0,4.0,,1011.2,320.0,19.55,29.78,39.89,17.0,10.9,,24.0,M,,,GNR,1073125,2024-02-15 19:00:00+00:00,1390.0,2.85,,
251274,2024-02-15 20:00:00+00:00,0.0,2024-02-15 19:56,26.0,0.0,,1010.9,310.0,13.8,29.77,31.78,12.0,14.37,,22.0,M,,,GNR,1073129,2024-02-15 20:00:00+00:00,1390.0,2.85,,
251275,2024-02-15 21:00:00+00:00,0.0,2024-02-15 20:56,25.0,0.0,,1010.6,300.0,9.2,29.76,33.12,8.0,15.49,,19.0,M,,,GNR,1073133,2024-02-15 21:00:00+00:00,1380.0,2.84,,
251276,2024-02-15 22:00:00+00:00,0.0,2024-02-15 21:56,23.0,-1.0,,1010.9,,4.6,29.77,34.36,4.0,16.91,,,M,,,GNR,1073137,2024-02-15 22:00:00+00:00,1370.0,2.83,,
251277,2024-02-15 23:00:00+00:00,0.0,2024-02-15 22:56,20.0,-3.0,,1010.5,310.0,6.9,29.76,35.48,6.0,11.08,,,M,,,GNR,1073141,2024-02-15 23:00:00+00:00,1350.0,2.82,,
251278,2024-02-16 00:00:00+00:00,0.0,2024-02-15 23:56,20.0,-1.0,,1009.2,360.0,6.9,29.72,39.01,6.0,11.08,,,M,,,GNR,1073145,2024-02-16 00:00:00+00:00,5950.0,5.23,,
251279,2024-02-16 01:00:00+00:00,0.0,2024-02-16 00:56,20.0,0.0,,1008.1,,6.9,29.69,40.89,6.0,11.08,,,M,,,GNR,1073149,2024-02-16 01:00:00+00:00,9040.0,6.47,,
251280,2024-02-16 02:00:00+00:00,0.0,2024-02-16 01:56,17.0,0.0,,1007.5,350.0,3.45,29.67,46.51,3.0,11.54,,,M,,,GNR,1073153,2024-02-16 02:00:00+00:00,9040.0,6.47,,
251281,2024-02-16 03:00:00+00:00,0.0,2024-02-16 02:56,17.0,-2.0,,1006.5,0.0,0.0,29.64,42.32,0.0,17.0,,,M,,,GNR,1073157,2024-02-16 03:00:00+00:00,4340.0,4.51,,
251282,2024-02-16 04:00:00+00:00,0.0,2024-02-16 03:56,18.0,0.0,,1005.9,0.0,0.0,29.63,44.55,0.0,18.0,,,M,,,GNR,1073161,2024-02-16 04:00:00+00:00,1830.0,3.16,,
251283,2024-02-16 05:00:00+00:00,0.0,2024-02-16 04:56,17.0,2.0,,1004.2,40.0,5.75,29.59,51.06,5.0,8.58,,,M,,,GNR,1073165,2024-02-16 05:00:00+00:00,1390.0,2.85,,
251284,2024-02-16 06:00:00+00:00,0.0,2024-02-16 05:56,18.0,2.0,,1003.3,0.0,0.0,29.56,48.91,0.0,18.0,,,M,,,GNR,1073169,2024-02-16 06:00:00+00:00,1370.0,2.83,,
251285,2024-02-16 07:00:00+00:00,0.0,2024-02-16 06:56,16.0,6.0,,1002.6,0.0,0.0,29.54,64.09,0.0,16.0,,,M,,,GNR,1073173,2024-02-16 07:00:00+00:00,1370.0,2.83,,
251286,2024-02-16 08:00:00+00:00,0.76,2024-02-16 07:56,15.0,12.0,,1001.0,70.0,4.6,29.49,87.65,4.0,7.57,,,M,,,GNR,1073177,2024-02-16 08:00:00+00:00,1370.0,2.83,,
251287,2024-02-16 09:00:00+00:00,0.0,2024-02-16 08:56,16.0,13.0,,999.8,50.0,3.45,29.46,87.7,3.0,10.4,,,M,,,GNR,1073181,2024-02-16 09:00:00+00:00,1370.0,2.83,,
251288,2024-02-16 10:00:00+00:00,0.25,2024-02-16 09:56,16.0,12.0,,999.6,80.0,4.6,29.45,83.91,4.0,8.74,,,M,,,GNR,1073185,2024-02-16 10:00:00+00:00,1370.0,2.83,,
251289,2024-02-16 11:00:00+00:00,0.0,2024-02-16 10:56,15.0,12.0,,999.6,0.0,0.0,29.45,87.65,0.0,15.0,,,M,,,GNR,1073189,2024-02-16 11:00:00+00:00,1350.0,2.82,,
251290,2024-02-16 12:00:00+00:00,0.0,2024-02-16 11:56,14.0,10.0,,1000.2,0.0,0.0,29.46,83.77,0.0,14.0,,,M,,,GNR,1073193,2024-02-16 12:00:00+00:00,1340.0,2.81,,
251291,2024-02-16 13:00:00+00:00,0.25,2024-02-16 12:56,14.0,10.0,,1000.6,300.0,6.9,29.47,83.77,6.0,3.85,,,M,,,GNR,1073197,2024-02-16 13:00:00+00:00,1340.0,2.81,,
251292,2024-02-16 14:00:00+00:00,0.25,2024-02-16 13:56,15.0,11.0,,1000.9,320.0,9.2,29.48,83.84,8.0,3.17,,,M,,,GNR,1073201,2024-02-16 14:00:00+00:00,1340.0,2.81,,
251293,2024-02-16 15:00:00+00:00,0.0,2024-02-16 14:56,17.0,12.0,,1001.1,310.0,10.35,29.48,80.36,9.0,4.86,,18.0,M,,,GNR,1073205,2024-02-16 15:00:00+00:00,1350.0,2.82,,
251294,2024-02-16 16:00:00+00:00,0.0,2024-02-16 15:56,18.0,12.0,,1001.4,320.0,12.65,29.5,76.97,11.0,4.77,,20.0,M,,,GNR,1073209,2024-02-16 16:00:00+00:00,1350.0,2.82,,
251295,2024-02-16 17:00:00+00:00,0.0,2024-02-16 16:56,21.0,11.0,,1001.1,330.0,17.25,29.49,64.77,15.0,6.52,,29.0,M,29.0,,GNR,1073213,2024-02-16 17:00:00+00:00,1350.0,2.82,,
251296,2024-02-16 18:00:00+00:00,0.0,2024-02-16 17:56,21.0,10.0,,1001.8,330.0,20.7,29.51,61.95,18.0,5.27,,27.0,M,27.0,,GNR,1073217,2024-02-16 18:00:00+00:00,1350.0,2.82,,
251297,2024-02-16 19:00:00+00:00,0.0,2024-02-16 18:56,21.0,10.0,,1002.6,320.0,19.55,29.53,61.95,17.0,5.66,,29.0,M,29.0,,GNR,1073221,2024-02-16 19:00:00+00:00,1350.0,2.82,,
251298,2024-02-16 20:00:00+00:00,0.0,2024-02-16 19:56,21.0,11.0,,1003.6,320.0,14.95,29.56,64.77,13.0,7.48,,25.0,M,30.0,,GNR,1073225,2024-02-16 20:00:00+00:00,1350.0,2.82,,
251299,2024-02-16 21:00:00+00:00,0.0,2024-02-16 20:56,20.0,10.0,,1004.4,320.0,17.25,29.58,64.64,15.0,5.22,,26.0,M,29.0,,GNR,1073229,2024-02-16 21:00:00+00:00,1350.0,2.82,,
251300,2024-02-16 22:00:00+00:00,0.0,2024-02-16 21:56,20.0,11.0,,1005.2,310.0,9.2,29.61,67.58,8.0,9.33,,15.0,M,28.0,,GNR,1073233,2024-02-16 22:00:00+00:00,1350.0,2.82,,
251301,2024-02-16 23:00:00+00:00,0.0,2024-02-16 22:56,17.0,10.0,,1006.3,300.0,11.5,29.64,73.52,10.0,4.16,,20.0,M,,,GNR,1073237,2024-02-16 23:00:00+00:00,1350.0,2.82,,
251302,2024-02-17 00:00:00+00:00,0.0,2024-02-16 23:56,16.0,8.0,,1006.8,310.0,9.2,29.65,70.18,8.0,4.4,,,M,,,GNR,1073241,2024-02-17 00:00:00+00:00,6000.0,5.25,,
251303,2024-02-17 01:00:00+00:00,0.0,2024-02-17 00:56,16.0,7.0,,1007.4,300.0,12.65,29.67,67.07,11.0,2.25,,19.0,M,,,GNR,1073245,2024-02-17 01:00:00+00:00,9010.0,6.46,,
251304,2024-02-17 02:00:00+00:00,0.0,2024-02-17 01:56,16.0,7.0,,1007.8,310.0,10.35,29.68,67.07,9.0,3.62,,22.0,M,,,GNR,1073249,2024-02-17 02:00:00+00:00,9040.0,6.47,,
251305,2024-02-17 03:00:00+00:00,0.0,2024-02-17 02:56,14.0,8.0,,1007.6,310.0,8.05,29.68,76.58,7.0,2.84,,,M,,,GNR,1073253,2024-02-17 03:00:00+00:00,9010.0,6.46,,
251306,2024-02-17 04:00:00+00:00,0.0,2024-02-17 03:56,14.0,9.0,,1007.3,,5.75,29.67,80.1,5.0,5.02,,,M,,,GNR,1073257,2024-02-17 04:00:00+00:00,4000.0,4.35,,
251307,2024-02-17 05:00:00+00:00,0.0,2024-02-17 04:56,15.0,11.0,,1007.0,320.0,4.6,29.66,83.84,4.0,7.57,,,M,,,GNR,1073261,2024-02-17 05:00:00+00:00,1750.0,3.11,,
251308,2024-02-17 06:00:00+00:00,0.0,2024-02-17 05:56,16.0,11.0,,1006.5,0.0,0.0,29.65,80.27,0.0,16.0,,,M,,,GNR,1073265,2024-02-17 06:00:00+00:00,1380.0,2.84,,
251309,2024-02-17 07:00:00+00:00,0.0,2024-02-17 06:56,17.0,11.0,,1006.8,0.0,0.0,29.66,76.87,0.0,17.0,,,M,,,GNR,1073269,2024-02-17 07:00:00+00:00,1370.0,2.83,,
251310,2024-02-17 08:00:00+00:00,0.0,2024-02-17 07:56,16.0,11.0,,1006.8,0.0,0.0,29.66,80.27,0.0,16.0,,,M,,,GNR,1073273,2024-02-17 08:00:00+00:00,1330.0,2.8,,
251311,2024-02-17 09:00:00+00:00,0.0,2024-02-17 08:56,16.0,11.0,,1006.0,0.0,0.0,29.63,80.27,0.0,16.0,,,M,,,GNR,1073277,2024-02-17 09:00:00+00:00,1290.0,2.77,,
251312,2024-02-17 10:00:00+00:00,0.0,2024-02-17 09:56,15.0,11.0,,1005.9,0.0,0.0,29.63,83.84,0.0,15.0,,,M,,,GNR,1073281,2024-02-17 10:00:00+00:00,1290.0,2.77,,
251313,2024-02-17 11:00:00+00:00,0.0,2024-02-17 10:56,15.0,12.0,,1005.4,0.0,0.0,29.61,87.65,0.0,15.0,,,M,,,GNR,1073285,2024-02-17 11:00:00+00:00,1300.0,2.78,,
251314,2024-02-17 12:00:00+00:00,0.0,2024-02-17 11:56,15.0,12.0,,1005.0,0.0,0.0,29.6,87.65,0.0,15.0,,,M,,,GNR,1073289,2024-02-17 12:00:00+00:00,1320.0,2.79,,
251315,2024-02-17 13:00:00+00:00,0.0,2024-02-17 12:56,17.0,13.0,,1004.9,0.0,0.0,29.6,83.98,0.0,17.0,,,M,,,GNR,1073293,2024-02-17 13:00:00+00:00,1320.0,2.79,,
251316,2024-02-17 14:00:00+00:00,0.0,2024-02-17 13:56,19.0,12.0,,1004.9,0.0,0.0,29.6,73.73,0.0,19.0,,,M,,,GNR,1073297,2024-02-17 14:00:00+00:00,1330.0,2.8,,
251317,2024-02-17 15:00:00+00:00,0.0,2024-02-17 14:56,21.0,12.0,,1004.0,,4.6,29.57,67.71,4.0,14.57,,,M,,,GNR,1073301,2024-02-17 15:00:00+00:00,1330.0,2.8,,
251318,2024-02-17 16:00:00+00:00,0.0,2024-02-17 15:56,21.0,13.0,,1003.1,,3.45,29.55,70.76,3.0,16.11,,,M,,,GNR,1073305,2024-02-17 16:00:00+00:00,1300.0,2.78,,
251319,2024-02-17 17:00:00+00:00,0.0,2024-02-17 16:56,23.0,11.0,,1002.1,,5.75,29.52,59.52,5.0,15.71,,,M,,,GNR,1073309,2024-02-17 17:00:00+00:00,1280.0,2.76,,
251320,2024-02-17 18:00:00+00:00,0.0,2024-02-17 17:56,22.0,16.0,,1001.5,,3.45,29.5,77.34,3.0,17.26,,,M,,,GNR,1073313,2024-02-17 18:00:00+00:00,1280.0,2.76,,
251321,2024-02-17 19:00:00+00:00,0.25,2024-02-17 18:56,23.0,15.0,,1000.6,300.0,6.9,29.48,70.99,6.0,14.69,,,M,,,GNR,1073317,2024-02-17 19:00:00+00:00,1280.0,2.76,,
251322,2024-02-17 20:00:00+00:00,0.0,2024-02-17 19:56,22.0,11.0,,1000.8,290.0,6.9,29.48,62.09,6.0,13.49,,,M,,,GNR,1073321,2024-02-17 20:00:00+00:00,1280.0,2.76,,
251323,2024-02-17 21:00:00+00:00,0.0,2024-02-17 20:56,21.0,3.0,,1000.7,290.0,9.2,29.48,45.06,8.0,10.56,,16.0,M,,,GNR,1073325,2024-02-17 21:00:00+00:00,1280.0,2.76,,
251324,2024-02-17 22:00:00+00:00,0.0,2024-02-17 21:56,19.0,4.0,,1000.8,,5.75,29.48,51.39,5.0,10.96,,,M,,,GNR,1073329,2024-02-17 22:00:00+00:00,1280.0,2.76,,
251325,2024-02-17 23:00:00+00:00,0.0,2024-02-17 22:56,18.0,2.0,,1001.3,290.0,14.95,29.49,48.91,13.0,3.63,,24.0,M,27.0,,GNR,1073333,2024-02-17 23:00:00+00:00,1280.0,2.76,,
251326,2024-02-18 00:00:00+00:00,0.0,2024-02-17 23:56,14.0,-1.0,,1001.8,,5.75,29.5,50.56,5.0,5.02,,,M,,,GNR,1073337,2024-02-18 00:00:00+00:00,6410.0,5.42,,
251327,2024-02-18 01:00:00+00:00,0.0,2024-02-18 00:56,11.0,-2.0,,1002.2,300.0,9.2,29.51,55.06,8.0,-1.76,,19.0,M,,,GNR,1073341,2024-02-18 01:00:00+00:00,9040.0,6.47,,
251328,2024-02-18 02:00:00+00:00,0.0,2024-02-18 01:56,9.0,-3.0,,1002.6,300.0,9.2,29.52,57.41,8.0,-4.22,,16.0,M,,,GNR,1073345,2024-02-18 02:00:00+00:00,9090.0,6.49,,
251329,2024-02-18 03:00:00+00:00,0.0,2024-02-18 02:56,8.0,-3.0,,1002.1,300.0,17.25,29.51,60.06,15.0,-10.33,,27.0,M,29.0,,GNR,1073349,2024-02-18 03:00:00+00:00,9040.0,6.47,,
251330,2024-02-18 04:00:00+00:00,0.0,2024-02-18 03:56,7.0,-5.0,,1002.4,290.0,11.5,29.52,57.1,10.0,-8.38,,20.0,M,27.0,,GNR,1073353,2024-02-18 04:00:00+00:00,4300.0,4.49,,
251331,2024-02-18 05:00:00+00:00,0.0,2024-02-18 04:56,5.0,-6.0,,1002.9,300.0,11.5,29.53,59.6,10.0,-10.89,,23.0,M,28.0,,GNR,1073357,2024-02-18 05:00:00+00:00,1770.0,3.12,,
251332,2024-02-18 06:00:00+00:00,0.0,2024-02-18 05:56,4.0,-6.0,,1003.2,300.0,8.05,29.54,62.4,7.0,-9.35,,,M,,,GNR,1073361,2024-02-18 06:00:00+00:00,1320.0,2.79,,
251333,2024-02-18 07:00:00+00:00,0.0,2024-02-18 06:56,3.0,-6.0,,1003.6,300.0,8.05,29.55,65.35,7.0,-10.57,,18.0,M,,,GNR,1073365,2024-02-18 07:00:00+00:00,1290.0,2.77,,
251334,2024-02-18 08:00:00+00:00,0.0,2024-02-18 07:56,3.0,-7.0,,1003.5,300.0,8.05,29.55,62.26,7.0,-10.57,,20.0,M,,,GNR,1073369,2024-02-18 08:00:00+00:00,1290.0,2.77,,
251335,2024-02-18 09:00:00+00:00,0.0,2024-02-18 08:56,2.0,-7.0,,1004.0,310.0,10.35,29.56,65.21,9.0,-13.79,,18.0,M,,,GNR,1073373,2024-02-18 09:00:00+00:00,1290.0,2.77,,
251336,2024-02-18 10:00:00+00:00,0.0,2024-02-18 09:56,2.0,-7.0,,1004.4,300.0,8.05,29.57,65.21,7.0,-11.79,,,M,,,GNR,1073377,2024-02-18 10:00:00+00:00,1300.0,2.78,,
251337,2024-02-18 11:00:00+00:00,0.0,2024-02-18 10:56,2.0,-7.0,,1005.1,300.0,3.45,29.59,65.21,3.0,-5.61,,,M,,,GNR,1073381,2024-02-18 11:00:00+00:00,1300.0,2.78,,
251338,2024-02-18 12:00:00+00:00,0.0,2024-02-18 11:56,1.0,-6.0,,1005.4,0.0,0.0,29.59,71.71,0.0,1.0,,,M,,,GNR,1073385,2024-02-18 12:00:00+00:00,1330.0,2.8,,
251339,2024-02-18 13:00:00+00:00,0.0,2024-02-18 12:56,4.0,-4.0,,1005.4,210.0,3.45,29.59,68.7,3.0,-3.32,,,M,,,GNR,1073389,2024-02-18 13:00:00+00:00,1340.0,2.81,,
251340,2024-02-18 14:00:00+00:00,0.0,2024-02-18 13:56,7.0,-3.0,,1005.5,200.0,8.05,29.6,62.84,7.0,-5.69,,,M,,,GNR,1073393,2024-02-18 14:00:00+00:00,1350.0,2.82,,
251341,2024-02-18 15:00:00+00:00,0.0,2024-02-18 14:56,10.0,-2.0,,1005.1,210.0,8.05,29.59,57.57,7.0,-2.04,,,M,,,GNR,1073397,2024-02-18 15:00:00+00:00,1370.0,2.83,,
251342,2024-02-18 16:00:00+00:00,0.0,2024-02-18 15:56,15.0,1.0,,1004.4,210.0,8.05,29.57,53.16,7.0,4.06,,,M,,,GNR,1073401,2024-02-18 16:00:00+00:00,1370.0,2.83,,
251343,2024-02-18 17:00:00+00:00,0.0,2024-02-18 16:56,18.0,3.0,,1003.7,220.0,8.05,29.55,51.23,7.0,7.71,,17.0,M,,,GNR,1073405,2024-02-18 17:00:00+00:00,1340.0,2.81,,
251344,2024-02-18 18:00:00+00:00,0.0,2024-02-18 17:56,19.0,4.0,,1003.2,190.0,10.35,29.54,51.39,9.0,7.35,,18.0,M,,,GNR,1073409,2024-02-18 18:00:00+00:00,1370.0,2.83,,
251345,2024-02-18 19:00:00+00:00,0.0,2024-02-18 18:56,21.0,4.0,,1002.3,200.0,8.05,29.51,47.19,7.0,11.37,,16.0,M,,,GNR,1073413,2024-02-18 19:00:00+00:00,1300.0,2.78,,
251346,2024-02-18 20:00:00+00:00,0.0,2024-02-18 19:56,22.0,6.0,,1001.8,,5.75,29.5,49.57,5.0,14.52,,17.0,M,,,GNR,1073417,2024-02-18 20:00:00+00:00,1280.0,2.76,,
251347,2024-02-18 21:00:00+00:00,0.0,2024-02-18 20:56,22.0,6.0,,1001.9,200.0,10.35,29.5,49.57,9.0,11.08,,15.0,M,,,GNR,1073421,2024-02-18 21:00:00+00:00,1280.0,2.76,,
251348,2024-02-18 22:00:00+00:00,0.0,2024-02-18 21:56,22.0,7.0,,1002.3,190.0,8.05,29.51,51.88,7.0,12.59,,,M,,,GNR,1073425,2024-02-18 22:00:00+00:00,1270.0,2.75,,
251349,2024-02-18 23:00:00+00:00,0.0,2024-02-18 22:56,21.0,8.0,,1002.9,200.0,9.2,29.53,56.62,8.0,10.56,,,M,,,GNR,1073429,2024-02-18 23:00:00+00:00,1270.0,2.75,,
251350,2024-02-19 00:00:00+00:00,0.0,2024-02-18 23:56,20.0,8.0,,1003.1,170.0,3.45,29.53,59.08,3.0,14.97,,,M,,,GNR,1073433,2024-02-19 00:00:00+00:00,6410.0,5.42,,
251351,2024-02-19 01:00:00+00:00,0.0,2024-02-19 00:56,20.0,9.0,,1003.3,190.0,5.75,29.54,61.8,5.0,12.14,,,M,,,GNR,1073437,2024-02-19 01:00:00+00:00,9040.0,6.47,,
251352,2024-02-19 02:00:00+00:00,0.0,2024-02-19 01:56,20.0,8.0,,1003.1,200.0,8.05,29.54,59.08,7.0,10.15,,,M,,,GNR,1073441,2024-02-19 02:00:00+00:00,9090.0,6.49,,
251353,2024-02-19 03:00:00+00:00,0.0,2024-02-19 02:56,19.0,9.0,,1002.8,200.0,4.6,29.53,64.5,4.0,12.24,,,M,,,GNR,1073445,2024-02-19 03:00:00+00:00,4490.0,4.58,,
251354,2024-02-19 04:00:00+00:00,0.0,2024-02-19 03:56,20.0,10.0,,1002.7,,5.75,29.53,64.64,5.0,12.14,,,M,,,GNR,1073449,2024-02-19 04:00:00+00:00,1810.0,3.15,,
251355,2024-02-19 05:00:00+00:00,0.0,2024-02-19 04:56,19.0,10.0,,1002.5,,3.45,29.53,67.46,3.0,13.83,,,M,,,GNR,1073453,2024-02-19 05:00:00+00:00,1320.0,2.79,,
251356,2024-02-19 06:00:00+00:00,0.0,2024-02-19 05:56,17.0,9.0,,1002.8,,3.45,29.54,70.3,3.0,11.54,,,M,,,GNR,1073457,2024-02-19 06:00:00+00:00,1280.0,2.76,,
251357,2024-02-19 07:00:00+00:00,0.0,2024-02-19 06:56,15.0,8.0,,1003.1,0.0,0.0,29.55,73.3,0.0,15.0,,,M,,,GNR,1073461,2024-02-19 07:00:00+00:00,1280.0,2.76,,
251358,2024-02-19 08:00:00+00:00,0.0,2024-02-19 07:56,17.0,12.0,,1003.8,0.0,0.0,29.57,80.36,0.0,17.0,,,M,,,GNR,1073465,2024-02-19 08:00:00+00:00,1280.0,2.76,,
251359,2024-02-19 09:00:00+00:00,0.0,2024-02-19 08:56,19.0,10.0,,1005.0,290.0,9.2,29.61,67.46,8.0,8.1,,19.0,M,,,GNR,1073469,2024-02-19 09:00:00+00:00,1250.0,2.74,,
251360,2024-02-19 10:00:00+00:00,0.0,2024-02-19 09:56,17.0,5.0,,1006.6,290.0,10.35,29.65,58.64,9.0,4.86,,19.0,M,,,GNR,1073473,2024-02-19 10:00:00+00:00,1250.0,2.74,,
251361,2024-02-19 11:00:00+00:00,0.0,2024-02-19 10:56,15.0,3.0,,1007.8,290.0,8.05,29.68,58.34,7.0,4.06,,,M,,,GNR,1073477,2024-02-19 11:00:00+00:00,1250.0,2.74,,
251362,2024-02-19 12:00:00+00:00,0.0,2024-02-19 11:56,13.0,6.0,,1009.9,300.0,8.05,29.74,73.08,7.0,1.62,,19.0,M,,,GNR,1073481,2024-02-19 12:00:00+00:00,1280.0,2.76,,
251363,2024-02-19 13:00:00+00:00,0.0,2024-02-19 12:56,14.0,3.0,,1011.8,300.0,14.95,29.8,60.94,13.0,-1.49,,22.0,M,,,GNR,1073485,2024-02-19 13:00:00+00:00,1250.0,2.74,,
251364,2024-02-19 14:00:00+00:00,0.0,2024-02-19 13:56,14.0,2.0,,1012.7,300.0,12.65,29.82,58.18,11.0,-0.28,,23.0,M,28.0,,GNR,1073489,2024-02-19 14:00:00+00:00,1270.0,2.75,,
251365,2024-02-19 15:00:00+00:00,0.0,2024-02-19 14:56,15.0,0.0,,1013.1,290.0,12.65,29.83,50.73,11.0,0.98,,25.0,M,31.0,,GNR,1073493,2024-02-19 15:00:00+00:00,1290.0,2.77,,
251366,2024-02-19 16:00:00+00:00,0.0,2024-02-19 15:56,16.0,1.0,,1014.2,300.0,14.95,29.87,50.9,13.0,1.07,,28.0,M,29.0,,GNR,1073497,2024-02-19 16:00:00+00:00,1290.0,2.77,,
251367,2024-02-19 17:00:00+00:00,0.0,2024-02-19 16:56,17.0,2.0,,1014.3,310.0,9.2,29.87,51.06,8.0,5.64,,26.0,M,29.0,,GNR,1073501,2024-02-19 17:00:00+00:00,1280.0,2.76,,
251368,2024-02-19 18:00:00+00:00,0.0,2024-02-19 17:56,17.0,0.0,,1014.8,310.0,16.1,29.89,46.51,14.0,1.83,,26.0,M,27.0,,GNR,1073505,2024-02-19 18:00:00+00:00,1270.0,2.75,,
251369,2024-02-19 19:00:00+00:00,0.0,2024-02-19 18:56,17.0,-1.0,,1015.6,300.0,14.95,29.91,44.37,13.0,2.35,,27.0,M,30.0,,GNR,1073509,2024-02-19 19:00:00+00:00,1270.0,2.75,,
251370,2024-02-19 20:00:00+00:00,0.0,2024-02-19 19:56,17.0,-1.0,,1016.4,300.0,10.35,29.93,44.37,9.0,4.86,,22.0,M,29.0,,GNR,1073513,2024-02-19 20:00:00+00:00,1250.0,2.74,,
251371,2024-02-19 21:00:00+00:00,0.0,2024-02-19 20:56,16.0,-2.0,,1016.9,300.0,12.65,29.95,44.2,11.0,2.25,,21.0,M,27.0,,GNR,1073517,2024-02-19 21:00:00+00:00,1250.0,2.74,,
251372,2024-02-19 22:00:00+00:00,0.0,2024-02-19 21:56,13.0,-3.0,,1018.4,300.0,10.35,29.99,48.06,9.0,-0.11,,19.0,M,,,GNR,1073521,2024-02-19 22:00:00+00:00,1250.0,2.74,,
251373,2024-02-19 23:00:00+00:00,0.0,2024-02-19 22:56,12.0,-3.0,,1019.5,300.0,13.8,30.02,50.23,12.0,-3.45,,19.0,M,,,GNR,1073525,2024-02-19 23:00:00+00:00,1250.0,2.74,,
251374,2024-02-20 00:00:00+00:00,0.0,2024-02-19 23:56,10.0,-2.0,,1020.8,300.0,10.35,30.05,57.57,9.0,-3.84,,21.0,M,26.0,,GNR,1073529,2024-02-20 00:00:00+00:00,5790.0,5.16,,
251375,2024-02-20 01:00:00+00:00,0.0,2024-02-20 00:56,9.0,-2.0,,1021.5,310.0,13.8,30.07,60.21,12.0,-7.27,,23.0,M,,,GNR,1073533,2024-02-20 01:00:00+00:00,8990.0,6.45,,
251376,2024-02-20 02:00:00+00:00,0.0,2024-02-20 01:56,8.0,-2.0,,1022.5,310.0,10.35,30.1,62.98,9.0,-6.33,,,M,,,GNR,1073537,2024-02-20 02:00:00+00:00,9040.0,6.47,,
251377,2024-02-20 03:00:00+00:00,0.0,2024-02-20 02:56,7.0,-3.0,,1022.9,310.0,11.5,30.11,62.84,10.0,-8.38,,16.0,M,,,GNR,1073541,2024-02-20 03:00:00+00:00,5550.0,5.06,,
251378,2024-02-20 04:00:00+00:00,0.0,2024-02-20 03:56,7.0,-2.0,,1023.3,310.0,12.65,30.12,65.89,11.0,-9.13,,19.0,M,,,GNR,1073545,2024-02-20 04:00:00+00:00,2060.0,3.31,,
251379,2024-02-20 05:00:00+00:00,0.0,2024-02-20 04:56,6.0,-2.0,,1024.0,310.0,11.5,30.14,68.96,10.0,-9.64,,17.0,M,,,GNR,1073549,2024-02-20 05:00:00+00:00,1330.0,2.8,,
251380,2024-02-20 06:00:00+00:00,0.0,2024-02-20 05:56,5.0,-2.0,,1024.5,310.0,9.2,30.16,72.18,8.0,-9.15,,,M,,,GNR,1073553,2024-02-20 06:00:00+00:00,1280.0,2.76,,
251381,2024-02-20 07:00:00+00:00,0.0,2024-02-20 06:56,4.0,-2.0,,1024.8,310.0,9.2,30.16,75.57,8.0,-10.38,,,M,,,GNR,1073557,2024-02-20 07:00:00+00:00,1280.0,2.76,,
251382,2024-02-20 08:00:00+00:00,0.0,2024-02-20 07:56,3.0,-2.0,,1025.2,300.0,8.05,30.17,79.14,7.0,-10.57,,,M,,,GNR,1073561,2024-02-20 08:00:00+00:00,1280.0,2.76,,
251383,2024-02-20 09:00:00+00:00,0.0,2024-02-20 08:56,3.0,-2.0,,1025.8,310.0,8.05,30.19,79.14,7.0,-10.57,,15.0,M,,,GNR,1073565,2024-02-20 09:00:00+00:00,1290.0,2.77,,
251384,2024-02-20 10:00:00+00:00,0.0,2024-02-20 09:56,3.0,-2.0,,1026.4,310.0,10.35,30.21,79.14,9.0,-12.55,,,M,,,GNR,1073569,2024-02-20 10:00:00+00:00,1320.0,2.79,,
251385,2024-02-20 11:00:00+00:00,0.0,2024-02-20 10:56,2.0,-3.0,,1027.0,320.0,10.35,30.22,79.04,9.0,-13.79,,,M,,,GNR,1073573,2024-02-20 11:00:00+00:00,1350.0,2.82,,
251386,2024-02-20 12:00:00+00:00,0.0,2024-02-20 11:56,2.0,-3.0,,1027.7,320.0,8.05,30.24,79.04,7.0,-11.79,,,M,,,GNR,1073577,2024-02-20 12:00:00+00:00,1370.0,2.83,,
251387,2024-02-20 13:00:00+00:00,0.0,2024-02-20 12:56,4.0,-3.0,,1028.5,320.0,9.2,30.26,72.06,8.0,-10.38,,,M,,,GNR,1073581,2024-02-20 13:00:00+00:00,1370.0,2.83,,
251388,2024-02-20 14:00:00+00:00,0.0,2024-02-20 13:56,6.0,-4.0,,1029.2,320.0,8.05,30.29,62.69,7.0,-6.91,,,M,,,GNR,1073585,2024-02-20 14:00:00+00:00,1410.0,2.86,,
251389,2024-02-20 15:00:00+00:00,0.0,2024-02-20 14:56,8.0,-3.0,,1029.1,,6.9,30.29,60.06,6.0,-3.37,,14.0,M,,,GNR,1073589,2024-02-20 15:00:00+00:00,3030.0,3.87,,
251390,2024-02-20 16:00:00+00:00,0.0,2024-02-20 15:56,11.0,-3.0,,1029.0,310.0,11.5,30.28,52.51,10.0,-3.37,,,M,,,GNR,1073593,2024-02-20 16:00:00+00:00,1710.0,3.08,,
251391,2024-02-20 17:00:00+00:00,0.0,2024-02-20 16:56,14.0,-3.0,,1028.8,310.0,10.35,30.28,45.99,9.0,1.13,,,M,,,GNR,1073597,2024-02-20 17:00:00+00:00,1350.0,2.82,,
251392,2024-02-20 18:00:00+00:00,0.0,2024-02-20 17:56,17.0,-4.0,,1028.5,310.0,16.1,30.27,38.48,14.0,1.83,,22.0,M,26.0,,GNR,1073601,2024-02-20 18:00:00+00:00,1290.0,2.77,,
251393,2024-02-20 19:00:00+00:00,0.0,2024-02-20 18:56,19.0,-3.0,,1028.6,320.0,13.8,30.28,37.03,12.0,5.46,,21.0,M,,,GNR,1073605,2024-02-20 19:00:00+00:00,1270.0,2.75,,
251394,2024-02-20 20:00:00+00:00,0.0,2024-02-20 19:56,19.0,-2.0,,1029.0,310.0,11.5,30.29,38.83,10.0,6.67,,20.0,M,,,GNR,1073609,2024-02-20 20:00:00+00:00,1250.0,2.74,,
251395,2024-02-20 21:00:00+00:00,0.0,2024-02-20 20:56,18.0,-1.0,,1029.4,320.0,10.35,30.3,42.5,9.0,6.11,,17.0,M,,,GNR,1073613,2024-02-20 21:00:00+00:00,1250.0,2.74,,
251396,2024-02-20 22:00:00+00:00,0.0,2024-02-20 21:56,17.0,-1.0,,1030.2,320.0,8.05,30.32,44.37,7.0,6.5,,,M,,,GNR,1073617,2024-02-20 22:00:00+00:00,1250.0,2.74,,
251397,2024-02-20 23:00:00+00:00,0.0,2024-02-20 22:56,15.0,-2.0,,1031.1,300.0,5.75,30.35,46.16,5.0,6.21,,,M,,,GNR,1073621,2024-02-20 23:00:00+00:00,1240.0,2.73,,
251398,2024-02-21 00:00:00+00:00,0.0,2024-02-20 23:56,13.0,-1.0,,1031.8,310.0,5.75,30.36,52.83,5.0,3.83,,,M,,,GNR,1073625,2024-02-21 00:00:00+00:00,5120.0,4.87,,
251399,2024-02-21 01:00:00+00:00,0.0,2024-02-21 00:56,12.0,-2.0,,1032.5,350.0,4.6,30.38,52.67,4.0,4.07,,,M,,,GNR,1073629,2024-02-21 01:00:00+00:00,8990.0,6.45,,
251400,2024-02-21 02:00:00+00:00,0.0,2024-02-21 01:56,10.0,-4.0,,1032.9,350.0,4.6,30.4,52.34,4.0,1.73,,,M,,,GNR,1073633,2024-02-21 02:00:00+00:00,9010.0,6.46,,
251401,2024-02-21 03:00:00+00:00,0.0,2024-02-21 02:56,9.0,-4.0,,1032.6,360.0,4.6,30.39,54.74,4.0,0.56,,,M,,,GNR,1073637,2024-02-21 03:00:00+00:00,4530.0,4.6,,
251402,2024-02-21 04:00:00+00:00,0.0,2024-02-21 03:56,9.0,-5.0,,1032.8,10.0,4.6,30.4,52.17,4.0,0.56,,,M,,,GNR,1073641,2024-02-21 04:00:00+00:00,1830.0,3.16,,
251403,2024-02-21 05:00:00+00:00,0.0,2024-02-21 04:56,6.0,-5.0,,1033.0,0.0,0.0,30.4,59.76,0.0,6.0,,,M,,,GNR,1073645,2024-02-21 05:00:00+00:00,1290.0,2.77,,
251404,2024-02-21 06:00:00+00:00,0.0,2024-02-21 05:56,7.0,-5.0,,1033.0,30.0,5.75,30.41,57.1,5.0,-3.29,,,M,,,GNR,1073649,2024-02-21 06:00:00+00:00,1270.0,2.75,,
251405,2024-02-21 07:00:00+00:00,0.0,2024-02-21 06:56,5.0,-6.0,,1033.4,50.0,4.6,30.42,59.6,4.0,-4.11,,,M,,,GNR,1073653,2024-02-21 07:00:00+00:00,1270.0,2.75,,
251406,2024-02-21 08:00:00+00:00,0.0,2024-02-21 07:56,4.0,-6.0,,1032.8,40.0,3.45,30.4,62.4,3.0,-3.32,,,M,,,GNR,1073657,2024-02-21 08:00:00+00:00,1270.0,2.75,,
251407,2024-02-21 09:00:00+00:00,0.0,2024-02-21 08:56,5.0,-6.0,,1032.7,0.0,0.0,30.4,59.6,0.0,5.0,,,M,,,GNR,1073661,2024-02-21 09:00:00+00:00,1280.0,2.76,,
251408,2024-02-21 10:00:00+00:00,0.0,2024-02-21 09:56,6.0,-6.0,,1033.0,140.0,4.6,30.41,56.94,4.0,-2.94,,,M,,,GNR,1073665,2024-02-21 10:00:00+00:00,1290.0,2.77,,
251409,2024-02-21 11:00:00+00:00,0.0,2024-02-21 10:56,5.0,-6.0,,1033.1,130.0,6.9,30.4,59.6,6.0,-6.99,,,M,,,GNR,1073669,2024-02-21 11:00:00+00:00,1300.0,2.78,,
251410,2024-02-21 12:00:00+00:00,0.0,2024-02-21 11:56,5.0,-5.0,,1034.1,130.0,6.9,30.43,62.55,6.0,-6.99,,,M,,,GNR,1073673,2024-02-21 12:00:00+00:00,1320.0,2.79,,
251411,2024-02-21 14:00:00+00:00,0.0,2024-02-21 13:56,11.0,-3.0,,1034.9,170.0,8.05,30.46,52.51,7.0,-0.82,,,M,,,GNR,1073681,2024-02-21 14:00:00+00:00,1340.0,2.81,,
251412,2024-02-21 15:00:00+00:00,0.0,2024-02-21 14:56,14.0,-2.0,,1034.5,150.0,8.05,30.45,48.23,7.0,2.84,,15.0,M,,,GNR,1073685,2024-02-21 15:00:00+00:00,1350.0,2.82,,
251413,2024-02-21 16:00:00+00:00,0.0,2024-02-21 15:56,20.0,2.0,,1033.1,,6.9,30.42,44.89,6.0,11.08,,,M,,,GNR,1073689,2024-02-21 16:00:00+00:00,1340.0,2.81,,
251414,2024-02-21 17:00:00+00:00,0.0,2024-02-21 16:56,23.0,5.0,,1031.6,180.0,9.2,30.37,45.41,8.0,13.03,,17.0,M,,,GNR,1073693,2024-02-21 17:00:00+00:00,1340.0,2.81,,
251415,2024-02-21 18:00:00+00:00,0.0,2024-02-21 17:56,26.0,10.0,,1029.9,180.0,10.35,30.33,50.23,9.0,16.05,,18.0,M,,,GNR,1073697,2024-02-21 18:00:00+00:00,1290.0,2.77,,
251416,2024-02-21 19:00:00+00:00,0.0,2024-02-21 18:56,28.0,11.0,,1028.2,180.0,8.05,30.28,48.36,7.0,19.9,,16.0,M,,,GNR,1073701,2024-02-21 19:00:00+00:00,1250.0,2.74,,
251417,2024-02-21 20:00:00+00:00,0.0,2024-02-21 19:56,28.0,13.0,,1027.6,,6.9,30.26,52.84,6.0,20.71,,,M,,,GNR,1073705,2024-02-21 20:00:00+00:00,1240.0,2.73,,
251418,2024-02-21 21:00:00+00:00,0.0,2024-02-21 20:56,28.0,13.0,,1027.0,180.0,8.05,30.24,52.84,7.0,19.9,,17.0,M,,,GNR,1073709,2024-02-21 21:00:00+00:00,1240.0,2.73,,
251419,2024-02-21 22:00:00+00:00,0.0,2024-02-21 21:56,26.0,12.0,,1027.0,,5.75,30.24,54.9,5.0,19.27,,,M,,,GNR,1073713,2024-02-21 22:00:00+00:00,1240.0,2.73,,
251420,2024-02-21 23:00:00+00:00,0.0,2024-02-21 22:56,25.0,13.0,,1027.1,160.0,6.9,30.24,59.82,6.0,17.1,,,M,,,GNR,1073717,2024-02-21 23:00:00+00:00,1240.0,2.73,,
251421,2024-02-22 00:00:00+00:00,0.0,2024-02-21 23:56,24.0,13.0,,1026.7,160.0,6.9,30.23,62.36,6.0,15.9,,,M,,,GNR,1073721,2024-02-22 00:00:00+00:00,3030.0,3.87,,
251422,2024-02-22 01:00:00+00:00,0.0,2024-02-22 00:56,22.0,14.0,,1026.6,150.0,10.35,30.23,70.88,9.0,11.08,,,M,,,GNR,1073725,2024-02-22 01:00:00+00:00,8730.0,6.35,,
251423,2024-02-22 02:00:00+00:00,0.0,2024-02-22 01:56,22.0,16.0,,1026.2,160.0,8.05,30.22,77.34,7.0,12.59,,,M,,,GNR,1073729,2024-02-22 02:00:00+00:00,8680.0,6.33,,
251424,2024-02-22 03:00:00+00:00,0.0,2024-02-22 02:56,22.0,17.0,,1025.2,160.0,6.9,30.19,80.77,6.0,13.49,,15.0,M,,,GNR,1073733,2024-02-22 03:00:00+00:00,4230.0,4.46,,
251425,2024-02-22 04:00:00+00:00,0.0,2024-02-22 03:56,21.0,17.0,,1023.9,140.0,8.05,30.16,84.26,7.0,11.37,,,M,,,GNR,1073737,2024-02-22 04:00:00+00:00,1740.0,3.1,,
251426,2024-02-22 05:00:00+00:00,0.0,2024-02-22 04:56,21.0,17.0,,1023.0,140.0,6.9,30.14,84.26,6.0,12.28,,,M,,,GNR,1073741,2024-02-22 05:00:00+00:00,1280.0,2.76,,
251427,2024-02-22 06:00:00+00:00,0.0,2024-02-22 05:56,22.0,17.0,,1022.0,140.0,8.05,30.11,80.77,7.0,12.59,,,M,,,GNR,1073745,2024-02-22 06:00:00+00:00,1250.0,2.74,,
251428,2024-02-22 07:00:00+00:00,0.0,2024-02-22 06:56,21.0,17.0,,1021.0,150.0,9.2,30.08,84.26,8.0,10.56,,,M,,,GNR,1073749,2024-02-22 07:00:00+00:00,1240.0,2.73,,
251429,2024-02-22 08:00:00+00:00,0.0,2024-02-22 07:56,22.0,18.0,,1020.2,160.0,8.05,30.06,84.33,7.0,12.59,,,M,,,GNR,1073753,2024-02-22 08:00:00+00:00,1240.0,2.73,,
251430,2024-02-22 09:00:00+00:00,0.0,2024-02-22 08:56,22.0,18.0,,1019.2,160.0,5.75,30.03,84.33,5.0,14.52,,,M,,,GNR,1073757,2024-02-22 09:00:00+00:00,1240.0,2.73,,
251431,2024-02-22 10:00:00+00:00,0.0,2024-02-22 09:56,22.0,18.0,,1019.0,150.0,6.9,30.02,84.33,6.0,13.49,,,M,,,GNR,1073761,2024-02-22 10:00:00+00:00,1240.0,2.73,,
251432,2024-02-22 11:00:00+00:00,0.0,2024-02-22 10:56,22.0,19.0,,1018.1,,5.75,30.0,88.02,5.0,14.52,,,M,,,GNR,1073765,2024-02-22 11:00:00+00:00,1250.0,2.74,,
251433,2024-02-22 12:00:00+00:00,0.0,2024-02-22 11:56,23.0,19.0,,1017.8,160.0,4.6,29.99,84.39,4.0,16.91,,,M,,,GNR,1073769,2024-02-22 12:00:00+00:00,1250.0,2.74,,
251434,2024-02-22 13:00:00+00:00,0.0,2024-02-22 12:56,24.0,19.0,,1017.1,180.0,6.9,29.97,80.93,6.0,15.9,,,M,,,GNR,1073773,2024-02-22 13:00:00+00:00,1250.0,2.74,,
251435,2024-02-22 14:00:00+00:00,0.0,2024-02-22 13:56,25.0,20.0,,1015.7,160.0,6.9,29.93,81.01,6.0,17.1,,,M,,,GNR,1073777,2024-02-22 14:00:00+00:00,1240.0,2.73,,
251436,2024-02-22 15:00:00+00:00,0.0,2024-02-22 14:56,27.0,21.0,,1015.3,150.0,9.2,29.92,77.8,8.0,17.95,,,M,,,GNR,1073781,2024-02-22 15:00:00+00:00,1230.0,2.72,,
251437,2024-02-22 16:00:00+00:00,0.0,2024-02-22 15:56,27.0,20.0,,1013.8,180.0,8.05,29.87,74.57,7.0,18.68,,20.0,M,,,GNR,1073785,2024-02-22 16:00:00+00:00,1240.0,2.73,,
251438,2024-02-22 17:00:00+00:00,0.0,2024-02-22 16:56,28.0,21.0,,1012.4,160.0,6.9,29.83,74.67,6.0,20.71,,,M,,,GNR,1073789,2024-02-22 17:00:00+00:00,1240.0,2.73,,
251439,2024-02-22 18:00:00+00:00,0.0,2024-02-22 17:56,28.0,21.0,,1010.9,160.0,9.2,29.79,74.67,8.0,19.19,,,M,,,GNR,1073793,2024-02-22 18:00:00+00:00,1240.0,2.73,,
251440,2024-02-22 19:00:00+00:00,0.0,2024-02-22 18:56,31.0,22.0,,1009.8,160.0,8.05,29.76,68.92,7.0,23.56,,18.0,M,,,GNR,1073797,2024-02-22 19:00:00+00:00,1240.0,2.73,,
251441,2024-02-22 20:00:00+00:00,0.0,2024-02-22 19:56,32.0,22.0,,1009.0,150.0,11.5,29.74,66.2,10.0,22.97,,18.0,M,,,GNR,1073801,2024-02-22 20:00:00+00:00,1240.0,2.73,,
251442,2024-02-22 21:00:00+00:00,0.0,2024-02-22 20:56,32.0,22.0,,1008.1,170.0,8.05,29.71,66.2,7.0,24.78,,,M,,,GNR,1073805,2024-02-22 21:00:00+00:00,1230.0,2.72,,
251443,2024-02-22 22:00:00+00:00,0.0,2024-02-22 21:56,30.0,21.0,,1007.2,170.0,8.05,29.68,68.81,7.0,22.34,,16.0,M,,,GNR,1073809,2024-02-22 22:00:00+00:00,1240.0,2.73,,
251444,2024-02-22 23:00:00+00:00,0.0,2024-02-22 22:56,29.0,21.0,,1006.9,150.0,8.05,29.68,71.67,7.0,21.12,,,M,,,GNR,1073813,2024-02-22 23:00:00+00:00,1240.0,2.73,,
251445,2024-02-23 00:00:00+00:00,0.0,2024-02-22 23:56,29.0,22.0,,1006.4,150.0,5.75,29.66,74.77,5.0,22.83,,,M,,,GNR,1073817,2024-02-23 00:00:00+00:00,5760.0,5.15,,
251446,2024-02-23 01:00:00+00:00,0.0,2024-02-23 00:56,29.0,22.0,,1005.6,150.0,8.05,29.64,74.77,7.0,21.12,,,M,,,GNR,1073821,2024-02-23 01:00:00+00:00,8700.0,6.34,,
251447,2024-02-23 02:00:00+00:00,0.0,2024-02-23 01:56,28.0,23.0,,1005.1,130.0,9.2,29.62,81.25,8.0,19.19,,,M,,,GNR,1073825,2024-02-23 02:00:00+00:00,4510.0,4.59,,
251448,2024-02-23 03:00:00+00:00,0.0,2024-02-23 02:56,27.0,24.0,,1004.4,140.0,8.05,29.6,88.28,7.0,18.68,,,M,,,GNR,1073829,2024-02-23 03:00:00+00:00,1810.0,3.15,,
251449,2024-02-23 04:00:00+00:00,0.0,2024-02-23 03:56,27.0,24.0,,1003.6,130.0,6.9,29.58,88.28,6.0,19.51,,,M,,,GNR,1073833,2024-02-23 04:00:00+00:00,1290.0,2.77,,
251450,2024-02-23 05:00:00+00:00,0.0,2024-02-23 04:56,27.0,24.0,,1003.4,150.0,6.9,29.58,88.28,6.0,19.51,,,M,,,GNR,1073837,2024-02-23 05:00:00+00:00,1250.0,2.74,,
251451,2024-02-23 06:00:00+00:00,0.76,2024-02-23 05:56,26.0,25.0,,1002.8,140.0,6.9,29.55,95.93,6.0,18.3,,,M,,,GNR,1073841,2024-02-23 06:00:00+00:00,1250.0,2.74,,
251452,2024-02-23 07:00:00+00:00,0.76,2024-02-23 06:56,27.0,25.0,,1002.0,120.0,6.9,29.54,92.05,6.0,19.51,,,M,,,GNR,1073845,2024-02-23 07:00:00+00:00,1240.0,2.73,,
251453,2024-02-23 08:00:00+00:00,1.27,2024-02-23 07:56,27.0,25.0,,1001.5,130.0,5.75,29.52,92.05,5.0,20.46,,,M,,,GNR,1073849,2024-02-23 08:00:00+00:00,1240.0,2.73,,
251454,2024-02-23 09:00:00+00:00,0.51,2024-02-23 08:56,27.0,25.0,,1000.8,120.0,5.75,29.5,92.05,5.0,20.46,,,M,,,GNR,1073853,2024-02-23 09:00:00+00:00,1240.0,2.73,,
251455,2024-02-23 10:00:00+00:00,0.25,2024-02-23 09:56,27.0,25.0,,1000.3,130.0,5.75,29.49,92.05,5.0,20.46,,,M,,,GNR,1073857,2024-02-23 10:00:00+00:00,1240.0,2.73,,
251456,2024-02-23 11:00:00+00:00,0.25,2024-02-23 10:56,27.0,26.0,,1000.4,130.0,5.75,29.49,95.95,5.0,20.46,,,M,,,GNR,1073861,2024-02-23 11:00:00+00:00,1240.0,2.73,,
251457,2024-02-23 12:00:00+00:00,0.0,2024-02-23 11:56,27.0,26.0,,1000.0,130.0,5.75,29.48,95.95,5.0,20.46,,,M,,,GNR,1073865,2024-02-23 12:00:00+00:00,1240.0,2.73,,
251458,2024-02-23 13:00:00+00:00,0.25,2024-02-23 12:56,28.0,27.0,,999.9,150.0,6.9,29.48,95.97,6.0,20.71,,,M,,,GNR,1073869,2024-02-23 13:00:00+00:00,1240.0,2.73,,
251459,2024-02-23 14:00:00+00:00,0.0,2024-02-23 13:56,28.0,27.0,,999.7,130.0,4.6,29.47,95.97,4.0,22.75,,,M,,,GNR,1073873,2024-02-23 14:00:00+00:00,1240.0,2.73,,
251460,2024-02-23 15:00:00+00:00,0.25,2024-02-23 14:56,29.0,27.0,,999.5,140.0,4.6,29.46,92.12,4.0,23.92,,,M,,,GNR,1073877,2024-02-23 15:00:00+00:00,1240.0,2.73,,
251461,2024-02-23 16:00:00+00:00,0.25,2024-02-23 15:56,29.0,28.0,,999.2,,5.75,29.45,95.99,5.0,22.83,,,M,,,GNR,1073881,2024-02-23 16:00:00+00:00,1240.0,2.73,,
251462,2024-02-23 17:00:00+00:00,0.25,2024-02-23 16:56,30.0,28.0,,998.7,140.0,5.75,29.44,92.15,5.0,24.02,,,M,,,GNR,1073885,2024-02-23 17:00:00+00:00,1240.0,2.73,,
251463,2024-02-23 18:00:00+00:00,0.0,2024-02-23 17:56,30.0,29.0,,997.8,120.0,5.75,29.41,96.0,5.0,24.02,,,M,,,GNR,1073889,2024-02-23 18:00:00+00:00,1240.0,2.73,,
251464,2024-02-23 19:00:00+00:00,0.0,2024-02-23 18:56,30.0,29.0,,997.5,130.0,4.6,29.41,96.0,4.0,25.08,,,M,,,GNR,1073893,2024-02-23 19:00:00+00:00,1240.0,2.73,,
251465,2024-02-23 20:00:00+00:00,0.0,2024-02-23 19:56,32.0,31.0,,997.6,0.0,0.0,29.41,96.04,0.0,32.0,,,M,,,GNR,1073897,2024-02-23 20:00:00+00:00,1240.0,2.73,,
251466,2024-02-23 21:00:00+00:00,0.0,2024-02-23 20:56,32.0,31.0,,997.0,0.0,0.0,29.39,96.04,0.0,32.0,,,M,,,GNR,1073901,2024-02-23 21:00:00+00:00,1240.0,2.73,,
251467,2024-02-23 22:00:00+00:00,0.0,2024-02-23 21:56,32.0,30.0,,996.9,110.0,3.45,29.39,92.22,3.0,28.69,,,M,,,GNR,1073905,2024-02-23 22:00:00+00:00,1240.0,2.73,,
251468,2024-02-23 23:00:00+00:00,0.0,2024-02-23 22:56,32.0,31.0,,997.5,0.0,0.0,29.4,96.04,0.0,32.0,,,M,,,GNR,1073909,2024-02-23 23:00:00+00:00,1240.0,2.73,,
251469,2024-02-24 00:00:00+00:00,0.0,2024-02-23 23:56,31.0,30.0,,997.6,120.0,3.45,29.41,96.02,3.0,27.55,,,M,,,GNR,1073913,2024-02-24 00:00:00+00:00,5600.0,5.08,,
251470,2024-02-24 01:00:00+00:00,0.0,2024-02-24 00:56,31.0,30.0,,997.5,140.0,3.45,29.41,96.02,3.0,27.55,,,M,,,GNR,1073917,2024-02-24 01:00:00+00:00,8990.0,6.45,,
251471,2024-02-24 02:00:00+00:00,0.0,2024-02-24 01:56,31.0,30.0,,997.2,0.0,0.0,29.4,96.02,0.0,31.0,,,M,,,GNR,1073921,2024-02-24 02:00:00+00:00,4380.0,4.53,,
251472,2024-02-24 03:00:00+00:00,0.0,2024-02-24 02:56,31.0,30.0,,997.1,0.0,0.0,29.39,96.02,0.0,31.0,,,M,,,GNR,1073925,2024-02-24 03:00:00+00:00,1770.0,3.12,,
251473,2024-02-24 04:00:00+00:00,0.0,2024-02-24 03:56,30.0,29.0,,996.8,340.0,4.6,29.39,96.0,4.0,25.08,,,M,,,GNR,1073929,2024-02-24 04:00:00+00:00,1290.0,2.77,,
251474,2024-02-24 05:00:00+00:00,0.0,2024-02-24 04:56,30.0,28.0,,996.6,350.0,6.9,29.38,92.15,6.0,23.12,,,M,,,GNR,1073933,2024-02-24 05:00:00+00:00,1250.0,2.74,,
251475,2024-02-24 06:00:00+00:00,0.0,2024-02-24 05:56,31.0,29.0,,996.1,330.0,12.65,29.37,92.19,11.0,21.2,,20.0,M,,,GNR,1073937,2024-02-24 06:00:00+00:00,1240.0,2.73,,
251476,2024-02-24 07:00:00+00:00,0.0,2024-02-24 06:56,29.0,28.0,,996.3,320.0,11.5,29.37,95.99,10.0,19.21,,19.0,M,,,GNR,1073941,2024-02-24 07:00:00+00:00,1240.0,2.73,,
251477,2024-02-24 08:00:00+00:00,0.0,2024-02-24 07:56,27.0,25.0,,995.8,340.0,11.5,29.36,92.05,10.0,16.7,,18.0,M,,,GNR,1073945,2024-02-24 08:00:00+00:00,1240.0,2.73,,
251478,2024-02-24 09:00:00+00:00,0.0,2024-02-24 08:56,26.0,23.0,,996.5,330.0,16.1,29.38,88.23,14.0,13.43,,22.0,M,,,GNR,1073949,2024-02-24 09:00:00+00:00,1240.0,2.73,,
251479,2024-02-24 10:00:00+00:00,0.0,2024-02-24 09:56,23.0,20.0,,997.6,330.0,12.65,29.4,88.08,11.0,11.09,,21.0,M,,,GNR,1073953,2024-02-24 10:00:00+00:00,1240.0,2.73,,
251480,2024-02-24 11:00:00+00:00,0.0,2024-02-24 10:56,19.0,15.0,,997.8,320.0,20.7,29.41,84.12,18.0,2.64,,28.0,M,28.0,,GNR,1073957,2024-02-24 11:00:00+00:00,1240.0,2.73,,
251481,2024-02-24 12:00:00+00:00,0.0,2024-02-24 11:56,16.0,11.0,,999.8,320.0,13.8,29.46,80.27,12.0,1.64,,21.0,M,28.0,,GNR,1073961,2024-02-24 12:00:00+00:00,1240.0,2.73,,
251482,2024-02-24 13:00:00+00:00,0.0,2024-02-24 12:56,13.0,9.0,,1000.1,320.0,19.55,29.47,83.7,17.0,-4.82,,29.0,M,29.0,,GNR,1073965,2024-02-24 13:00:00+00:00,1240.0,2.73,,
251483,2024-02-24 14:00:00+00:00,0.0,2024-02-24 13:56,12.0,6.0,,1000.5,330.0,14.95,29.48,76.38,13.0,-4.05,,26.0,M,28.0,,GNR,1073969,2024-02-24 14:00:00+00:00,1230.0,2.72,,
251484,2024-02-24 15:00:00+00:00,0.0,2024-02-24 14:56,12.0,5.0,,1001.7,330.0,16.1,29.51,72.97,14.0,-4.62,,25.0,M,27.0,,GNR,1073973,2024-02-24 15:00:00+00:00,1240.0,2.73,,
251485,2024-02-24 16:00:00+00:00,0.0,2024-02-24 15:56,13.0,4.0,,1001.7,330.0,18.4,29.51,66.69,16.0,-4.35,,27.0,M,29.0,,GNR,1073977,2024-02-24 16:00:00+00:00,1240.0,2.73,,
251486,2024-02-24 17:00:00+00:00,0.0,2024-02-24 16:56,14.0,4.0,,1001.6,320.0,17.25,29.51,63.82,15.0,-2.56,,27.0,M,29.0,,GNR,1073981,2024-02-24 17:00:00+00:00,1240.0,2.73,,
251487,2024-02-24 18:00:00+00:00,0.0,2024-02-24 17:56,15.0,3.0,,1000.9,320.0,19.55,29.49,58.34,17.0,-2.2,,31.0,M,32.0,,GNR,1073985,2024-02-24 18:00:00+00:00,1230.0,2.72,,
251488,2024-02-24 19:00:00+00:00,0.0,2024-02-24 18:56,16.0,3.0,,1001.0,320.0,18.4,29.5,55.85,16.0,-0.44,,30.0,M,33.0,,GNR,1073989,2024-02-24 19:00:00+00:00,1240.0,2.73,,
251489,2024-02-24 20:00:00+00:00,0.0,2024-02-24 19:56,15.0,0.0,,1002.6,310.0,18.4,29.54,50.73,16.0,-1.74,,28.0,M,35.0,,GNR,1073993,2024-02-24 20:00:00+00:00,1240.0,2.73,,
251490,2024-02-24 21:00:00+00:00,0.0,2024-02-24 20:56,14.0,-1.0,,1003.7,320.0,16.1,29.57,50.56,14.0,-2.04,,27.0,M,31.0,,GNR,1073997,2024-02-24 21:00:00+00:00,1230.0,2.72,,
251491,2024-02-24 22:00:00+00:00,0.0,2024-02-24 21:56,11.0,-4.0,,1005.3,310.0,16.1,29.61,50.06,14.0,-5.91,,31.0,M,31.0,,GNR,1074001,2024-02-24 22:00:00+00:00,1230.0,2.72,,
251492,2024-02-24 23:00:00+00:00,0.0,2024-02-24 22:56,9.0,-5.0,,1007.0,310.0,13.8,29.65,52.17,12.0,-7.27,,25.0,M,28.0,,GNR,1074005,2024-02-24 23:00:00+00:00,1230.0,2.72,,
251493,2024-02-25 00:00:00+00:00,0.0,2024-02-24 23:56,7.0,-5.0,,1008.3,310.0,12.65,29.69,57.1,11.0,-9.13,,23.0,M,,,GNR,1074009,2024-02-25 00:00:00+00:00,6100.0,5.29,,
251494,2024-02-25 01:00:00+00:00,0.0,2024-02-25 00:56,6.0,-6.0,,1009.6,310.0,19.55,29.72,56.94,17.0,-13.99,,26.0,M,31.0,,GNR,1074013,2024-02-25 01:00:00+00:00,8960.0,6.44,,
251495,2024-02-25 02:00:00+00:00,0.0,2024-02-25 01:56,5.0,-7.0,,1010.4,310.0,16.1,29.74,56.79,14.0,-13.64,,24.0,M,,,GNR,1074017,2024-02-25 02:00:00+00:00,4150.0,4.42,,
251496,2024-02-25 03:00:00+00:00,0.0,2024-02-25 02:56,4.0,-7.0,,1011.2,330.0,9.2,29.76,59.45,8.0,-10.38,,19.0,M,28.0,,GNR,1074021,2024-02-25 03:00:00+00:00,1720.0,3.09,,
251497,2024-02-25 04:00:00+00:00,0.0,2024-02-25 03:56,3.0,-8.0,,1011.8,320.0,4.6,29.78,59.3,4.0,-6.44,,,M,,,GNR,1074025,2024-02-25 04:00:00+00:00,1280.0,2.76,,
251498,2024-02-25 05:00:00+00:00,0.0,2024-02-25 04:56,3.0,-9.0,,1012.2,320.0,5.75,29.8,56.47,5.0,-8.05,,,M,,,GNR,1074029,2024-02-25 05:00:00+00:00,1270.0,2.75,,
251499,2024-02-25 06:00:00+00:00,0.0,2024-02-25 05:56,3.0,-9.0,,1012.9,330.0,11.5,29.81,56.47,10.0,-13.4,,17.0,M,,,GNR,1074033,2024-02-25 06:00:00+00:00,1280.0,2.76,,
251500,2024-02-25 07:00:00+00:00,0.0,2024-02-25 06:56,3.0,-10.0,,1013.6,320.0,9.2,29.83,53.76,8.0,-11.61,,,M,,,GNR,1074037,2024-02-25 07:00:00+00:00,1280.0,2.76,,
251501,2024-02-25 08:00:00+00:00,0.0,2024-02-25 07:56,3.0,-10.0,,1014.4,340.0,8.05,29.86,53.76,7.0,-10.57,,,M,,,GNR,1074041,2024-02-25 08:00:00+00:00,1300.0,2.78,,
251502,2024-02-25 09:00:00+00:00,0.0,2024-02-25 08:56,4.0,-8.0,,1014.5,320.0,14.95,29.86,56.63,13.0,-14.3,,,M,,,GNR,1074045,2024-02-25 09:00:00+00:00,1320.0,2.79,,
251503,2024-02-25 10:00:00+00:00,0.0,2024-02-25 09:56,4.0,-7.0,,1015.1,330.0,12.65,29.88,59.45,11.0,-12.92,,20.0,M,,,GNR,1074049,2024-02-25 10:00:00+00:00,1330.0,2.8,,
251504,2024-02-25 11:00:00+00:00,0.0,2024-02-25 10:56,3.0,-7.0,,1016.3,330.0,8.05,29.91,62.26,7.0,-10.57,,,M,,,GNR,1074053,2024-02-25 11:00:00+00:00,1340.0,2.81,,
251505,2024-02-25 12:00:00+00:00,0.0,2024-02-25 11:56,4.0,-6.0,,1017.0,330.0,10.35,29.93,62.4,9.0,-11.3,,,M,,,GNR,1074057,2024-02-25 12:00:00+00:00,1350.0,2.82,,
251506,2024-02-25 13:00:00+00:00,0.0,2024-02-25 12:56,7.0,-5.0,,1017.2,330.0,10.35,29.93,57.1,9.0,-7.57,,,M,,,GNR,1074061,2024-02-25 13:00:00+00:00,1380.0,2.84,,
251507,2024-02-25 14:00:00+00:00,0.0,2024-02-25 13:56,10.0,-5.0,,1017.4,310.0,8.05,29.94,49.89,7.0,-2.04,,,M,,,GNR,1074065,2024-02-25 14:00:00+00:00,1390.0,2.85,,
251508,2024-02-25 15:00:00+00:00,0.0,2024-02-25 14:56,14.0,-3.0,,1017.6,0.0,0.0,29.95,45.99,0.0,14.0,,,M,,,GNR,1074069,2024-02-25 15:00:00+00:00,1410.0,2.86,,
251509,2024-02-25 16:00:00+00:00,0.0,2024-02-25 15:56,16.0,-3.0,,1017.4,,3.45,29.95,42.15,3.0,10.4,,,M,,,GNR,1074073,2024-02-25 16:00:00+00:00,1410.0,2.86,,
251510,2024-02-25 17:00:00+00:00,0.0,2024-02-25 16:56,21.0,-3.0,,1016.5,310.0,4.6,29.93,34.01,4.0,14.57,,,M,,,GNR,1074077,2024-02-25 17:00:00+00:00,1350.0,2.82,,
251511,2024-02-25 18:00:00+00:00,0.0,2024-02-25 17:56,23.0,0.0,,1015.5,0.0,0.0,29.9,36.01,0.0,23.0,,,M,,,GNR,1074081,2024-02-25 18:00:00+00:00,1290.0,2.77,,
251512,2024-02-25 19:00:00+00:00,0.0,2024-02-25 18:56,25.0,1.0,,1015.1,,5.75,29.89,34.71,5.0,18.08,,,M,,,GNR,1074085,2024-02-25 19:00:00+00:00,1240.0,2.73,,
251513,2024-02-25 20:00:00+00:00,0.0,2024-02-25 19:56,27.0,1.0,,1014.5,190.0,6.9,29.87,31.95,6.0,19.51,,,M,,,GNR,1074089,2024-02-25 20:00:00+00:00,1240.0,2.73,,
251514,2024-02-25 21:00:00+00:00,0.0,2024-02-25 20:56,27.0,1.0,,1014.2,180.0,5.75,29.87,31.95,5.0,20.46,,,M,,,GNR,1074093,2024-02-25 21:00:00+00:00,1230.0,2.72,,
251515,2024-02-25 22:00:00+00:00,0.0,2024-02-25 21:56,25.0,2.0,,1014.5,190.0,5.75,29.87,36.37,5.0,18.08,,,M,,,GNR,1074097,2024-02-25 22:00:00+00:00,1230.0,2.72,,
251516,2024-02-25 23:00:00+00:00,0.0,2024-02-25 22:56,22.0,1.0,,1014.9,150.0,6.9,29.88,39.36,6.0,13.49,,,M,,,GNR,1074101,2024-02-25 23:00:00+00:00,1230.0,2.72,,
251517,2024-02-26 00:00:00+00:00,0.0,2024-02-25 23:56,21.0,2.0,,1015.1,140.0,8.05,29.89,43.02,7.0,11.37,,,M,,,GNR,1074105,2024-02-26 00:00:00+00:00,6560.0,5.48,,
251518,2024-02-26 01:00:00+00:00,0.0,2024-02-26 00:56,20.0,2.0,,1015.1,140.0,8.05,29.89,44.89,7.0,10.15,,,M,,,GNR,1074109,2024-02-26 01:00:00+00:00,8940.0,6.43,,
251519,2024-02-26 02:00:00+00:00,0.0,2024-02-26 01:56,19.0,3.0,,1015.0,140.0,8.05,29.89,49.07,7.0,8.93,,,M,,,GNR,1074113,2024-02-26 02:00:00+00:00,4060.0,4.38,,
251520,2024-02-26 03:00:00+00:00,0.0,2024-02-26 02:56,19.0,9.0,,1014.9,140.0,10.35,29.89,64.5,9.0,7.35,,,M,,,GNR,1074117,2024-02-26 03:00:00+00:00,1710.0,3.08,,
251521,2024-02-26 04:00:00+00:00,0.0,2024-02-26 03:56,19.0,11.0,,1014.3,150.0,10.35,29.87,70.53,9.0,7.35,,,M,,,GNR,1074121,2024-02-26 04:00:00+00:00,1270.0,2.75,,
251522,2024-02-26 05:00:00+00:00,0.0,2024-02-26 04:56,18.0,12.0,,1014.0,140.0,10.35,29.87,76.97,9.0,6.11,,,M,,,GNR,1074125,2024-02-26 05:00:00+00:00,1240.0,2.73,,
251523,2024-02-26 06:00:00+00:00,0.0,2024-02-26 05:56,18.0,12.0,,1013.7,140.0,8.05,29.86,76.97,7.0,7.71,,,M,,,GNR,1074129,2024-02-26 06:00:00+00:00,1240.0,2.73,,
251524,2024-02-26 07:00:00+00:00,0.0,2024-02-26 06:56,18.0,12.0,,1013.2,140.0,8.05,29.85,76.97,7.0,7.71,,,M,,,GNR,1074133,2024-02-26 07:00:00+00:00,1230.0,2.72,,
251525,2024-02-26 08:00:00+00:00,0.0,2024-02-26 07:56,17.0,12.0,,1012.6,130.0,6.9,29.83,80.36,6.0,7.46,,,M,,,GNR,1074137,2024-02-26 08:00:00+00:00,1230.0,2.72,,
251526,2024-02-26 09:00:00+00:00,0.0,2024-02-26 08:56,18.0,13.0,,1012.2,130.0,6.9,29.82,80.44,6.0,8.67,,,M,,,GNR,1074141,2024-02-26 09:00:00+00:00,1230.0,2.72,,
251527,2024-02-26 10:00:00+00:00,0.0,2024-02-26 09:56,19.0,14.0,,1012.0,130.0,4.6,29.82,80.52,4.0,12.24,,,M,,,GNR,1074145,2024-02-26 10:00:00+00:00,1230.0,2.72,,
251528,2024-02-26 11:00:00+00:00,0.25,2024-02-26 10:56,18.0,15.0,,1012.1,140.0,4.6,29.81,87.81,4.0,11.07,,,M,,,GNR,1074149,2024-02-26 11:00:00+00:00,1230.0,2.72,,
251529,2024-02-26 12:00:00+00:00,0.51,2024-02-26 11:56,19.0,16.0,,1011.8,110.0,5.75,29.8,87.87,5.0,10.96,,,M,,,GNR,1074153,2024-02-26 12:00:00+00:00,1230.0,2.72,,
251530,2024-02-26 13:00:00+00:00,0.0,2024-02-26 12:56,20.0,17.0,,1011.9,0.0,0.0,29.81,87.92,0.0,20.0,,,M,,,GNR,1074157,2024-02-26 13:00:00+00:00,1220.0,2.71,,
251531,2024-02-26 14:00:00+00:00,0.0,2024-02-26 13:56,21.0,18.0,,1012.0,,3.45,29.81,87.97,3.0,16.11,,,M,,,GNR,1074161,2024-02-26 14:00:00+00:00,1230.0,2.72,,
251532,2024-02-26 15:00:00+00:00,0.0,2024-02-26 14:56,23.0,20.0,,1011.5,130.0,3.45,29.8,88.08,3.0,18.4,,,M,,,GNR,1074165,2024-02-26 15:00:00+00:00,1220.0,2.71,,
251533,2024-02-26 16:00:00+00:00,0.0,2024-02-26 15:56,26.0,22.0,,1011.5,180.0,4.6,29.8,84.59,4.0,20.41,,,M,,,GNR,1074169,2024-02-26 16:00:00+00:00,1230.0,2.72,,
251534,2024-02-26 17:00:00+00:00,0.0,2024-02-26 16:56,30.0,25.0,,1010.9,170.0,6.9,29.78,81.4,6.0,23.12,,,M,,,GNR,1074173,2024-02-26 17:00:00+00:00,1230.0,2.72,,
251535,2024-02-26 18:00:00+00:00,0.0,2024-02-26 17:56,32.0,25.0,,1010.5,110.0,5.75,29.78,75.07,5.0,26.4,,,M,,,GNR,1074177,2024-02-26 18:00:00+00:00,1230.0,2.72,,
251536,2024-02-26 19:00:00+00:00,0.0,2024-02-26 18:56,31.0,26.0,,1010.4,90.0,4.6,29.77,81.48,4.0,26.25,,,M,,,GNR,1074181,2024-02-26 19:00:00+00:00,1230.0,2.72,,
251537,2024-02-26 20:00:00+00:00,0.0,2024-02-26 19:56,37.0,26.0,,1010.5,,5.75,29.78,64.11,5.0,32.33,,,M,,,GNR,1074185,2024-02-26 20:00:00+00:00,1230.0,2.72,,
251538,2024-02-26 21:00:00+00:00,0.0,2024-02-26 20:56,38.0,26.0,,1011.5,310.0,8.05,29.81,61.64,7.0,32.09,,,M,,,GNR,1074189,2024-02-26 21:00:00+00:00,1230.0,2.72,,
251539,2024-02-26 22:00:00+00:00,0.0,2024-02-26 21:56,35.0,19.0,,1012.5,310.0,9.2,29.84,51.67,8.0,27.81,,,M,27.0,,GNR,1074193,2024-02-26 22:00:00+00:00,1230.0,2.72,,
251540,2024-02-26 23:00:00+00:00,0.0,2024-02-26 22:56,32.0,17.0,,1013.6,,6.9,29.87,53.46,6.0,25.53,,,M,,,GNR,1074197,2024-02-26 23:00:00+00:00,1230.0,2.72,,
251541,2024-02-27 00:00:00+00:00,0.0,2024-02-26 23:56,31.0,17.0,,1014.8,,5.75,29.9,55.67,5.0,25.21,,,M,,,GNR,1074201,2024-02-27 00:00:00+00:00,4020.0,4.36,,
251542,2024-02-27 01:00:00+00:00,0.0,2024-02-27 00:56,30.0,18.0,,1015.6,,5.75,29.93,60.53,5.0,24.02,,,M,,,GNR,1074205,2024-02-27 01:00:00+00:00,8960.0,6.44,,
251543,2024-02-27 02:00:00+00:00,0.0,2024-02-27 01:56,29.0,18.0,,1016.5,300.0,4.6,29.95,63.05,4.0,23.92,,,M,,,GNR,1074209,2024-02-27 02:00:00+00:00,4680.0,4.67,,
251544,2024-02-27 03:00:00+00:00,0.0,2024-02-27 02:56,28.0,18.0,,1017.0,300.0,4.6,29.97,65.69,4.0,22.75,,,M,,,GNR,1074213,2024-02-27 03:00:00+00:00,1830.0,3.16,,
251545,2024-02-27 04:00:00+00:00,0.0,2024-02-27 03:56,26.0,16.0,,1017.0,310.0,4.6,29.97,65.43,4.0,20.41,,,M,,,GNR,1074217,2024-02-27 04:00:00+00:00,1280.0,2.76,,
251546,2024-02-27 05:00:00+00:00,0.0,2024-02-27 04:56,26.0,16.0,,1017.7,0.0,0.0,29.99,65.43,0.0,26.0,,,M,,,GNR,1074221,2024-02-27 05:00:00+00:00,1240.0,2.73,,
251547,2024-02-27 06:00:00+00:00,0.0,2024-02-27 05:56,21.0,14.0,,1017.8,0.0,0.0,29.99,73.94,0.0,21.0,,,M,,,GNR,1074225,2024-02-27 06:00:00+00:00,1230.0,2.72,,
251548,2024-02-27 07:00:00+00:00,0.0,2024-02-27 06:56,20.0,14.0,,1018.1,100.0,3.45,30.0,77.16,3.0,14.97,,,M,,,GNR,1074229,2024-02-27 07:00:00+00:00,1230.0,2.72,,
251549,2024-02-27 08:00:00+00:00,0.0,2024-02-27 07:56,22.0,15.0,,1018.1,0.0,0.0,30.01,74.05,0.0,22.0,,,M,,,GNR,1074233,2024-02-27 08:00:00+00:00,1200.0,2.7,,
251550,2024-02-27 09:00:00+00:00,0.0,2024-02-27 08:56,25.0,17.0,,1017.9,130.0,5.75,30.01,71.22,5.0,18.08,,,M,,,GNR,1074237,2024-02-27 09:00:00+00:00,1150.0,2.65,,
251551,2024-02-27 10:00:00+00:00,0.0,2024-02-27 09:56,24.0,16.0,,1018.8,130.0,6.9,30.03,71.11,6.0,15.9,,,M,,,GNR,1074241,2024-02-27 10:00:00+00:00,1150.0,2.65,,
251552,2024-02-27 11:00:00+00:00,0.0,2024-02-27 10:56,25.0,16.0,,1018.7,140.0,8.05,30.02,68.2,7.0,16.25,,,M,,,GNR,1074245,2024-02-27 11:00:00+00:00,1150.0,2.65,,
251553,2024-02-27 12:00:00+00:00,0.0,2024-02-27 11:56,25.0,17.0,,1019.0,160.0,6.9,30.03,71.22,6.0,17.1,,,M,,,GNR,1074249,2024-02-27 12:00:00+00:00,1150.0,2.65,,
251554,2024-02-27 13:00:00+00:00,0.0,2024-02-27 12:56,29.0,18.0,,1019.1,150.0,9.2,30.04,63.05,8.0,20.42,,17.0,M,,,GNR,1074253,2024-02-27 13:00:00+00:00,1150.0,2.65,,
251555,2024-02-27 14:00:00+00:00,0.0,2024-02-27 13:56,32.0,19.0,,1019.1,160.0,10.35,30.04,58.27,9.0,23.51,,,M,,,GNR,1074257,2024-02-27 14:00:00+00:00,1150.0,2.65,,
251556,2024-02-27 15:00:00+00:00,0.0,2024-02-27 14:56,35.0,20.0,,1018.6,140.0,9.2,30.03,53.93,8.0,27.81,,16.0,M,,,GNR,1074261,2024-02-27 15:00:00+00:00,1150.0,2.65,,
251557,2024-02-27 16:00:00+00:00,0.0,2024-02-27 15:56,40.0,22.0,,1018.3,,6.9,30.02,48.22,6.0,35.17,,19.0,M,,,GNR,1074265,2024-02-27 16:00:00+00:00,1150.0,2.65,,
251558,2024-02-27 17:00:00+00:00,0.0,2024-02-27 16:56,42.0,26.0,,1017.6,160.0,11.5,30.0,52.76,10.0,35.51,,17.0,M,,,GNR,1074269,2024-02-27 17:00:00+00:00,1150.0,2.65,,
251559,2024-02-27 18:00:00+00:00,0.0,2024-02-27 17:56,44.0,28.0,,1016.9,180.0,8.05,29.98,53.07,7.0,39.41,,,M,,,GNR,1074273,2024-02-27 18:00:00+00:00,1150.0,2.65,,
251560,2024-02-27 19:00:00+00:00,0.0,2024-02-27 18:56,46.0,30.0,,1016.3,160.0,9.2,29.96,53.37,8.0,41.36,,,M,,,GNR,1074277,2024-02-27 19:00:00+00:00,1150.0,2.65,,
251561,2024-02-27 20:00:00+00:00,0.0,2024-02-27 19:56,47.0,30.0,,1015.8,140.0,12.65,29.95,51.39,11.0,41.42,,17.0,M,,,GNR,1074281,2024-02-27 20:00:00+00:00,1150.0,2.65,,
251562,2024-02-27 21:00:00+00:00,0.0,2024-02-27 20:56,47.0,31.0,,1015.5,170.0,8.05,29.94,53.52,7.0,43.06,,16.0,M,,,GNR,1074285,2024-02-27 21:00:00+00:00,1150.0,2.65,,
251563,2024-02-27 22:00:00+00:00,0.0,2024-02-27 21:56,46.0,31.0,,1015.4,150.0,5.75,29.94,55.58,5.0,43.02,,,M,,,GNR,1074289,2024-02-27 22:00:00+00:00,1150.0,2.65,,
251564,2024-02-27 23:00:00+00:00,0.0,2024-02-27 22:56,44.0,31.0,,1015.2,130.0,12.65,29.93,59.97,11.0,37.63,,17.0,M,,,GNR,1074293,2024-02-27 23:00:00+00:00,1150.0,2.65,,
251565,2024-02-28 00:00:00+00:00,0.0,2024-02-27 23:56,39.0,33.0,,1015.5,140.0,11.5,29.94,78.86,10.0,31.75,,17.0,M,,,GNR,1074297,2024-02-28 00:00:00+00:00,4880.0,4.76,,
251566,2024-02-28 01:00:00+00:00,0.0,2024-02-28 00:56,37.0,34.0,,1015.1,140.0,10.35,29.93,88.78,9.0,29.73,,17.0,M,,,GNR,1074301,2024-02-28 01:00:00+00:00,8700.0,6.34,,
251567,2024-02-28 02:00:00+00:00,0.0,2024-02-28 01:56,36.0,35.0,,1014.9,140.0,10.35,29.92,96.11,9.0,28.49,,,M,,,GNR,1074305,2024-02-28 02:00:00+00:00,4190.0,4.44,,
251568,2024-02-28 03:00:00+00:00,0.0,2024-02-28 02:56,36.0,35.0,,1014.3,140.0,12.65,29.91,96.11,11.0,27.52,,,M,,,GNR,1074309,2024-02-28 03:00:00+00:00,1690.0,3.07,,
251569,2024-02-28 04:00:00+00:00,0.0,2024-02-28 03:56,36.0,36.0,,1013.8,150.0,11.5,29.9,100.0,10.0,27.98,,16.0,M,,,GNR,1074313,2024-02-28 04:00:00+00:00,1200.0,2.7,,
251570,2024-02-28 05:00:00+00:00,0.0,2024-02-28 04:56,36.0,36.0,,1013.0,150.0,9.2,29.87,100.0,8.0,29.04,,,M,,,GNR,1074317,2024-02-28 05:00:00+00:00,1170.0,2.67,,
251571,2024-02-28 06:00:00+00:00,0.25,2024-02-28 05:56,36.0,36.0,,1012.3,140.0,10.35,29.86,100.0,9.0,28.49,,14.0,M,,,GNR,1074321,2024-02-28 06:00:00+00:00,1160.0,2.66,,
251572,2024-02-28 07:00:00+00:00,0.0,2024-02-28 06:56,37.0,36.0,,1011.4,140.0,8.05,29.83,96.13,7.0,30.87,,,M,,,GNR,1074325,2024-02-28 07:00:00+00:00,1160.0,2.66,,
251573,2024-02-28 08:00:00+00:00,0.25,2024-02-28 07:56,37.0,36.0,,1010.2,140.0,10.35,29.8,96.13,9.0,29.73,,,M,,,GNR,1074329,2024-02-28 08:00:00+00:00,1160.0,2.66,,
251574,2024-02-28 09:00:00+00:00,0.51,2024-02-28 08:56,39.0,39.0,,1008.8,140.0,11.5,29.76,100.0,10.0,31.75,,21.0,M,,,GNR,1074333,2024-02-28 09:00:00+00:00,1160.0,2.66,,
251575,2024-02-28 10:00:00+00:00,0.51,2024-02-28 09:56,40.0,40.0,,1008.8,150.0,9.2,29.76,100.0,8.0,33.97,,,M,,,GNR,1074337,2024-02-28 10:00:00+00:00,1160.0,2.66,,
251576,2024-02-28 11:00:00+00:00,0.25,2024-02-28 10:56,41.0,41.0,,1007.7,140.0,8.05,29.72,100.0,7.0,35.75,,,M,,,GNR,1074341,2024-02-28 11:00:00+00:00,1160.0,2.66,,
251577,2024-02-28 12:00:00+00:00,0.25,2024-02-28 11:56,43.0,43.0,,1007.4,,5.75,29.71,100.0,5.0,39.46,,17.0,M,,,GNR,1074345,2024-02-28 12:00:00+00:00,1160.0,2.66,,
251578,2024-02-28 13:00:00+00:00,0.25,2024-02-28 12:56,45.0,44.0,,1007.5,170.0,9.2,29.72,96.26,8.0,40.13,,21.0,M,,,GNR,1074349,2024-02-28 13:00:00+00:00,1160.0,2.66,,
251579,2024-02-28 14:00:00+00:00,0.25,2024-02-28 13:56,44.0,44.0,,1006.9,160.0,11.5,29.7,100.0,10.0,38.02,,20.0,M,,,GNR,1074353,2024-02-28 14:00:00+00:00,1160.0,2.66,,
251580,2024-02-28 15:00:00+00:00,0.25,2024-02-28 14:56,44.0,44.0,,1005.9,170.0,12.65,29.67,100.0,11.0,37.63,,22.0,M,,,GNR,1074357,2024-02-28 15:00:00+00:00,1160.0,2.66,,
251581,2024-02-28 16:00:00+00:00,0.25,2024-02-28 15:56,44.0,44.0,,1004.4,160.0,10.35,29.63,100.0,9.0,38.44,,17.0,M,,,GNR,1074361,2024-02-28 16:00:00+00:00,1160.0,2.66,,
251582,2024-02-28 17:00:00+00:00,0.25,2024-02-28 16:56,45.0,44.0,,1003.0,160.0,9.2,29.59,96.26,8.0,40.13,,19.0,M,,,GNR,1074365,2024-02-28 17:00:00+00:00,1160.0,2.66,,
251583,2024-02-28 18:00:00+00:00,0.51,2024-02-28 17:56,45.0,44.0,,1001.3,160.0,11.5,29.54,96.26,10.0,39.27,,22.0,M,,,GNR,1074369,2024-02-28 18:00:00+00:00,1170.0,2.67,,
251584,2024-02-28 19:00:00+00:00,0.51,2024-02-28 18:56,45.0,45.0,,1000.7,160.0,10.35,29.52,100.0,9.0,39.68,,22.0,M,,,GNR,1074373,2024-02-28 19:00:00+00:00,1170.0,2.67,,
251585,2024-02-28 20:00:00+00:00,0.25,2024-02-28 19:56,45.0,45.0,,999.1,150.0,9.2,29.47,100.0,8.0,40.13,,16.0,M,,,GNR,1074377,2024-02-28 20:00:00+00:00,1170.0,2.67,,
251586,2024-02-28 21:00:00+00:00,0.0,2024-02-28 20:56,45.0,45.0,,998.3,150.0,10.35,29.45,100.0,9.0,39.68,,20.0,M,,,GNR,1074381,2024-02-28 21:00:00+00:00,1180.0,2.68,,
251587,2024-02-28 22:00:00+00:00,0.25,2024-02-28 21:56,45.0,44.0,,997.3,160.0,12.65,29.42,96.26,11.0,38.89,,22.0,M,,,GNR,1074385,2024-02-28 22:00:00+00:00,1180.0,2.68,,
251588,2024-02-28 23:00:00+00:00,0.51,2024-02-28 22:56,44.0,44.0,,996.3,160.0,12.65,29.39,100.0,11.0,37.63,,20.0,M,,,GNR,1074389,2024-02-28 23:00:00+00:00,1180.0,2.68,,
251589,2024-02-29 00:00:00+00:00,0.25,2024-02-28 23:56,44.0,44.0,,994.5,150.0,12.65,29.34,100.0,11.0,37.63,,28.0,M,28.0,,GNR,1074393,2024-02-29 00:00:00+00:00,1350.0,2.82,,
251590,2024-02-29 01:00:00+00:00,1.02,2024-02-29 00:56,45.0,44.0,,993.5,160.0,8.05,29.32,96.26,7.0,40.63,,17.0,M,,,GNR,1074397,2024-02-29 01:00:00+00:00,8600.0,6.3,,
251591,2024-02-29 02:00:00+00:00,0.51,2024-02-29 01:56,45.0,44.0,,991.8,170.0,11.5,29.27,96.26,10.0,39.27,,22.0,M,,,GNR,1074401,2024-02-29 02:00:00+00:00,4130.0,4.41,,
251592,2024-02-29 03:00:00+00:00,1.27,2024-02-29 02:56,45.0,44.0,,990.7,180.0,8.05,29.24,96.26,7.0,40.63,,20.0,M,27.0,,GNR,1074405,2024-02-29 03:00:00+00:00,1740.0,3.1,,
251593,2024-02-29 04:00:00+00:00,2.29,2024-02-29 03:56,45.0,45.0,,992.1,,4.6,29.27,100.0,4.0,42.6,,17.0,M,,,GNR,1074409,2024-02-29 04:00:00+00:00,1300.0,2.78,,
251594,2024-02-29 05:00:00+00:00,3.3,2024-02-29 04:56,35.0,33.0,,995.0,310.0,13.8,29.35,92.32,12.0,25.82,,29.0,M,30.0,,GNR,1074413,2024-02-29 05:00:00+00:00,1280.0,2.76,,
251595,2024-02-29 06:00:00+00:00,1.02,2024-02-29 05:56,32.0,30.0,,995.3,320.0,16.1,29.36,92.22,14.0,21.16,,22.0,M,28.0,,GNR,1074417,2024-02-29 06:00:00+00:00,1280.0,2.76,,
251596,2024-02-29 07:00:00+00:00,0.0,2024-02-29 06:56,28.0,24.0,,996.5,300.0,13.8,29.39,84.72,12.0,16.91,,28.0,M,34.0,,GNR,1074421,2024-02-29 07:00:00+00:00,1290.0,2.77,,
251597,2024-02-29 08:00:00+00:00,0.0,2024-02-29 07:56,26.0,19.0,,997.6,300.0,12.65,29.42,74.46,11.0,14.88,,28.0,M,35.0,,GNR,1074425,2024-02-29 08:00:00+00:00,1290.0,2.77,,
251598,2024-02-29 09:00:00+00:00,0.0,2024-02-29 08:56,20.0,12.0,,999.5,,,29.47,70.65,,,,,M,29.0,,GNR,1074429,2024-02-29 09:00:00+00:00,1230.0,2.72,,
251599,2024-02-29 10:00:00+00:00,0.0,2024-02-29 09:56,11.0,5.0,,1003.4,280.0,12.65,29.57,76.28,11.0,-4.07,,27.0,M,42.0,,GNR,1074433,2024-02-29 10:00:00+00:00,1230.0,2.72,,
251600,2024-02-29 11:00:00+00:00,0.0,2024-02-29 10:56,6.0,-3.0,,1005.8,300.0,20.7,29.64,65.76,18.0,-14.48,,36.0,M,41.0,,GNR,1074437,2024-02-29 11:00:00+00:00,1220.0,2.71,,
251601,2024-02-29 12:00:00+00:00,0.0,2024-02-29 11:56,6.0,-3.0,,1008.1,300.0,12.65,29.7,65.76,11.0,-10.39,,22.0,M,41.0,,GNR,1074441,2024-02-29 12:00:00+00:00,1240.0,2.73,,
251602,2024-02-29 13:00:00+00:00,0.0,2024-02-29 12:56,7.0,-3.0,,1009.2,310.0,11.5,29.74,62.84,10.0,-8.38,,27.0,M,33.0,,GNR,1074445,2024-02-29 13:00:00+00:00,1250.0,2.74,,
251603,2024-02-29 14:00:00+00:00,0.0,2024-02-29 13:56,9.0,-3.0,,1010.3,290.0,10.35,29.77,57.41,9.0,-5.09,,22.0,M,32.0,,GNR,1074449,2024-02-29 14:00:00+00:00,1270.0,2.75,,
251604,2024-02-29 15:00:00+00:00,0.0,2024-02-29 14:56,9.0,-4.0,,1011.2,,,29.8,54.74,,,,,M,29.0,,GNR,1074453,2024-02-29 15:00:00+00:00,1280.0,2.76,,
251605,2024-02-29 16:00:00+00:00,0.0,2024-02-29 15:56,11.0,-2.0,,1011.9,280.0,10.35,29.82,55.06,9.0,-2.6,,23.0,M,27.0,,GNR,1074457,2024-02-29 16:00:00+00:00,1270.0,2.75,,
251606,2024-02-29 17:00:00+00:00,0.0,2024-02-29 16:56,14.0,-2.0,,1012.0,280.0,8.05,29.82,48.23,7.0,2.84,,20.0,M,27.0,,GNR,1074461,2024-02-29 17:00:00+00:00,1240.0,2.73,,
251607,2024-02-29 18:00:00+00:00,0.0,2024-02-29 17:56,14.0,-3.0,,1012.1,,,29.82,45.99,,,,,M,28.0,,GNR,1074465,2024-02-29 18:00:00+00:00,1240.0,2.73,,
251608,2024-02-29 19:00:00+00:00,0.0,2024-02-29 18:56,14.0,-4.0,,1012.8,,,29.84,43.85,,,,,M,33.0,,GNR,1074469,2024-02-29 19:00:00+00:00,1250.0,2.74,,
251609,2024-02-29 20:00:00+00:00,0.0,2024-02-29 19:56,11.0,-2.0,,1014.1,290.0,9.2,29.87,55.06,8.0,-1.76,,21.0,M,30.0,,GNR,1074473,2024-02-29 20:00:00+00:00,1280.0,2.76,,
251610,2024-02-29 21:00:00+00:00,0.0,2024-02-29 20:56,10.0,-5.0,,1015.1,270.0,11.5,29.89,49.89,10.0,-4.62,,24.0,M,31.0,,GNR,1074477,2024-02-29 21:00:00+00:00,1280.0,2.76,,
251611,2024-02-29 22:00:00+00:00,0.0,2024-02-29 21:56,9.0,-5.0,,1016.4,280.0,11.5,29.92,52.17,10.0,-5.87,,30.0,M,30.0,,GNR,1074481,2024-02-29 22:00:00+00:00,1280.0,2.76,,
251612,2024-02-29 23:00:00+00:00,0.0,2024-02-29 22:56,8.0,-2.0,,1018.0,290.0,12.65,29.96,62.98,11.0,-7.86,,25.0,M,,,GNR,1074485,2024-02-29 23:00:00+00:00,1280.0,2.76,,
251613,2024-03-01 00:00:00+00:00,0.0,2024-02-29 23:56,6.0,-4.0,,1019.4,290.0,12.65,30.0,62.69,11.0,-10.39,,31.0,M,38.0,,GNR,1074489,2024-03-01 00:00:00+00:00,4100.0,4.4,,
251614,2024-03-01 01:00:00+00:00,0.0,2024-03-01 00:56,5.0,-10.0,,1020.7,290.0,12.65,30.03,49.03,11.0,-11.65,,25.0,M,35.0,,GNR,1074493,2024-03-01 01:00:00+00:00,8880.0,6.41,,
251615,2024-03-01 02:00:00+00:00,0.0,2024-03-01 01:56,4.0,-10.0,,1021.7,310.0,12.65,30.07,51.33,11.0,-12.92,,30.0,M,30.0,,GNR,1074497,2024-03-01 02:00:00+00:00,4260.0,4.47,,
251616,2024-03-01 03:00:00+00:00,0.0,2024-03-01 02:56,3.0,-10.0,,1022.4,300.0,13.8,30.08,53.76,12.0,-14.91,,26.0,M,30.0,,GNR,1074501,2024-03-01 03:00:00+00:00,1830.0,3.16,,
251617,2024-03-01 04:00:00+00:00,0.0,2024-03-01 03:56,2.0,-10.0,,1022.9,300.0,11.5,30.1,56.31,10.0,-14.65,,25.0,M,29.0,,GNR,1074505,2024-03-01 04:00:00+00:00,1380.0,2.84,,
251618,2024-03-01 05:00:00+00:00,0.0,2024-03-01 04:56,2.0,-11.0,,1023.4,300.0,10.35,30.12,53.59,9.0,-13.79,,22.0,M,,,GNR,1074509,2024-03-01 05:00:00+00:00,1370.0,2.83,,
251619,2024-03-01 06:00:00+00:00,0.0,2024-03-01 05:56,1.0,-11.0,,1024.1,300.0,12.65,30.14,56.15,11.0,-16.71,,23.0,M,27.0,,GNR,1074513,2024-03-01 06:00:00+00:00,1370.0,2.83,,
251620,2024-03-01 07:00:00+00:00,0.0,2024-03-01 06:56,1.0,-12.0,,1024.9,300.0,12.65,30.16,53.42,11.0,-16.71,,24.0,M,29.0,,GNR,1074517,2024-03-01 07:00:00+00:00,1380.0,2.84,,
251621,2024-03-01 08:00:00+00:00,0.0,2024-03-01 07:56,0.0,-12.0,,1025.6,290.0,11.5,30.18,55.98,10.0,-17.16,,24.0,M,27.0,,GNR,1074521,2024-03-01 08:00:00+00:00,1430.0,2.88,,
251622,2024-03-01 09:00:00+00:00,0.0,2024-03-01 08:56,0.0,-12.0,,1026.6,300.0,10.35,30.21,55.98,9.0,-16.28,,23.0,M,27.0,,GNR,1074525,2024-03-01 09:00:00+00:00,1220.0,2.71,,
251623,2024-03-01 10:00:00+00:00,0.0,2024-03-01 09:56,0.0,-12.0,,1027.4,310.0,12.65,30.23,55.98,11.0,-17.97,,24.0,M,,,GNR,1074529,2024-03-01 10:00:00+00:00,1080.0,2.59,,
251624,2024-03-01 11:00:00+00:00,0.0,2024-03-01 10:56,0.0,-10.0,,1028.4,300.0,8.05,30.25,61.82,7.0,-14.23,,16.0,M,,,GNR,1074533,2024-03-01 11:00:00+00:00,1060.0,2.58,,
251625,2024-03-01 12:00:00+00:00,0.0,2024-03-01 11:56,1.0,-10.0,,1029.0,320.0,11.5,30.27,58.99,10.0,-15.91,,20.0,M,,,GNR,1074537,2024-03-01 12:00:00+00:00,1060.0,2.58,,
251626,2024-03-01 13:00:00+00:00,0.0,2024-03-01 12:56,4.0,-8.0,,1029.4,320.0,11.5,30.29,56.63,10.0,-12.14,,19.0,M,,,GNR,1074541,2024-03-01 13:00:00+00:00,1080.0,2.59,,
251627,2024-03-01 14:00:00+00:00,0.0,2024-03-01 13:56,7.0,-6.0,,1029.8,310.0,9.2,30.3,54.41,8.0,-6.68,,20.0,M,,,GNR,1074545,2024-03-01 14:00:00+00:00,1090.0,2.6,,
251628,2024-03-01 15:00:00+00:00,0.0,2024-03-01 14:56,11.0,-6.0,,1029.4,310.0,13.8,30.29,45.47,12.0,-4.73,,28.0,M,29.0,,GNR,1074549,2024-03-01 15:00:00+00:00,1090.0,2.6,,
251629,2024-03-01 16:00:00+00:00,0.0,2024-03-01 15:56,15.0,-5.0,,1029.3,290.0,8.05,30.3,40.0,7.0,4.06,,24.0,M,29.0,,GNR,1074553,2024-03-01 16:00:00+00:00,1040.0,2.56,,
251630,2024-03-01 17:00:00+00:00,0.0,2024-03-01 16:56,18.0,-2.0,,1029.1,,6.9,30.29,40.54,6.0,8.67,,19.0,M,,,GNR,1074557,2024-03-01 17:00:00+00:00,1030.0,2.55,,
251631,2024-03-01 18:00:00+00:00,0.0,2024-03-01 17:56,20.0,-1.0,,1028.7,,5.75,30.28,39.01,5.0,12.14,,,M,,,GNR,1074561,2024-03-01 18:00:00+00:00,1030.0,2.55,,
251632,2024-03-01 19:00:00+00:00,0.0,2024-03-01 18:56,22.0,-1.0,,1028.2,,6.9,30.27,35.84,6.0,13.49,,,M,,,GNR,1074565,2024-03-01 19:00:00+00:00,1020.0,2.54,,
251633,2024-03-01 20:00:00+00:00,0.0,2024-03-01 19:56,25.0,-1.0,,1028.1,,,30.27,31.6,,,,,M,,,GNR,1074569,2024-03-01 20:00:00+00:00,999.0,2.52,,
251634,2024-03-01 21:00:00+00:00,0.0,2024-03-01 20:56,25.0,1.0,,1028.6,,3.45,30.28,34.71,3.0,20.69,,,M,,,GNR,1074573,2024-03-01 21:00:00+00:00,987.0,2.51,,
251635,2024-03-01 22:00:00+00:00,0.0,2024-03-01 21:56,24.0,5.0,,1029.1,,,30.29,43.54,,,,,M,,,GNR,1074577,2024-03-01 22:00:00+00:00,976.0,2.5,,
251636,2024-03-01 23:00:00+00:00,0.0,2024-03-01 22:56,24.0,10.0,,1029.8,,5.75,30.31,54.59,5.0,16.89,,,M,,,GNR,1074581,2024-03-01 23:00:00+00:00,964.0,2.49,,
251637,2024-03-02 00:00:00+00:00,0.0,2024-03-01 23:56,24.0,11.0,,1029.8,0.0,0.0,30.32,57.08,0.0,24.0,,,M,,,GNR,1074585,2024-03-02 00:00:00+00:00,976.0,2.5,,
251638,2024-03-02 01:00:00+00:00,0.0,2024-03-02 00:56,22.0,11.0,,1029.9,0.0,0.0,30.32,62.09,0.0,22.0,,,M,,,GNR,1074589,2024-03-02 01:00:00+00:00,9010.0,6.46,,
251639,2024-03-02 02:00:00+00:00,0.0,2024-03-02 01:56,23.0,13.0,,1030.1,0.0,0.0,30.33,65.03,0.0,23.0,,,M,,,GNR,1074593,2024-03-02 02:00:00+00:00,4060.0,4.38,,
251640,2024-03-02 03:00:00+00:00,0.0,2024-03-02 02:56,21.0,13.0,,1029.8,120.0,4.6,30.32,70.76,4.0,14.57,,,M,,,GNR,1074597,2024-03-02 03:00:00+00:00,1770.0,3.12,,
251641,2024-03-02 04:00:00+00:00,0.0,2024-03-02 03:56,24.0,13.0,,1029.5,0.0,0.0,30.32,62.36,0.0,24.0,,,M,,,GNR,1074601,2024-03-02 04:00:00+00:00,1120.0,2.63,,
